{"type":"FeatureCollection","features":[{"type":"Feature","properties":{"slug":"andaman-and-nicobar-islands","name":"Andaman and Nicobar Islands"},"geometry":{"type":"MultiPolygon","coordinates":[[[[92.7556,12.1774],[92.6226,12.1018],[92.5507,11.7196],[92.6654,11.5052],[92.7511,11.6096],[92.7908,11.886],[92.7067,11.9739],[92.7556,12.1774]]],[[[92.8734,12.3314],[92.9743,12.5431],[92.9116,13.0545],[93.034,13.082],[93.0645,13.2731],[93.0431,13.5288],[92.8413,13.3913],[92.7939,12.862],[92.7449,12.7232],[92.6991,12.3286],[92.8734,12.3314]]],[[[92.5202,10.8975],[92.3779,10.782],[92.433,10.5511],[92.5966,10.6817],[92.5202,10.8975]]],[[[93.8368,7.2407],[93.6456,7.1266],[93.8001,6.7664],[93.9148,6.9492],[93.8368,7.2407]]]]}},{"type":"Feature","properties":{"slug":"andhra-pradesh","name":"Andhra Pradesh"},"geometry":{"type":"Polygon","coordinates":[[[80.2683,13.5645],[80.2545,13.7831],[80.146,14.0416],[80.1307,14.2285],[80.1964,14.586],[80.1093,14.7386],[80.0405,15.0094],[80.123,15.3682],[80.2515,15.6335],[80.4182,15.7985],[80.6797,15.8851],[80.831,15.7064],[81.0084,15.7545],[81.1476,15.9745],[81.2133,16.2082],[81.3923,16.3429],[81.5528,16.347],[81.7149,16.3113],[82.3144,16.5587],[82.3618,16.8557],[82.3189,17.0578],[82.5422,17.2489],[83.1615,17.5596],[83.3466,17.7259],[83.5194,17.95],[83.6631,18.0792],[84.128,18.3129],[84.3543,18.5549],[84.7641,19.0745],[84.7014,19.1185],[84.4231,18.9494],[84.3191,18.7886],[84.0897,18.7584],[83.8909,18.8161],[83.7931,19.0182],[83.7564,18.911],[83.6631,19.0993],[83.3481,19.0182],[83.4123,18.8738],[82.9994,18.6085],[83.0774,18.4037],[82.7731,18.3418],[82.6064,18.3666],[82.4275,18.4862],[82.3144,18.1851],[82.3189,18.0449],[82.0315,18.0696],[81.9795,18.0132],[81.617,17.8235],[81.3968,17.818],[81.1659,17.8579],[81.0849,17.7974],[80.8861,17.7355],[80.9106,17.6379],[81.0207,17.5197],[81.3097,17.4097],[81.1736,17.231],[80.9411,17.2186],[80.8769,17.0702],[80.5053,17.0688],[80.6017,16.9189],[80.5695,16.7677],[80.3218,16.8791],[80.1873,17.0207],[80.0557,16.9712],[80.0726,16.8172],[79.9487,16.6357],[79.7927,16.7251],[79.6796,16.6935],[79.4181,16.5807],[79.2575,16.5656],[79.2101,16.3567],[79.2147,16.2261],[79.0297,16.2412],[78.9226,16.123],[78.7406,16.0088],[78.6015,16.0845],[78.2559,16.0088],[78.2482,15.9717],[78.0831,15.8411],[77.5142,15.9277],[77.2482,15.9649],[77.0264,15.837],[77.0631,15.3283],[77.1564,15.14],[76.9851,15.0149],[76.8001,15.096],[76.7603,14.9888],[76.8674,14.9695],[76.7649,14.6025],[76.901,14.4897],[76.8842,14.3481],[77.005,14.2354],[77.1381,14.3371],[77.3644,14.2753],[77.3216,14.0306],[77.028,14.0622],[77.0035,14.1983],[76.9484,14.0952],[77.0417,13.933],[77.1809,13.8697],[77.4332,13.8436],[77.4561,13.6828],[77.7818,13.8189],[77.9699,13.9591],[78.1259,13.7872],[78.1963,13.5687],[78.4012,13.5879],[78.3645,13.3624],[78.5862,13.2758],[78.4669,12.9748],[78.2528,12.8607],[78.2314,12.7603],[78.4119,12.627],[78.603,12.8442],[78.6214,12.9913],[78.892,13.0957],[79.1627,13.0201],[79.2285,13.1576],[79.2835,13.1232],[79.5343,13.2758],[79.9456,13.3638],[80.0374,13.5384],[80.2683,13.5645]],[[82.1859,16.7375],[82.27,16.7223],[82.2669,16.6948],[82.2394,16.7168],[82.1997,16.721],[82.1859,16.7375]]]}},{"type":"Feature","properties":{"slug":"arunachal-pradesh","name":"Arunachal Pradesh"},"geometry":{"type":"Polygon","coordinates":[[[95.1366,27.8152],[95.5143,27.8799],[95.5189,27.884],[95.6061,27.9555],[95.97,27.9596],[95.7743,27.7328],[95.8737,27.5444],[95.8568,27.2708],[95.6336,27.231],[95.4837,27.242],[95.3767,27.0962],[95.369,27.11],[95.1962,27.0344],[95.2345,26.6824],[95.4271,26.6976],[95.496,26.8172],[95.684,26.9038],[95.9455,27.0509],[96.022,27.1801],[96.3064,27.2942],[96.6061,27.3657],[96.7973,27.3464],[96.86,27.1897],[97.0634,27.0921],[97.1643,27.1416],[96.9624,27.4014],[96.8615,27.631],[97.253,27.9005],[97.3707,28.218],[97.0894,28.3624],[96.9946,28.3101],[96.7805,28.3638],[96.6627,28.46],[96.3141,28.383],[96.3263,28.5109],[96.5847,28.7171],[96.519,28.9673],[96.1504,29.0498],[96.2437,29.2326],[96.0893,29.4594],[95.5388,29.212],[95.4547,29.0346],[95.2696,29.0498],[95.2528,29.1089],[94.8736,29.1831],[94.6794,29.3275],[94.4332,29.2271],[94.187,29.0388],[93.9973,28.8408],[93.9622,28.713],[93.3398,28.6401],[93.1823,28.4325],[93.2236,28.3418],[92.8015,28.2015],[92.6624,28.0668],[92.7342,27.9761],[92.4682,27.8152],[92.2571,27.862],[91.881,27.7218],[91.8259,27.8097],[91.6302,27.8015],[91.5644,27.5843],[91.6546,27.4825],[92.014,27.4894],[92.0706,27.2763],[92.0339,27.0646],[92.1134,26.8928],[92.3596,26.9258],[92.6562,27.0083],[92.8872,27],[93.0615,26.9216],[93.3979,26.9574],[93.6976,26.9945],[93.8062,27.1485],[94.2191,27.5045],[94.2665,27.5197],[94.213,27.6063],[94.4622,27.5554],[94.8522,27.7273],[95.1366,27.8152]]]}},{"type":"Feature","properties":{"slug":"assam","name":"Assam"},"geometry":{"type":"Polygon","coordinates":[[[95.4837,27.242],[95.6336,27.231],[95.8568,27.2708],[95.8737,27.5444],[95.7743,27.7328],[95.97,27.9596],[95.6061,27.9555],[95.5189,27.884],[95.5143,27.8799],[95.1366,27.8152],[94.8522,27.7273],[94.4622,27.5554],[94.213,27.6063],[94.2665,27.5197],[94.2191,27.5045],[93.8062,27.1485],[93.6976,26.9945],[93.3979,26.9574],[93.0615,26.9216],[92.8872,27],[92.6562,27.0083],[92.3596,26.9258],[92.1134,26.8928],[91.8932,26.9189],[91.7036,26.813],[91.3366,26.78],[91.098,26.8227],[90.9512,26.7773],[90.7172,26.769],[90.4175,26.9052],[90.3365,26.8625],[90.1943,26.7732],[89.8517,26.6976],[89.8349,26.4144],[89.8425,26.3827],[89.7294,26.171],[89.8869,25.9456],[89.8425,25.8823],[89.8716,25.4768],[90.0199,25.6074],[89.8991,25.727],[90.1224,25.9593],[90.4343,25.9909],[90.6316,25.9195],[90.9481,25.9483],[91.0261,25.8865],[91.0078,25.8246],[91.335,25.8411],[91.4451,25.8397],[91.5797,26.0336],[91.7234,26.0349],[92.173,26.0762],[92.274,26.0652],[92.1639,25.9703],[92.1516,25.672],[92.4437,25.7201],[92.6608,25.5716],[92.5691,25.4658],[92.7923,25.2829],[92.54,25.0987],[92.4253,25.03],[92.5156,24.8801],[92.2954,24.7372],[92.2143,24.509],[92.2954,24.245],[92.4223,24.2505],[92.5324,24.1776],[92.7618,24.5131],[92.8963,24.3907],[93.0095,24.4127],[93.0875,24.5722],[93.1746,24.7977],[93.2465,24.9722],[93.3811,25.2403],[93.4698,25.3063],[93.456,25.4342],[93.3291,25.5428],[93.5126,25.6747],[93.7756,25.9689],[93.9545,25.9689],[94.0004,26.1724],[94.164,26.3511],[94.3139,26.4611],[94.4026,26.611],[94.5861,26.7251],[94.7359,26.7498],[94.791,26.7965],[94.924,26.9491],[95.1962,27.0344],[95.369,27.11],[95.3767,27.0962],[95.4837,27.242]]]}},{"type":"Feature","properties":{"slug":"bihar","name":"Bihar"},"geometry":{"type":"Polygon","coordinates":[[[84.157,26.3759],[84.0561,26.0995],[84.472,25.8823],[84.6005,25.7325],[84.3191,25.6679],[84.0806,25.6363],[83.9307,25.5579],[83.7793,25.3984],[83.5377,25.3091],[83.3496,25.184],[83.3955,24.7812],[83.4888,24.7358],[83.5239,24.5502],[83.5025,24.5255],[83.8726,24.5323],[84.0087,24.6423],[84.0928,24.5337],[84.3268,24.4897],[84.4965,24.2876],[84.5852,24.4003],[84.8023,24.5309],[85.0883,24.3701],[85.3314,24.5103],[85.3743,24.5543],[85.677,24.5914],[85.7382,24.8196],[85.9018,24.766],[86.0547,24.7798],[86.1327,24.6038],[86.4523,24.3729],[86.6114,24.6079],[86.9126,24.5474],[87.0518,24.6272],[87.1756,25.0575],[87.327,25.2238],[87.4784,25.195],[87.5518,25.3311],[87.7109,25.2582],[87.7674,25.4163],[87.9601,25.5386],[88.0672,25.4837],[87.8928,25.8658],[87.8271,25.8906],[87.85,26.0391],[88.2797,26.3305],[88.24,26.4584],[88.11,26.5477],[88.0335,26.3924],[87.8485,26.4364],[87.6589,26.38],[87.4631,26.4405],[87.1619,26.4047],[87.0426,26.5601],[86.723,26.4254],[86.5426,26.5381],[86.0287,26.6659],[85.8162,26.6],[85.729,26.8089],[85.544,26.8378],[85.255,26.7539],[85.1923,26.8694],[84.758,27.0028],[84.6418,27.0481],[84.6892,27.2213],[84.6204,27.3396],[84.2794,27.3946],[84.0974,27.5169],[83.8619,27.3354],[83.9078,27.275],[84.05,27.044],[84.0607,26.8873],[84.2595,26.8048],[84.4185,26.6316],[84.1127,26.6302],[84.0515,26.5518],[83.9078,26.4474],[84.157,26.3759]]]}},{"type":"Feature","properties":{"slug":"chandigarh","name":"Chandigarh"},"geometry":{"type":"Polygon","coordinates":[[[76.8276,30.6816],[76.8383,30.7545],[76.7099,30.7613],[76.7389,30.6926],[76.8276,30.6816]]]}},{"type":"Feature","properties":{"slug":"chhattisgarh","name":"Chhattisgarh"},"geometry":{"type":"Polygon","coordinates":[[[82.3388,20.8741],[82.4596,20.826],[82.6385,21.0886],[82.6401,21.1546],[82.9658,21.1752],[83.1921,21.1394],[83.2686,21.3773],[83.3833,21.6206],[83.4872,21.644],[83.5912,21.8254],[83.5377,22.0454],[83.6279,22.2035],[83.8023,22.2942],[84.0102,22.3712],[84.0118,22.5279],[84.0836,22.6379],[84.2931,22.7726],[84.3742,22.9789],[84.1784,22.9802],[84.0377,23.1713],[84.0744,23.3335],[83.9628,23.3858],[84.0163,23.6346],[83.7747,23.6099],[83.7059,23.8202],[83.5713,23.8628],[83.4322,24.0855],[83.3297,24.102],[83.2074,23.9219],[82.9474,23.8711],[82.8129,23.9618],[82.6936,23.9192],[82.4979,23.7845],[82.2088,23.8532],[81.9214,23.8711],[81.8097,23.8078],[81.6033,23.8848],[81.6966,23.7212],[81.6109,23.5123],[81.9168,23.5343],[81.9856,23.4146],[82.1997,23.3143],[82.1232,23.104],[81.9504,22.983],[81.7317,22.6764],[81.7287,22.6695],[81.6216,22.5376],[81.4748,22.4894],[81.1935,22.4908],[81.0451,22.2406],[80.9075,22.11],[80.8463,21.8351],[80.7148,21.6618],[80.7378,21.4735],[80.6613,21.3333],[80.464,21.1752],[80.464,20.9291],[80.5619,20.8232],[80.6261,20.3324],[80.3952,20.2445],[80.5451,20.1001],[80.4686,19.8265],[80.672,19.7028],[80.8953,19.52],[80.8524,19.3646],[80.7515,19.2876],[80.4824,19.3371],[80.2714,18.9426],[80.3493,18.8477],[80.2759,18.7199],[80.3723,18.6113],[80.4549,18.6305],[80.7056,18.4394],[80.7561,18.17],[80.9794,18.1658],[81.0161,17.7947],[81.0849,17.7974],[81.1659,17.8579],[81.3968,17.818],[81.4825,17.9775],[81.5299,18.2401],[81.9106,18.57],[81.8999,18.6607],[82.0911,18.7377],[82.2455,18.9192],[82.2058,19.1213],[82.189,19.4279],[82.0284,19.5076],[82.0651,19.7908],[81.8694,19.9022],[81.8755,20.052],[82.0177,20.0493],[82.4459,19.9104],[82.5942,19.7757],[82.6966,19.8307],[82.7181,19.9888],[82.3985,20.0561],[82.4382,20.4342],[82.3388,20.8741]]]}},{"type":"Feature","properties":{"slug":"dadra-and-nagar-haveli-and-daman-and-diu","name":"Dadra and Nagar Haveli and Daman and Diu"},"geometry":{"type":"MultiPolygon","coordinates":[[[[72.9618,20.2087],[72.9649,20.1276],[73.2111,20.1207],[73.0429,20.3256],[72.9618,20.2087]]],[[[72.8869,20.4617],[72.8364,20.4534],[72.8288,20.3682],[72.8869,20.4617]]],[[[70.9204,20.7421],[70.977,20.7023],[70.9999,20.7421],[70.9204,20.7421]]]]}},{"type":"Feature","properties":{"slug":"delhi","name":"Delhi"},"geometry":{"type":"Polygon","coordinates":[[[77.3414,28.6098],[77.2222,28.8312],[77.216,28.8532],[76.9423,28.7982],[76.9714,28.6978],[76.8842,28.5026],[77.0065,28.5411],[77.1748,28.405],[77.3476,28.5205],[77.3414,28.6098]]]}},{"type":"Feature","properties":{"slug":"goa","name":"Goa"},"geometry":{"type":"Polygon","coordinates":[[[74.2509,15.4919],[74.2785,15.5222],[74.1179,15.6514],[73.939,15.7421],[73.6851,15.7284],[73.7662,15.4947],[73.9344,15.4328],[73.8839,15.3545],[73.9818,15.0548],[74.0858,14.9008],[74.2968,15.041],[74.3228,15.3682],[74.2509,15.4919]]]}},{"type":"Feature","properties":{"slug":"gujarat","name":"Gujarat"},"geometry":{"type":"Polygon","coordinates":[[[72.7508,21.0624],[72.8548,20.7504],[72.8869,20.4617],[72.8288,20.3682],[72.7401,20.2431],[72.7753,20.1317],[72.9618,20.2087],[73.0429,20.3256],[73.2111,20.1207],[73.2493,20.1221],[73.416,20.2046],[73.4038,20.3861],[73.468,20.496],[73.4068,20.6239],[73.4741,20.7201],[73.7448,20.5648],[73.8381,20.6211],[73.942,20.8397],[73.8885,20.9332],[73.8488,20.9978],[73.8488,20.9992],[73.8075,21.0088],[73.8151,21.1738],[74.046,21.446],[73.9818,21.5216],[73.835,21.5202],[73.939,21.8735],[74.147,21.9505],[74.095,22.0165],[74.1898,22.3203],[74.0583,22.5499],[74.3794,22.6352],[74.465,22.8166],[74.3198,23.06],[74.2479,23.1837],[73.9818,23.3377],[73.9589,23.3803],[73.627,23.449],[73.6561,23.6209],[73.3686,23.8147],[73.3778,23.9041],[73.4053,24.0415],[73.2142,24.0773],[73.0674,24.1941],[73.1515,24.355],[73.0016,24.4801],[72.9589,24.3608],[72.9588,24.3605],[72.9583,24.3605],[72.8753,24.363],[72.8161,24.3647],[72.7279,24.3674],[72.6835,24.4636],[72.6833,24.4636],[72.682,24.4639],[72.5199,24.5007],[72.5001,24.417],[72.5,24.4168],[72.4999,24.417],[72.3538,24.5633],[72.3536,24.5636],[72.3532,24.5639],[72.3407,24.6109],[72.3349,24.6327],[72.3348,24.6327],[72.2847,24.6294],[72.1963,24.6237],[72.1651,24.6217],[72.0581,24.7124],[71.9189,24.6725],[71.7921,24.6767],[71.792,24.6767],[71.6573,24.6399],[71.6559,24.6396],[71.6085,24.6767],[71.6082,24.6767],[71.4785,24.6794],[71.3776,24.6258],[71.2882,24.6163],[71.2874,24.6162],[71.188,24.6506],[71.1115,24.6753],[70.9861,24.5956],[70.9861,24.366],[70.8057,24.2203],[70.5717,24.2519],[70.5732,24.4223],[70.1099,24.2945],[70.0258,24.1708],[69.7322,24.1708],[69.5946,24.2931],[69.1939,24.2368],[68.9462,24.3027],[68.7642,24.2959],[68.7535,23.9714],[68.3391,23.9659],[68.2091,23.8752],[68.1418,23.6016],[68.3101,23.5782],[68.4003,23.4201],[68.5501,23.3555],[68.6327,23.1699],[69.1312,22.8744],[69.6481,22.796],[70.0809,22.9197],[70.3118,23.2153],[70.6895,23.1177],[70.4968,22.9335],[70.3989,22.9046],[70.1252,22.5527],[69.9753,22.5431],[69.7536,22.418],[69.3407,22.3121],[69.0058,22.4399],[68.9661,22.2337],[69.2169,21.9574],[69.3958,21.8887],[69.3713,21.8296],[69.7077,21.5354],[69.9815,21.2274],[70.2399,20.9923],[70.4479,20.848],[70.8271,20.6899],[70.9204,20.7421],[70.9999,20.7421],[71.2063,20.7957],[71.6773,20.9965],[72.1131,21.1985],[72.1086,21.3017],[72.3089,21.6247],[72.1942,21.7498],[72.2447,21.9945],[72.3762,22.3148],[72.6591,22.2791],[72.9465,22.2928],[72.867,22.2145],[72.5673,22.1815],[72.5092,21.9437],[72.6224,21.8089],[72.5428,21.7333],[72.7355,21.4749],[72.6545,21.3456],[72.6208,21.0996],[72.7508,21.0624]]]}},{"type":"Feature","properties":{"slug":"haryana","name":"Haryana"},"geometry":{"type":"Polygon","coordinates":[[[77.216,28.8532],[77.1426,29.1666],[77.1549,29.2972],[77.1319,29.4842],[77.1518,29.6877],[77.2267,29.9392],[77.583,30.3077],[77.58,30.3792],[77.2084,30.4878],[77.1228,30.5634],[77.1671,30.6844],[77.0249,30.749],[76.9163,30.9002],[76.7772,30.9043],[76.8383,30.7545],[76.8276,30.6816],[76.9255,30.6101],[76.9071,30.4589],[76.7481,30.4286],[76.5615,30.2417],[76.6426,30.1496],[76.4667,30.0987],[76.2542,30.0891],[76.2144,29.8403],[76.0982,29.81],[75.9468,29.7289],[75.7205,29.8141],[75.5798,29.7399],[75.4605,29.8073],[75.303,29.5598],[75.1685,29.667],[75.1914,29.8444],[74.9972,29.8677],[74.8122,29.9928],[74.7051,29.975],[74.5262,29.9406],[74.6164,29.7523],[74.5751,29.5639],[74.6027,29.3646],[74.9376,29.3618],[75.0813,29.2285],[75.2403,29.2601],[75.3458,29.2835],[75.3917,29.0621],[75.5278,28.9714],[75.4743,28.926],[75.5615,28.6126],[75.67,28.5191],[75.8933,28.3899],[76.0554,28.2208],[75.9331,27.928],[76.0768,27.8414],[76.2251,27.8331],[76.1594,27.9981],[76.3123,28.1782],[76.5432,28.0338],[76.8536,28.2208],[76.9698,28.1383],[76.9423,27.8427],[76.9775,27.6544],[77.0448,27.8207],[77.2833,27.7987],[77.3445,27.8496],[77.5295,27.9266],[77.476,28.0847],[77.5005,28.2057],[77.5051,28.3706],[77.3476,28.5205],[77.1748,28.405],[77.0065,28.5411],[76.8842,28.5026],[76.9714,28.6978],[76.9423,28.7982],[77.216,28.8532]]]}},{"type":"Feature","properties":{"slug":"himachal-pradesh","name":"Himachal Pradesh"},"geometry":{"type":"Polygon","coordinates":[[[78.6734,32.0784],[78.4822,32.2791],[78.5342,32.4138],[78.3981,32.5251],[78.3874,32.7575],[78.0158,32.62],[77.7406,32.9692],[77.3384,32.8166],[77.2741,32.8743],[77.1503,32.9774],[76.9331,33.0283],[76.7726,33.251],[76.7481,33.1795],[76.4102,33.1864],[76.2221,33.0214],[75.9545,32.873],[75.8015,32.8853],[75.9239,32.7479],[75.8367,32.5114],[75.9315,32.3945],[75.6379,32.2516],[75.6012,32.0935],[75.5982,32.0825],[75.9101,31.9505],[75.9606,31.857],[76.0172,31.6316],[76.2007,31.303],[76.2894,31.3071],[76.3918,31.413],[76.4973,31.27],[76.6457,31.2095],[76.6242,30.9992],[76.7328,30.9373],[76.7772,30.9043],[76.9163,30.9002],[77.0249,30.749],[77.1671,30.6844],[77.1228,30.5634],[77.2084,30.4878],[77.58,30.3792],[77.5754,30.4012],[77.8155,30.5056],[77.7039,30.7641],[77.8063,30.8534],[77.8292,31.0294],[77.9669,31.1738],[78.3109,31.2837],[78.4837,31.1985],[78.8095,31.1985],[78.8813,31.2837],[78.7498,31.3662],[78.7345,31.5367],[78.8462,31.6082],[78.7055,31.7745],[78.7819,31.9931],[78.6734,32.0784]]]}},{"type":"Feature","properties":{"slug":"jammu-and-kashmir","name":"Jammu and Kashmir"},"geometry":{"type":"Polygon","coordinates":[[[74.6011,34.7371],[74.3198,34.7866],[74.5675,34.8732],[74.4864,35.1097],[74.2525,35.0368],[74.147,35.0973],[73.9635,34.8416],[73.7494,34.7866],[73.6179,34.5859],[73.4466,34.5735],[73.39,34.3742],[73.4879,34.1446],[73.5888,33.8834],[73.598,33.7129],[73.5643,33.3418],[73.6882,33.0874],[73.9573,32.9871],[74.3825,32.7575],[74.4467,32.7891],[74.6592,32.7877],[74.6806,32.4922],[74.8886,32.521],[74.9467,32.4468],[75.2052,32.4179],[75.3413,32.3464],[75.5125,32.3079],[75.8367,32.5114],[75.9239,32.7479],[75.8015,32.8853],[75.9545,32.873],[76.2221,33.0214],[76.4102,33.1864],[76.7481,33.1795],[76.7726,33.251],[76.5019,33.5163],[76.3092,33.5713],[76.2649,33.7418],[76.0217,33.9975],[75.8642,33.9783],[75.5951,34.1982],[75.4972,34.234],[75.3841,34.3618],[75.3749,34.3879],[75.2388,34.6285],[74.7326,34.6711],[74.6011,34.7371]]]}},{"type":"Feature","properties":{"slug":"jharkhand","name":"Jharkhand"},"geometry":{"type":"Polygon","coordinates":[[[87.8393,24.7454],[87.8913,24.8554],[87.954,24.9736],[87.795,25.0877],[87.7109,25.2582],[87.5518,25.3311],[87.4784,25.195],[87.327,25.2238],[87.1756,25.0575],[87.0518,24.6272],[86.9126,24.5474],[86.6114,24.6079],[86.4523,24.3729],[86.1327,24.6038],[86.0547,24.7798],[85.9018,24.766],[85.7382,24.8196],[85.677,24.5914],[85.3743,24.5543],[85.3314,24.5103],[85.0883,24.3701],[84.8023,24.5309],[84.5852,24.4003],[84.4965,24.2876],[84.3268,24.4897],[84.0928,24.5337],[84.0087,24.6423],[83.8726,24.5323],[83.5025,24.5255],[83.4001,24.498],[83.4093,24.267],[83.3297,24.102],[83.4322,24.0855],[83.5713,23.8628],[83.7059,23.8202],[83.7747,23.6099],[84.0163,23.6346],[83.9628,23.3858],[84.0744,23.3335],[84.0377,23.1713],[84.1784,22.9802],[84.3742,22.9789],[84.2931,22.7726],[84.0836,22.6379],[84.0118,22.5279],[84.1968,22.3781],[84.4292,22.352],[84.5347,22.4276],[84.7503,22.4193],[85.0699,22.4908],[85.0287,22.1224],[85.2382,22.0096],[85.3972,22.1636],[85.6832,22.0578],[85.8972,21.9835],[86.0089,22.1155],[86.0287,22.3341],[85.963,22.4853],[86.067,22.5568],[86.7276,22.2159],[86.8453,22.4001],[86.7658,22.576],[86.5594,22.7135],[86.4187,22.7905],[86.4355,22.9266],[86.2413,22.9967],[86.044,23.1452],[85.885,23.1672],[85.8193,23.2689],[85.859,23.4298],[85.885,23.4834],[86.0395,23.4985],[86.3101,23.4119],[86.486,23.636],[86.801,23.6992],[86.801,23.8339],[86.9157,23.8821],[87.0854,23.812],[87.2949,23.9013],[87.2337,24.025],[87.4402,23.9824],[87.6313,24.1639],[87.639,24.2546],[87.8011,24.3825],[87.8898,24.5653],[87.8393,24.7454]]]}},{"type":"Feature","properties":{"slug":"karnataka","name":"Karnataka"},"geometry":{"type":"Polygon","coordinates":[[[77.4592,16.8846],[77.4668,16.9547],[77.3797,17.2228],[77.5127,17.4303],[77.6855,17.5115],[77.4439,17.5843],[77.4531,17.6943],[77.6564,17.9692],[77.5632,18.1961],[77.6014,18.2758],[77.5509,18.2923],[77.265,18.4229],[77.0647,18.1507],[76.9515,18.1878],[76.9194,17.9156],[76.7405,17.8991],[76.6854,17.6819],[76.5233,17.7603],[76.4285,17.6434],[76.3322,17.5967],[76.3826,17.3149],[76.0753,17.3369],[75.9315,17.3231],[75.6333,17.4771],[75.6043,17.3052],[75.6654,16.9794],[75.3413,16.9561],[75.1822,16.8433],[75.0889,16.9519],[74.6959,16.7155],[74.3152,16.5546],[74.3167,16.3264],[74.4803,16.2494],[74.4635,16.0391],[74.3458,15.7641],[74.2097,15.7806],[74.1179,15.6514],[74.2785,15.5222],[74.2509,15.4919],[74.3228,15.3682],[74.2968,15.041],[74.0858,14.9008],[74.1179,14.7853],[74.2632,14.7193],[74.3947,14.4183],[74.5155,13.9866],[74.5828,13.9261],[74.6699,13.6346],[74.777,13.071],[74.8687,12.7589],[75.1119,12.6806],[75.2801,12.5238],[75.4162,12.4991],[75.4147,12.2901],[75.5768,12.1568],[75.9361,11.9409],[76.1135,11.9794],[76.3184,11.7512],[76.4132,11.7581],[76.4178,11.6715],[76.8475,11.5945],[76.9087,11.7952],[77.2925,11.809],[77.4286,11.7677],[77.4944,11.9437],[77.6763,11.9519],[77.7467,12.1554],[77.4714,12.2434],[77.6152,12.3671],[77.6014,12.6682],[77.739,12.6723],[77.8308,12.8662],[77.8659,12.8703],[78.0571,12.8524],[78.2314,12.7603],[78.2528,12.8607],[78.4669,12.9748],[78.5862,13.2758],[78.3645,13.3624],[78.4012,13.5879],[78.1963,13.5687],[78.1259,13.7872],[77.9699,13.9591],[77.7818,13.8189],[77.4561,13.6828],[77.4332,13.8436],[77.1809,13.8697],[77.0417,13.933],[76.9484,14.0952],[77.0035,14.1983],[77.028,14.0622],[77.3216,14.0306],[77.3644,14.2753],[77.1381,14.3371],[77.005,14.2354],[76.8842,14.3481],[76.901,14.4897],[76.7649,14.6025],[76.8674,14.9695],[76.7603,14.9888],[76.8001,15.096],[76.9851,15.0149],[77.1564,15.14],[77.0631,15.3283],[77.0264,15.837],[77.2482,15.9649],[77.5142,15.9277],[77.5005,16.2219],[77.5938,16.3429],[77.2879,16.4089],[77.4164,16.5175],[77.4592,16.8846]]]}},{"type":"Feature","properties":{"slug":"kerala","name":"Kerala"},"geometry":{"type":"Polygon","coordinates":[[[76.4178,11.6715],[76.4132,11.7581],[76.3184,11.7512],[76.1135,11.9794],[75.9361,11.9409],[75.5768,12.1568],[75.4147,12.2901],[75.4162,12.4991],[75.2801,12.5238],[75.1119,12.6806],[74.8687,12.7589],[75.1654,12.0894],[75.5538,11.7017],[75.618,11.4777],[75.6976,11.4254],[75.826,11.123],[75.9575,10.6858],[76.2144,10.1936],[76.167,10.1813],[76.2802,9.7895],[76.3199,9.4829],[76.479,9.1227],[76.5478,8.9027],[76.6824,8.7763],[76.9591,8.4216],[77.0983,8.2924],[77.2696,8.5783],[77.1992,8.7708],[77.2558,8.8794],[77.2038,9.0705],[77.2818,9.2987],[77.3399,9.4196],[77.4026,9.5255],[77.1671,9.6121],[77.268,10.1221],[77.2879,10.2321],[77.0906,10.3146],[77.0509,10.2624],[76.8919,10.2596],[76.8337,10.3394],[76.8383,10.5964],[76.9071,10.782],[76.6564,10.9388],[76.7542,11.079],[76.7068,11.2398],[76.4423,11.2013],[76.5478,11.3594],[76.2343,11.5271],[76.4178,11.6715]],[[75.5553,11.7224],[75.537,11.7196],[75.5416,11.7389],[75.5553,11.7224]]]}},{"type":"Feature","properties":{"slug":"ladakh","name":"Ladakh"},"geometry":{"type":"Polygon","coordinates":[[[77.2741,32.8743],[77.3384,32.8166],[77.7406,32.9692],[78.0158,32.62],[78.3874,32.7575],[78.3981,32.5251],[78.7605,32.6544],[78.8569,32.4399],[78.9807,32.3382],[79.1138,32.3835],[79.3187,32.5925],[79.4471,32.532],[79.626,32.7396],[79.4211,32.9609],[79.3753,33.0847],[79.4532,33.2579],[78.9884,33.3335],[78.9134,33.5741],[79.1061,33.6167],[78.9043,33.9755],[79.0205,34.0511],[79.3538,34.036],[79.5909,34.2821],[79.5068,34.4745],[79.7927,34.4842],[79.7744,34.6271],[80.068,34.7138],[80.1735,35.0025],[80.1811,35.166],[80.3264,35.4699],[80.2897,35.6073],[80.1062,35.6802],[79.9976,35.8369],[79.8692,35.7819],[79.2147,35.9785],[79.1306,35.8356],[78.9593,35.8919],[78.6642,35.8576],[78.5204,35.7627],[78.2712,35.7215],[78.1366,35.5386],[77.9653,35.5716],[77.6121,35.4685],[77.4347,35.5166],[77.4301,35.6541],[76.9347,35.7833],[76.7221,35.9524],[76.8001,36.0473],[76.6426,36.1834],[76.4805,36.2109],[76.3505,36.3593],[75.748,36.5875],[75.615,36.7608],[75.4728,36.8103],[75.3428,37.0522],[74.9207,36.9051],[74.7082,37.077],[74.4283,36.989],[74.0552,36.8061],[73.8625,36.7869],[73.7004,36.6838],[73.4405,36.7443],[73.1255,36.6865],[72.9909,36.4569],[72.7783,36.3098],[72.5948,36.2617],[72.5337,35.9167],[72.6896,35.8328],[73.0888,35.8823],[73.1362,35.7187],[73.4068,35.5634],[73.7845,35.5249],[73.7004,35.3571],[73.7952,35.2444],[74.147,35.0973],[74.2525,35.0368],[74.4864,35.1097],[74.5675,34.8732],[74.3198,34.7866],[74.6011,34.7371],[74.7326,34.6711],[75.2388,34.6285],[75.3749,34.3879],[75.3841,34.3618],[75.4972,34.234],[75.5951,34.1982],[75.8642,33.9783],[76.0217,33.9975],[76.2649,33.7418],[76.3092,33.5713],[76.5019,33.5163],[76.7726,33.251],[76.9331,33.0283],[77.1503,32.9774],[77.2741,32.8743]]]}},{"type":"Feature","properties":{"slug":"lakshadweep","name":"Lakshadweep"},"geometry":{"type":"Polygon","coordinates":[[[73.0536,8.2731],[73.0184,8.2759],[73.0429,8.2635],[73.0536,8.2731]]]}},{"type":"Feature","properties":{"slug":"madhya-pradesh","name":"Madhya Pradesh"},"geometry":{"type":"Polygon","coordinates":[[[75.9866,21.369],[76.1594,21.2549],[76.167,21.0789],[76.3826,21.0762],[76.6625,21.281],[76.7818,21.5587],[77.0616,21.7127],[77.4791,21.7704],[77.5754,21.5271],[77.4882,21.3745],[78.0296,21.4213],[78.3431,21.589],[78.4333,21.4969],[78.8997,21.501],[78.9165,21.5903],[79.2239,21.6481],[79.2346,21.7182],[79.4961,21.6742],[79.5098,21.5958],[79.5389,21.5409],[79.7392,21.6027],[79.9181,21.5244],[80.2683,21.6178],[80.4227,21.4405],[80.6613,21.3333],[80.7378,21.4735],[80.7148,21.6618],[80.8463,21.8351],[80.9075,22.11],[81.0451,22.2406],[81.1935,22.4908],[81.4748,22.4894],[81.6216,22.5376],[81.7287,22.6695],[81.7317,22.6764],[81.9504,22.983],[82.1232,23.104],[82.1997,23.3143],[81.9856,23.4146],[81.9168,23.5343],[81.6109,23.5123],[81.6966,23.7212],[81.6033,23.8848],[81.8097,23.8078],[81.9214,23.8711],[82.2088,23.8532],[82.4979,23.7845],[82.6936,23.9192],[82.8129,23.9618],[82.7441,24.1653],[82.7976,24.5763],[82.6707,24.6973],[82.5239,24.6767],[82.2975,24.6066],[82.2165,24.7935],[82.0941,24.8169],[81.9428,24.8458],[81.8923,24.9887],[81.6675,25.0616],[81.5406,25.1881],[81.2638,25.0534],[81.1201,24.9035],[80.9457,24.9667],[80.8448,25.1867],[80.7148,25.0657],[80.5925,25.0905],[80.4778,24.9764],[80.2637,25.0245],[80.4304,25.1743],[80.3111,25.2857],[80.1047,25.3503],[79.6734,25.1207],[79.2804,25.3242],[79.3233,25.1496],[79.1306,25.1097],[79.0633,25.2225],[78.8798,25.1578],[78.9608,25.3448],[78.7315,25.4575],[78.5128,25.2761],[78.5587,25.2128],[78.6397,25.0712],[78.6321,24.9571],[78.7697,24.8595],[78.7804,24.7055],[78.8829,24.6409],[78.9853,24.4416],[78.9914,24.4168],[78.8064,24.179],[78.5862,24.3536],[78.369,24.3742],[78.2681,24.4498],[78.2758,24.6629],[78.1901,24.8416],[78.3736,25.0987],[78.447,25.1221],[78.3905,25.206],[78.3446,25.3283],[78.4516,25.5716],[78.6581,25.5593],[78.8859,25.9126],[78.9379,25.9524],[78.9945,26.1972],[79.1382,26.3388],[79.1352,26.4405],[78.9899,26.5793],[79.0067,26.6714],[78.7804,26.769],[78.5449,26.7636],[78.3583,26.8694],[78.2222,26.8323],[78.0892,26.6756],[77.9042,26.6591],[77.5387,26.4116],[77.3751,26.3649],[77.1197,26.2136],[76.8521,26.0322],[76.7879,25.9442],[76.5463,25.8383],[76.5157,25.5276],[76.5937,25.408],[76.9454,25.2843],[77.083,25.3366],[77.3674,25.4108],[77.4118,25.2238],[77.3124,25.0809],[76.8766,25.041],[77.0692,24.5571],[76.8444,24.4361],[76.9224,24.212],[76.8811,24.1309],[76.3215,24.245],[76.2129,24.2093],[76.1181,24.1941],[75.9376,23.8972],[75.7939,23.8669],[75.6899,23.7473],[75.4621,23.9178],[75.5217,24.025],[75.7021,23.9659],[75.8367,24.0567],[75.7281,24.3962],[75.9009,24.443],[75.9208,24.5433],[75.7847,24.7619],[75.5492,24.7028],[75.1838,24.7482],[75.352,25.019],[75.1914,25.0369],[75.1165,24.8774],[74.959,24.8581],[74.9926,24.6932],[74.6975,24.4828],[74.855,24.4237],[74.754,24.2423],[74.9085,24.212],[74.9743,24.0402],[74.9024,23.8738],[74.9406,23.7652],[74.7724,23.5425],[74.5721,23.4201],[74.5293,23.3212],[74.7342,23.2208],[74.5063,23.0847],[74.3198,23.06],[74.465,22.8166],[74.3794,22.6352],[74.0583,22.5499],[74.1898,22.3203],[74.095,22.0165],[74.147,21.9505],[74.2815,21.934],[74.4329,22.0303],[74.5247,21.912],[74.5048,21.7265],[74.7755,21.6151],[75.0522,21.567],[75.2113,21.4116],[75.6089,21.3896],[75.9866,21.369]]]}},{"type":"Feature","properties":{"slug":"maharashtra","name":"Maharashtra"},"geometry":{"type":"Polygon","coordinates":[[[80.5619,20.8232],[80.464,20.9291],[80.464,21.1752],[80.6613,21.3333],[80.4227,21.4405],[80.2683,21.6178],[79.9181,21.5244],[79.7392,21.6027],[79.5389,21.5409],[79.5098,21.5958],[79.4961,21.6742],[79.2346,21.7182],[79.2239,21.6481],[78.9165,21.5903],[78.8997,21.501],[78.4333,21.4969],[78.3431,21.589],[78.0296,21.4213],[77.4882,21.3745],[77.5754,21.5271],[77.4791,21.7704],[77.0616,21.7127],[76.7818,21.5587],[76.6625,21.281],[76.3826,21.0762],[76.167,21.0789],[76.1594,21.2549],[75.9866,21.369],[75.6089,21.3896],[75.2113,21.4116],[75.0522,21.567],[74.7755,21.6151],[74.5048,21.7265],[74.5247,21.912],[74.4329,22.0303],[74.2815,21.934],[74.147,21.9505],[73.939,21.8735],[73.835,21.5202],[73.9818,21.5216],[74.046,21.446],[73.8151,21.1738],[73.8075,21.0088],[73.8488,20.9992],[73.8488,20.9978],[73.8885,20.9332],[73.942,20.8397],[73.8381,20.6211],[73.7448,20.5648],[73.4741,20.7201],[73.4068,20.6239],[73.468,20.496],[73.4038,20.3861],[73.416,20.2046],[73.2493,20.1221],[73.2111,20.1207],[72.9649,20.1276],[72.9618,20.2087],[72.7753,20.1317],[72.6545,19.8362],[72.7982,19.3041],[72.7845,19.2643],[72.8364,18.8642],[72.9343,18.5411],[72.8946,18.4628],[73.0444,17.9816],[73.1775,17.5829],[73.1836,17.385],[73.2891,17.1155],[73.2769,16.8914],[73.3472,16.5299],[73.5108,15.9374],[73.6851,15.7284],[73.939,15.7421],[74.1179,15.6514],[74.2097,15.7806],[74.3458,15.7641],[74.4635,16.0391],[74.4803,16.2494],[74.3167,16.3264],[74.3152,16.5546],[74.6959,16.7155],[75.0889,16.9519],[75.1822,16.8433],[75.3413,16.9561],[75.6654,16.9794],[75.6043,17.3052],[75.6333,17.4771],[75.9315,17.3231],[76.0753,17.3369],[76.3826,17.3149],[76.3322,17.5967],[76.4285,17.6434],[76.5233,17.7603],[76.6854,17.6819],[76.7405,17.8991],[76.9194,17.9156],[76.9515,18.1878],[77.0647,18.1507],[77.265,18.4229],[77.5509,18.2923],[77.5968,18.5494],[77.739,18.5563],[77.8399,18.8051],[77.9485,18.8436],[77.843,18.9082],[77.7971,19.0732],[77.8629,19.3041],[78.1932,19.3165],[78.3094,19.4815],[78.2758,19.6918],[78.3645,19.7812],[78.3064,19.9118],[78.4317,19.8142],[78.8416,19.7619],[78.9364,19.5502],[79.2529,19.5928],[79.4716,19.5007],[79.7438,19.6093],[79.8065,19.5791],[79.9778,19.399],[79.9288,19.1584],[79.9609,18.8656],[79.9135,18.8257],[80.1184,18.68],[80.2759,18.7199],[80.3493,18.8477],[80.2714,18.9426],[80.4824,19.3371],[80.7515,19.2876],[80.8524,19.3646],[80.8953,19.52],[80.672,19.7028],[80.4686,19.8265],[80.5451,20.1001],[80.3952,20.2445],[80.6261,20.3324],[80.5619,20.8232]]]}},{"type":"Feature","properties":{"slug":"manipur","name":"Manipur"},"geometry":{"type":"Polygon","coordinates":[[[94.4882,25.6046],[94.4163,25.5359],[94.19,25.5483],[93.9362,25.5593],[93.8047,25.463],[93.6059,25.1991],[93.4698,25.3063],[93.3811,25.2403],[93.2465,24.9722],[93.1746,24.7977],[93.0875,24.5722],[93.0095,24.4127],[92.9759,24.1158],[93.2068,24.047],[93.2526,24.0209],[93.378,24.0883],[93.5049,23.9426],[93.7404,24.0058],[93.8077,23.9261],[94.0172,23.9274],[94.1564,23.8477],[94.2527,24.1144],[94.4072,24.4375],[94.3751,24.4938],[94.6289,24.7564],[94.7436,25.0369],[94.6534,25.1152],[94.5754,25.2142],[94.6748,25.4452],[94.4882,25.6046]]]}},{"type":"Feature","properties":{"slug":"meghalaya","name":"Meghalaya"},"geometry":{"type":"Polygon","coordinates":[[[92.5691,25.4658],[92.6608,25.5716],[92.4437,25.7201],[92.1516,25.672],[92.1639,25.9703],[92.274,26.0652],[92.173,26.0762],[91.7234,26.0349],[91.5797,26.0336],[91.4451,25.8397],[91.335,25.8411],[91.0078,25.8246],[91.0261,25.8865],[90.9481,25.9483],[90.6316,25.9195],[90.4343,25.9909],[90.1224,25.9593],[89.8991,25.727],[90.0199,25.6074],[89.8716,25.4768],[89.8349,25.2967],[89.9741,25.2994],[90.234,25.2032],[90.5108,25.1688],[90.9696,25.173],[91.3549,25.2334],[91.4925,25.1345],[91.6026,25.1743],[92.017,25.1895],[92.199,25.1248],[92.4253,25.03],[92.54,25.0987],[92.7923,25.2829],[92.5691,25.4658]]]}},{"type":"Feature","properties":{"slug":"mizoram","name":"Mizoram"},"geometry":{"type":"Polygon","coordinates":[[[93.1961,23.0558],[93.3,23.005],[93.3918,23.2208],[93.3581,23.3308],[93.3903,23.4971],[93.427,23.6497],[93.3964,23.9261],[93.2526,24.0209],[93.2068,24.047],[92.9759,24.1158],[93.0095,24.4127],[92.8963,24.3907],[92.7618,24.5131],[92.5324,24.1776],[92.4223,24.2505],[92.2954,24.245],[92.3244,23.9137],[92.2648,23.7267],[92.4024,23.2662],[92.3718,22.9362],[92.5094,22.741],[92.6058,22.1238],[92.855,22.0633],[92.9988,22.0536],[93.1609,22.1801],[93.1884,22.4248],[93.0967,22.7864],[93.1227,23.0063],[93.1961,23.0558]]]}},{"type":"Feature","properties":{"slug":"nagaland","name":"Nagaland"},"geometry":{"type":"Polygon","coordinates":[[[95.1228,26.3484],[95.0617,26.4501],[95.2345,26.6824],[95.1962,27.0344],[94.924,26.9491],[94.791,26.7965],[94.7359,26.7498],[94.5861,26.7251],[94.4026,26.611],[94.3139,26.4611],[94.164,26.3511],[94.0004,26.1724],[93.9545,25.9689],[93.7756,25.9689],[93.5126,25.6747],[93.3291,25.5428],[93.456,25.4342],[93.4698,25.3063],[93.6059,25.1991],[93.8047,25.463],[93.9362,25.5593],[94.19,25.5483],[94.4163,25.5359],[94.4882,25.6046],[94.6748,25.4452],[94.8827,25.5868],[95.0403,25.7421],[95.0143,25.8906],[95.1167,26.1078],[95.1228,26.3484]]]}},{"type":"Feature","properties":{"slug":"odisha","name":"Odisha"},"geometry":{"type":"Polygon","coordinates":[[[85.2382,22.0096],[85.0287,22.1224],[85.0699,22.4908],[84.7503,22.4193],[84.5347,22.4276],[84.4292,22.352],[84.1968,22.3781],[84.0118,22.5279],[84.0102,22.3712],[83.8023,22.2942],[83.6279,22.2035],[83.5377,22.0454],[83.5912,21.8254],[83.4872,21.644],[83.3833,21.6206],[83.2686,21.3773],[83.1921,21.1394],[82.9658,21.1752],[82.6401,21.1546],[82.6385,21.0886],[82.4596,20.826],[82.3388,20.8741],[82.4382,20.4342],[82.3985,20.0561],[82.7181,19.9888],[82.6966,19.8307],[82.5942,19.7757],[82.4459,19.9104],[82.0177,20.0493],[81.8755,20.052],[81.8694,19.9022],[82.0651,19.7908],[82.0284,19.5076],[82.189,19.4279],[82.2058,19.1213],[82.2455,18.9192],[82.0911,18.7377],[81.8999,18.6607],[81.9106,18.57],[81.5299,18.2401],[81.4825,17.9775],[81.3968,17.818],[81.617,17.8235],[81.9795,18.0132],[82.0315,18.0696],[82.3189,18.0449],[82.3144,18.1851],[82.4275,18.4862],[82.6064,18.3666],[82.7731,18.3418],[83.0774,18.4037],[82.9994,18.6085],[83.4123,18.8738],[83.3481,19.0182],[83.6631,19.0993],[83.7564,18.911],[83.7931,19.0182],[83.8909,18.8161],[84.0897,18.7584],[84.3191,18.7886],[84.4231,18.9494],[84.7014,19.1185],[84.8115,19.157],[85.1724,19.4677],[85.6786,19.7454],[86.2275,19.9008],[86.3698,19.9819],[86.5334,20.1812],[86.7765,20.3352],[86.7888,20.5345],[87.0564,20.7146],[86.8056,20.7353],[86.9768,20.8604],[86.853,21.0941],[86.8591,21.2137],[86.9493,21.358],[87.1481,21.5092],[87.4081,21.545],[87.4845,21.6151],[87.4417,21.7677],[87.2827,21.8034],[87.2429,21.9643],[87.1007,21.8639],[87.0288,22.0385],[86.8377,22.0976],[86.7276,22.2159],[86.067,22.5568],[85.963,22.4853],[86.0287,22.3341],[86.0089,22.1155],[85.8972,21.9835],[85.6832,22.0578],[85.3972,22.1636],[85.2382,22.0096]]]}},{"type":"Feature","properties":{"slug":"puducherry","name":"Puducherry"},"geometry":{"type":"MultiPolygon","coordinates":[[[[79.6857,11.8805],[79.808,11.8447],[79.8401,11.9561],[79.6857,11.8805]]],[[[79.7239,10.9291],[79.8493,10.8274],[79.8508,10.9855],[79.7484,10.9965],[79.7239,10.9291]]],[[[75.5553,11.7224],[75.5416,11.7389],[75.537,11.7196],[75.5553,11.7224]]],[[[82.1859,16.7375],[82.1997,16.721],[82.2394,16.7168],[82.2669,16.6948],[82.27,16.7223],[82.1859,16.7375]]]]}},{"type":"Feature","properties":{"slug":"punjab","name":"Punjab"},"geometry":{"type":"Polygon","coordinates":[[[75.8367,32.5114],[75.5125,32.3079],[75.3413,32.3464],[75.3795,32.1828],[75.1746,32.0674],[74.9131,32.044],[74.6669,31.923],[74.5033,31.7402],[74.6118,31.4996],[74.5109,31.1325],[74.7082,31.072],[74.3656,30.8933],[74.2158,30.6912],[73.9635,30.485],[73.8794,30.3599],[73.968,30.1936],[73.8946,29.9736],[74.2984,29.9544],[74.4482,29.9475],[74.5262,29.9406],[74.7051,29.975],[74.8122,29.9928],[74.9972,29.8677],[75.1914,29.8444],[75.1685,29.667],[75.303,29.5598],[75.4605,29.8073],[75.5798,29.7399],[75.7205,29.8141],[75.9468,29.7289],[76.0982,29.81],[76.2144,29.8403],[76.2542,30.0891],[76.4667,30.0987],[76.6426,30.1496],[76.5615,30.2417],[76.7481,30.4286],[76.9071,30.4589],[76.9255,30.6101],[76.8276,30.6816],[76.7389,30.6926],[76.7099,30.7613],[76.8383,30.7545],[76.7772,30.9043],[76.7328,30.9373],[76.6242,30.9992],[76.6457,31.2095],[76.4973,31.27],[76.3918,31.413],[76.2894,31.3071],[76.2007,31.303],[76.0172,31.6316],[75.9606,31.857],[75.9101,31.9505],[75.5982,32.0825],[75.6012,32.0935],[75.6379,32.2516],[75.9315,32.3945],[75.8367,32.5114]]]}},{"type":"Feature","properties":{"slug":"rajasthan","name":"Rajasthan"},"geometry":{"type":"Polygon","coordinates":[[[75.67,28.5191],[75.5615,28.6126],[75.4743,28.926],[75.5278,28.9714],[75.3917,29.0621],[75.3458,29.2835],[75.2403,29.2601],[75.0813,29.2285],[74.9376,29.3618],[74.6027,29.3646],[74.5751,29.5639],[74.6164,29.7523],[74.5262,29.9406],[74.4482,29.9475],[74.2984,29.9544],[73.8946,29.9736],[73.968,30.1936],[73.806,30.0671],[73.3977,29.9461],[73.283,29.5722],[72.945,29.0278],[72.6621,28.893],[72.4037,28.7831],[72.2997,28.669],[72.2064,28.394],[71.9281,28.1218],[71.8807,27.9142],[71.2048,27.8359],[70.9066,27.7094],[70.7583,27.7218],[70.6772,27.9211],[70.5075,28.0366],[70.3714,28.0118],[70.1328,27.8056],[70.0258,27.5623],[69.5869,27.1842],[69.5135,27.0096],[69.5105,26.7429],[69.8866,26.5793],[70.1741,26.5518],[70.1405,26.1559],[70.0992,25.9387],[70.2689,25.7132],[70.6742,25.6761],[70.665,25.397],[70.8883,25.1482],[70.9372,24.9393],[71.1115,24.6753],[71.188,24.6506],[71.2874,24.6162],[71.2882,24.6163],[71.3776,24.6258],[71.4785,24.6794],[71.6082,24.6767],[71.6085,24.6767],[71.6559,24.6396],[71.6573,24.6399],[71.792,24.6767],[71.7921,24.6767],[71.9189,24.6725],[72.0581,24.7124],[72.1651,24.6217],[72.1963,24.6237],[72.2847,24.6294],[72.3348,24.6327],[72.3349,24.6327],[72.3407,24.6109],[72.3532,24.5639],[72.3536,24.5636],[72.3538,24.5633],[72.4999,24.417],[72.5,24.4168],[72.5001,24.417],[72.5199,24.5007],[72.682,24.4639],[72.6833,24.4636],[72.6835,24.4636],[72.7279,24.3674],[72.8161,24.3647],[72.8753,24.363],[72.9583,24.3605],[72.9588,24.3605],[72.9589,24.3608],[73.0016,24.4801],[73.1515,24.355],[73.0674,24.1941],[73.2142,24.0773],[73.4053,24.0415],[73.3778,23.9041],[73.3686,23.8147],[73.6561,23.6209],[73.627,23.449],[73.9589,23.3803],[73.9818,23.3377],[74.2479,23.1837],[74.3198,23.06],[74.5063,23.0847],[74.7342,23.2208],[74.5293,23.3212],[74.5721,23.4201],[74.7724,23.5425],[74.9406,23.7652],[74.9024,23.8738],[74.9743,24.0402],[74.9085,24.212],[74.754,24.2423],[74.855,24.4237],[74.6975,24.4828],[74.9926,24.6932],[74.959,24.8581],[75.1165,24.8774],[75.1914,25.0369],[75.352,25.019],[75.1838,24.7482],[75.5492,24.7028],[75.7847,24.7619],[75.9208,24.5433],[75.9009,24.443],[75.7281,24.3962],[75.8367,24.0567],[75.7021,23.9659],[75.5217,24.025],[75.4621,23.9178],[75.6899,23.7473],[75.7939,23.8669],[75.9376,23.8972],[76.1181,24.1941],[76.2129,24.2093],[76.3215,24.245],[76.8811,24.1309],[76.9224,24.212],[76.8444,24.4361],[77.0692,24.5571],[76.8766,25.041],[77.3124,25.0809],[77.4118,25.2238],[77.3674,25.4108],[77.083,25.3366],[76.9454,25.2843],[76.5937,25.408],[76.5157,25.5276],[76.5463,25.8383],[76.7879,25.9442],[76.8521,26.0322],[77.1197,26.2136],[77.3751,26.3649],[77.5387,26.4116],[77.9042,26.6591],[78.0892,26.6756],[78.2222,26.8323],[78.1488,26.9491],[77.9868,26.8887],[77.7604,26.9326],[77.4546,26.7429],[77.398,26.8309],[77.661,26.9711],[77.5509,27.1114],[77.6457,27.242],[77.3399,27.5265],[77.2833,27.7987],[77.0448,27.8207],[76.9775,27.6544],[76.9423,27.8427],[76.9698,28.1383],[76.8536,28.2208],[76.5432,28.0338],[76.3123,28.1782],[76.1594,27.9981],[76.2251,27.8331],[76.0768,27.8414],[75.9331,27.928],[76.0554,28.2208],[75.8933,28.3899],[75.67,28.5191]]]}},{"type":"Feature","properties":{"slug":"sikkim","name":"Sikkim"},"geometry":{"type":"Polygon","coordinates":[[[88.532,27.176],[88.7216,27.1389],[88.9189,27.3203],[88.7935,27.4166],[88.7645,27.565],[88.8486,27.6681],[88.844,27.9926],[88.6192,28.0984],[88.2048,27.9417],[88.1146,27.6186],[88.0442,27.4784],[88.0381,27.22],[88.1543,27.11],[88.2812,27.132],[88.425,27.0715],[88.532,27.176]]]}},{"type":"Feature","properties":{"slug":"tamil-nadu","name":"Tamil Nadu"},"geometry":{"type":"Polygon","coordinates":[[[80.2499,12.8579],[80.3004,13.1425],[80.3448,13.2758],[80.2683,13.5645],[80.0374,13.5384],[79.9456,13.3638],[79.5343,13.2758],[79.2835,13.1232],[79.2285,13.1576],[79.1627,13.0201],[78.892,13.0957],[78.6214,12.9913],[78.603,12.8442],[78.4119,12.627],[78.2314,12.7603],[78.0571,12.8524],[77.8659,12.8703],[77.8308,12.8662],[77.739,12.6723],[77.6014,12.6682],[77.6152,12.3671],[77.4714,12.2434],[77.7467,12.1554],[77.6763,11.9519],[77.4944,11.9437],[77.4286,11.7677],[77.2925,11.809],[76.9087,11.7952],[76.8475,11.5945],[76.4178,11.6715],[76.2343,11.5271],[76.5478,11.3594],[76.4423,11.2013],[76.7068,11.2398],[76.7542,11.079],[76.6564,10.9388],[76.9071,10.782],[76.8383,10.5964],[76.8337,10.3394],[76.8919,10.2596],[77.0509,10.2624],[77.0906,10.3146],[77.2879,10.2321],[77.268,10.1221],[77.1671,9.6121],[77.4026,9.5255],[77.3399,9.4196],[77.2818,9.2987],[77.2038,9.0705],[77.2558,8.8794],[77.1992,8.7708],[77.2696,8.5783],[77.0983,8.2924],[77.2329,8.181],[77.4454,8.0944],[77.5892,8.1398],[77.7941,8.1631],[77.9699,8.335],[78.1427,8.5013],[78.1718,8.8835],[78.3843,9.0938],[78.5785,9.131],[78.8722,9.2574],[79.0648,9.2987],[78.8997,9.4691],[78.9807,9.6891],[79.1168,9.8499],[79.2514,10.0507],[79.2269,10.1373],[79.2667,10.2294],[79.4716,10.316],[79.7683,10.272],[79.8722,10.36],[79.8493,10.8274],[79.7239,10.9291],[79.7484,10.9965],[79.8508,10.9855],[79.8126,11.424],[79.7606,11.6234],[79.808,11.8447],[79.6857,11.8805],[79.8401,11.9561],[80.0083,12.2544],[80.1383,12.4111],[80.2499,12.8579]]]}},{"type":"Feature","properties":{"slug":"telangana","name":"Telangana"},"geometry":{"type":"Polygon","coordinates":[[[79.8065,19.5791],[79.7438,19.6093],[79.4716,19.5007],[79.2529,19.5928],[78.9364,19.5502],[78.8416,19.7619],[78.4317,19.8142],[78.3064,19.9118],[78.3645,19.7812],[78.2758,19.6918],[78.3094,19.4815],[78.1932,19.3165],[77.8629,19.3041],[77.7971,19.0732],[77.843,18.9082],[77.9485,18.8436],[77.8399,18.8051],[77.739,18.5563],[77.5968,18.5494],[77.5509,18.2923],[77.6014,18.2758],[77.5632,18.1961],[77.6564,17.9692],[77.4531,17.6943],[77.4439,17.5843],[77.6855,17.5115],[77.5127,17.4303],[77.3797,17.2228],[77.4668,16.9547],[77.4592,16.8846],[77.4164,16.5175],[77.2879,16.4089],[77.5938,16.3429],[77.5005,16.2219],[77.5142,15.9277],[78.0831,15.8411],[78.2482,15.9717],[78.2559,16.0088],[78.6015,16.0845],[78.7406,16.0088],[78.9226,16.123],[79.0297,16.2412],[79.2147,16.2261],[79.2101,16.3567],[79.2575,16.5656],[79.4181,16.5807],[79.6796,16.6935],[79.7927,16.7251],[79.9487,16.6357],[80.0726,16.8172],[80.0557,16.9712],[80.1873,17.0207],[80.3218,16.8791],[80.5695,16.7677],[80.6017,16.9189],[80.5053,17.0688],[80.8769,17.0702],[80.9411,17.2186],[81.1736,17.231],[81.3097,17.4097],[81.0207,17.5197],[80.9106,17.6379],[80.8861,17.7355],[81.0849,17.7974],[81.0161,17.7947],[80.9794,18.1658],[80.7561,18.17],[80.7056,18.4394],[80.4549,18.6305],[80.3723,18.6113],[80.2759,18.7199],[80.1184,18.68],[79.9135,18.8257],[79.9609,18.8656],[79.9288,19.1584],[79.9778,19.399],[79.8065,19.5791]]]}},{"type":"Feature","properties":{"slug":"tripura","name":"Tripura"},"geometry":{"type":"Polygon","coordinates":[[[91.8045,23.515],[91.9742,23.4806],[92.0599,23.6429],[92.1761,23.7075],[92.2648,23.7267],[92.3244,23.9137],[92.2954,24.245],[92.2143,24.509],[92.0706,24.377],[91.9712,24.3825],[91.9238,24.1089],[91.7556,24.1419],[91.4696,24.0622],[91.2999,23.9975],[91.2265,23.7322],[91.1607,23.5947],[91.3197,23.2772],[91.4543,23.2607],[91.543,22.9995],[91.7204,22.9871],[91.806,23.0627],[91.7586,23.2662],[91.8381,23.3707],[91.8045,23.515]]]}},{"type":"Feature","properties":{"slug":"uttar-pradesh","name":"Uttar Pradesh"},"geometry":{"type":"Polygon","coordinates":[[[78.0204,29.5818],[77.8201,29.6739],[77.7161,29.8856],[77.8017,30.096],[77.9592,30.2417],[77.5754,30.4012],[77.58,30.3792],[77.583,30.3077],[77.2267,29.9392],[77.1518,29.6877],[77.1319,29.4842],[77.1549,29.2972],[77.1426,29.1666],[77.216,28.8532],[77.2222,28.8312],[77.3414,28.6098],[77.3476,28.5205],[77.5051,28.3706],[77.5005,28.2057],[77.476,28.0847],[77.5295,27.9266],[77.3445,27.8496],[77.2833,27.7987],[77.3399,27.5265],[77.6457,27.242],[77.5509,27.1114],[77.661,26.9711],[77.398,26.8309],[77.4546,26.7429],[77.7604,26.9326],[77.9868,26.8887],[78.1488,26.9491],[78.2222,26.8323],[78.3583,26.8694],[78.5449,26.7636],[78.7804,26.769],[79.0067,26.6714],[78.9899,26.5793],[79.1352,26.4405],[79.1382,26.3388],[78.9945,26.1972],[78.9379,25.9524],[78.8859,25.9126],[78.6581,25.5593],[78.4516,25.5716],[78.3446,25.3283],[78.3905,25.206],[78.447,25.1221],[78.3736,25.0987],[78.1901,24.8416],[78.2758,24.6629],[78.2681,24.4498],[78.369,24.3742],[78.5862,24.3536],[78.8064,24.179],[78.9914,24.4168],[78.9853,24.4416],[78.8829,24.6409],[78.7804,24.7055],[78.7697,24.8595],[78.6321,24.9571],[78.6397,25.0712],[78.5587,25.2128],[78.5128,25.2761],[78.7315,25.4575],[78.9608,25.3448],[78.8798,25.1578],[79.0633,25.2225],[79.1306,25.1097],[79.3233,25.1496],[79.2804,25.3242],[79.6734,25.1207],[80.1047,25.3503],[80.3111,25.2857],[80.4304,25.1743],[80.2637,25.0245],[80.4778,24.9764],[80.5925,25.0905],[80.7148,25.0657],[80.8448,25.1867],[80.9457,24.9667],[81.1201,24.9035],[81.2638,25.0534],[81.5406,25.1881],[81.6675,25.0616],[81.8923,24.9887],[81.9428,24.8458],[82.0941,24.8169],[82.2165,24.7935],[82.2975,24.6066],[82.5239,24.6767],[82.6707,24.6973],[82.7976,24.5763],[82.7441,24.1653],[82.8129,23.9618],[82.9474,23.8711],[83.2074,23.9219],[83.3297,24.102],[83.4093,24.267],[83.4001,24.498],[83.5025,24.5255],[83.5239,24.5502],[83.4888,24.7358],[83.3955,24.7812],[83.3496,25.184],[83.5377,25.3091],[83.7793,25.3984],[83.9307,25.5579],[84.0806,25.6363],[84.3191,25.6679],[84.6005,25.7325],[84.472,25.8823],[84.0561,26.0995],[84.157,26.3759],[83.9078,26.4474],[84.0515,26.5518],[84.1127,26.6302],[84.4185,26.6316],[84.2595,26.8048],[84.0607,26.8873],[84.05,27.044],[83.9078,27.275],[83.8619,27.3354],[83.6142,27.4688],[83.3955,27.4798],[83.2915,27.3354],[83.189,27.4537],[82.7318,27.4867],[82.6645,27.7231],[82.4489,27.6791],[82.2073,27.8441],[82.0697,27.9238],[81.8847,27.8565],[81.7424,27.9527],[81.3204,28.1974],[81.2133,28.3583],[81.0528,28.405],[80.7148,28.5686],[80.5527,28.691],[80.3142,28.6291],[80.0649,28.8367],[79.9548,28.7226],[79.8202,28.8875],[79.6826,28.8546],[79.4227,28.8972],[79.0358,29.1694],[78.9746,29.1309],[78.7605,29.2642],[78.8507,29.3481],[78.9257,29.4388],[78.6168,29.5584],[78.5113,29.7248],[78.3354,29.7976],[78.0204,29.5818]]]}},{"type":"Feature","properties":{"slug":"uttarakhand","name":"Uttarakhand"},"geometry":{"type":"Polygon","coordinates":[[[79.4074,31.0734],[79.233,31.3332],[79.0725,31.4556],[78.8813,31.2837],[78.8095,31.1985],[78.4837,31.1985],[78.3109,31.2837],[77.9669,31.1738],[77.8292,31.0294],[77.8063,30.8534],[77.7039,30.7641],[77.8155,30.5056],[77.5754,30.4012],[77.9592,30.2417],[77.8017,30.096],[77.7161,29.8856],[77.8201,29.6739],[78.0204,29.5818],[78.3354,29.7976],[78.5113,29.7248],[78.6168,29.5584],[78.9257,29.4388],[78.8507,29.3481],[78.7605,29.2642],[78.9746,29.1309],[79.0358,29.1694],[79.4227,28.8972],[79.6826,28.8546],[79.8202,28.8875],[79.9548,28.7226],[80.0649,28.8367],[80.0741,28.9412],[80.1444,29.102],[80.3188,29.3013],[80.2423,29.4443],[80.409,29.5955],[80.3662,29.7399],[80.5543,29.8499],[80.9289,30.1743],[80.6078,30.4713],[80.2132,30.584],[80.2499,30.7448],[80.1016,30.7888],[79.7316,30.9785],[79.6016,30.9332],[79.4074,31.0734]]]}},{"type":"Feature","properties":{"slug":"west-bengal","name":"West Bengal"},"geometry":{"type":"Polygon","coordinates":[[[88.0824,22.2612],[88.1834,22.187],[88.2078,22.0261],[88.1451,21.9547],[88.2675,21.7278],[88.4449,21.9175],[88.633,21.9547],[89.0688,21.9492],[89.055,22.1279],[88.8577,22.9679],[88.9419,23.2057],[88.7094,23.2318],[88.7629,23.4463],[88.5932,23.6167],[88.607,23.8614],[88.7324,23.9109],[88.7002,24.0965],[88.7415,24.2546],[88.5596,24.3082],[88.1329,24.5103],[88.0274,24.6904],[88.1742,24.8609],[88.3944,24.9695],[88.4357,25.2005],[88.9097,25.1798],[88.8119,25.5235],[88.6467,25.4782],[88.4464,25.595],[88.0932,25.9304],[88.1788,26.149],[88.3516,26.2219],[88.4846,26.4611],[88.3332,26.4968],[88.4005,26.6439],[88.4204,26.5628],[88.7599,26.3291],[88.9266,26.2838],[89.0963,26.391],[89.1544,26.1394],[89.3486,26.0102],[89.5413,26.0061],[89.7294,26.171],[89.8425,26.3827],[89.8349,26.4144],[89.8517,26.6976],[89.3746,26.8543],[89.0902,26.8405],[88.8685,26.9656],[88.8654,27.1086],[88.7216,27.1389],[88.532,27.176],[88.425,27.0715],[88.2812,27.132],[88.1543,27.11],[88.0381,27.22],[87.9922,27.1086],[88.1864,26.7718],[88.11,26.5477],[88.24,26.4584],[88.2797,26.3305],[87.85,26.0391],[87.8271,25.8906],[87.8928,25.8658],[88.0672,25.4837],[87.9601,25.5386],[87.7674,25.4163],[87.7109,25.2582],[87.795,25.0877],[87.954,24.9736],[87.8913,24.8554],[87.8393,24.7454],[87.8898,24.5653],[87.8011,24.3825],[87.639,24.2546],[87.6313,24.1639],[87.4402,23.9824],[87.2337,24.025],[87.2949,23.9013],[87.0854,23.812],[86.9157,23.8821],[86.801,23.8339],[86.801,23.6992],[86.486,23.636],[86.3101,23.4119],[86.0395,23.4985],[85.885,23.4834],[85.859,23.4298],[85.8193,23.2689],[85.885,23.1672],[86.044,23.1452],[86.2413,22.9967],[86.4355,22.9266],[86.4187,22.7905],[86.5594,22.7135],[86.7658,22.576],[86.8453,22.4001],[86.7276,22.2159],[86.8377,22.0976],[87.0288,22.0385],[87.1007,21.8639],[87.2429,21.9643],[87.2827,21.8034],[87.4417,21.7677],[87.4845,21.6151],[87.7888,21.699],[87.9555,21.8309],[88.0641,22.0179],[88.1864,22.1045],[87.9983,22.2447],[88.0824,22.2612]]]}}]}