{"type":"FeatureCollection","features":[{"type":"Feature","properties":{"key":"andaman-and-nicobar-islands/nicobars","slug":"nicobars","name":"Nicobars","state":"andaman-and-nicobar-islands"},"geometry":{"type":"Polygon","coordinates":[[[93.8368,7.2407],[93.6456,7.1266],[93.8001,6.7664],[93.9148,6.9492],[93.8368,7.2407]]]}},{"type":"Feature","properties":{"key":"andaman-and-nicobar-islands/north-and-middle-andaman","slug":"north-and-middle-andaman","name":"North and Middle Andaman","state":"andaman-and-nicobar-islands"},"geometry":{"type":"Polygon","coordinates":[[[92.8734,12.3314],[92.9743,12.5431],[92.9116,13.0545],[93.034,13.082],[93.0645,13.2731],[93.0431,13.5288],[92.8413,13.3913],[92.7939,12.862],[92.7449,12.7232],[92.6991,12.3286],[92.8734,12.3314]]]}},{"type":"Feature","properties":{"key":"andaman-and-nicobar-islands/south-andaman","slug":"south-andaman","name":"South Andaman","state":"andaman-and-nicobar-islands"},"geometry":{"type":"MultiPolygon","coordinates":[[[[92.5202,10.8975],[92.3779,10.782],[92.433,10.5511],[92.5966,10.6817],[92.5202,10.8975]]],[[[92.7556,12.1774],[92.6226,12.1018],[92.5507,11.7196],[92.6654,11.5052],[92.7511,11.6096],[92.7908,11.886],[92.7067,11.9739],[92.7556,12.1774]]]]}}]}