{"type":"FeatureCollection","features":[{"type":"Feature","properties":{"key":"andhra-pradesh/anantapur","slug":"anantapur","name":"Anantapur","state":"andhra-pradesh"},"geometry":{"type":"Polygon","coordinates":[[[77.1564,15.14],[76.9851,15.0149],[76.8001,15.096],[76.7603,14.9888],[76.8674,14.9695],[76.7649,14.6025],[76.901,14.4897],[76.8842,14.3481],[77.005,14.2354],[77.1381,14.3371],[77.3644,14.2753],[77.3216,14.0306],[77.028,14.0622],[77.0035,14.1983],[76.9484,14.0952],[77.0417,13.933],[77.1809,13.8697],[77.4332,13.8436],[77.4561,13.6828],[77.7818,13.8189],[77.9699,13.9591],[78.1259,13.7872],[78.4654,13.9948],[78.421,14.2835],[78.2849,14.2918],[78.0005,14.4884],[78.1351,14.6946],[78.0464,14.7743],[78.1336,14.9613],[78.0143,15.1125],[77.7482,15.1304],[77.6641,15.2349],[77.3628,15.2225],[77.1564,15.14]]]}},{"type":"Feature","properties":{"key":"andhra-pradesh/chittoor","slug":"chittoor","name":"Chittoor","state":"andhra-pradesh"},"geometry":{"type":"Polygon","coordinates":[[[80.0374,13.5384],[79.9563,13.7075],[79.4456,13.8917],[79.3064,13.724],[79.1489,13.8656],[78.8844,13.9],[78.6428,13.8684],[78.4654,13.9948],[78.1259,13.7872],[78.1963,13.5687],[78.4012,13.5879],[78.3645,13.3624],[78.5862,13.2758],[78.4669,12.9748],[78.2528,12.8607],[78.2314,12.7603],[78.4119,12.627],[78.603,12.8442],[78.6214,12.9913],[78.892,13.0957],[79.1627,13.0201],[79.2285,13.1576],[79.2835,13.1232],[79.5343,13.2758],[79.9456,13.3638],[80.0374,13.5384]]]}},{"type":"Feature","properties":{"key":"andhra-pradesh/east-godavari","slug":"east-godavari","name":"East Godavari","state":"andhra-pradesh"},"geometry":{"type":"Polygon","coordinates":[[[81.3968,17.818],[81.1659,17.8579],[81.0849,17.7974],[80.8861,17.7355],[80.9106,17.6379],[81.5008,17.4812],[81.6155,17.3314],[81.7455,16.9643],[81.744,16.7938],[81.8587,16.5986],[81.7149,16.3113],[82.3144,16.5587],[82.3618,16.8557],[82.3189,17.0578],[82.5422,17.2489],[82.6034,17.4551],[82.3449,17.495],[82.2287,17.6393],[82.0024,17.6393],[81.9795,18.0132],[81.617,17.8235],[81.3968,17.818]],[[82.1859,16.7375],[82.27,16.7223],[82.2669,16.6948],[82.2394,16.7168],[82.1997,16.721],[82.1859,16.7375]]]}},{"type":"Feature","properties":{"key":"andhra-pradesh/guntur","slug":"guntur","name":"Guntur","state":"andhra-pradesh"},"geometry":{"type":"Polygon","coordinates":[[[80.0726,16.8172],[79.9487,16.6357],[79.7927,16.7251],[79.6796,16.6935],[79.4181,16.5807],[79.2575,16.5656],[79.2101,16.3567],[79.2147,16.2261],[79.5373,16.1628],[79.5588,15.9484],[79.7468,15.859],[79.8692,15.9167],[79.8784,16.1546],[80.1368,16.046],[80.3019,16.0556],[80.4182,15.7985],[80.6797,15.8851],[80.831,15.7064],[80.8953,15.9222],[80.7989,16.2824],[80.6644,16.4721],[80.4717,16.589],[80.1398,16.6536],[80.0726,16.8172]]]}},{"type":"Feature","properties":{"key":"andhra-pradesh/krishna","slug":"krishna","name":"Krishna","state":"andhra-pradesh"},"geometry":{"type":"Polygon","coordinates":[[[80.831,15.7064],[81.0084,15.7545],[81.1476,15.9745],[81.2133,16.2082],[81.3923,16.3429],[81.5528,16.347],[81.1889,16.622],[80.9733,16.6261],[80.9962,16.8282],[80.8769,17.0702],[80.5053,17.0688],[80.6017,16.9189],[80.5695,16.7677],[80.3218,16.8791],[80.1873,17.0207],[80.0557,16.9712],[80.0726,16.8172],[80.1398,16.6536],[80.4717,16.589],[80.6644,16.4721],[80.7989,16.2824],[80.8953,15.9222],[80.831,15.7064]]]}},{"type":"Feature","properties":{"key":"andhra-pradesh/kurnool","slug":"kurnool","name":"Kurnool","state":"andhra-pradesh"},"geometry":{"type":"Polygon","coordinates":[[[77.0264,15.837],[77.0631,15.3283],[77.1564,15.14],[77.3628,15.2225],[77.6641,15.2349],[77.7482,15.1304],[78.0143,15.1125],[78.1336,14.9613],[78.2895,15.0713],[78.4853,15.0369],[78.6305,14.9255],[78.762,15.0548],[78.759,15.184],[78.7712,15.6652],[78.8095,15.8672],[78.9104,15.9676],[78.9226,16.123],[78.7406,16.0088],[78.6015,16.0845],[78.2559,16.0088],[78.2482,15.9717],[78.0831,15.8411],[77.5142,15.9277],[77.2482,15.9649],[77.0264,15.837]]]}},{"type":"Feature","properties":{"key":"andhra-pradesh/prakasam","slug":"prakasam","name":"Prakasam","state":"andhra-pradesh"},"geometry":{"type":"Polygon","coordinates":[[[79.2147,16.2261],[79.0297,16.2412],[78.9226,16.123],[78.9104,15.9676],[78.8095,15.8672],[78.7712,15.6652],[78.759,15.184],[79.0832,15.173],[79.0893,15.0479],[79.2606,15.107],[79.7346,15.0314],[79.779,14.9805],[80.0405,15.0094],[80.123,15.3682],[80.2515,15.6335],[80.4182,15.7985],[80.3019,16.0556],[80.1368,16.046],[79.8784,16.1546],[79.8692,15.9167],[79.7468,15.859],[79.5588,15.9484],[79.5373,16.1628],[79.2147,16.2261]]]}},{"type":"Feature","properties":{"key":"andhra-pradesh/s-p-s-nellore","slug":"s-p-s-nellore","name":"S.P.S. Nellore","state":"andhra-pradesh"},"geometry":{"type":"Polygon","coordinates":[[[80.2683,13.5645],[80.2545,13.7831],[80.146,14.0416],[80.1307,14.2285],[80.1964,14.586],[80.1093,14.7386],[80.0405,15.0094],[79.779,14.9805],[79.7346,15.0314],[79.2606,15.107],[79.0893,15.0479],[79.0816,14.9819],[79.2422,14.5928],[79.4349,14.2437],[79.4456,13.8917],[79.9563,13.7075],[80.0374,13.5384],[80.2683,13.5645]]]}},{"type":"Feature","properties":{"key":"andhra-pradesh/srikakulam","slug":"srikakulam","name":"Srikakulam","state":"andhra-pradesh"},"geometry":{"type":"Polygon","coordinates":[[[83.7564,18.911],[83.5377,18.7102],[83.5851,18.3542],[83.6738,18.2827],[83.6631,18.0792],[84.128,18.3129],[84.3543,18.5549],[84.7641,19.0745],[84.7014,19.1185],[84.4231,18.9494],[84.3191,18.7886],[84.0897,18.7584],[83.8909,18.8161],[83.7931,19.0182],[83.7564,18.911]]]}},{"type":"Feature","properties":{"key":"andhra-pradesh/visakhapatnam","slug":"visakhapatnam","name":"Visakhapatnam","state":"andhra-pradesh"},"geometry":{"type":"Polygon","coordinates":[[[82.4275,18.4862],[82.3144,18.1851],[82.3189,18.0449],[82.0315,18.0696],[81.9795,18.0132],[82.0024,17.6393],[82.2287,17.6393],[82.3449,17.495],[82.6034,17.4551],[82.5422,17.2489],[83.1615,17.5596],[83.3466,17.7259],[83.5194,17.95],[83.2732,18.0077],[83.2059,17.8469],[83.0071,18.0352],[83.1523,18.1906],[83.0774,18.4037],[82.7731,18.3418],[82.6064,18.3666],[82.4275,18.4862]]]}},{"type":"Feature","properties":{"key":"andhra-pradesh/vizianagaram","slug":"vizianagaram","name":"Vizianagaram","state":"andhra-pradesh"},"geometry":{"type":"Polygon","coordinates":[[[83.3481,19.0182],[83.4123,18.8738],[82.9994,18.6085],[83.0774,18.4037],[83.1523,18.1906],[83.0071,18.0352],[83.2059,17.8469],[83.2732,18.0077],[83.5194,17.95],[83.6631,18.0792],[83.6738,18.2827],[83.5851,18.3542],[83.5377,18.7102],[83.7564,18.911],[83.6631,19.0993],[83.3481,19.0182]]]}},{"type":"Feature","properties":{"key":"andhra-pradesh/west-godavari","slug":"west-godavari","name":"West Godavari","state":"andhra-pradesh"},"geometry":{"type":"Polygon","coordinates":[[[81.5528,16.347],[81.7149,16.3113],[81.8587,16.5986],[81.744,16.7938],[81.7455,16.9643],[81.6155,17.3314],[81.5008,17.4812],[80.9106,17.6379],[81.0207,17.5197],[81.3097,17.4097],[81.1736,17.231],[80.9411,17.2186],[80.8769,17.0702],[80.9962,16.8282],[80.9733,16.6261],[81.1889,16.622],[81.5528,16.347]]]}},{"type":"Feature","properties":{"key":"andhra-pradesh/y-s-r-kadapa","slug":"y-s-r-kadapa","name":"Y.S.R. Kadapa","state":"andhra-pradesh"},"geometry":{"type":"Polygon","coordinates":[[[78.759,15.184],[78.762,15.0548],[78.6305,14.9255],[78.4853,15.0369],[78.2895,15.0713],[78.1336,14.9613],[78.0464,14.7743],[78.1351,14.6946],[78.0005,14.4884],[78.2849,14.2918],[78.421,14.2835],[78.4654,13.9948],[78.6428,13.8684],[78.8844,13.9],[79.1489,13.8656],[79.3064,13.724],[79.4456,13.8917],[79.4349,14.2437],[79.2422,14.5928],[79.0816,14.9819],[79.0893,15.0479],[79.0832,15.173],[78.759,15.184]]]}}]}