{"type":"FeatureCollection","features":[{"type":"Feature","properties":{"key":"arunachal-pradesh/anjaw","slug":"anjaw","name":"Anjaw","state":"arunachal-pradesh"},"geometry":{"type":"Polygon","coordinates":[[[96.8615,27.631],[97.253,27.9005],[97.3707,28.218],[97.0894,28.3624],[96.9946,28.3101],[96.7805,28.3638],[96.6627,28.46],[96.3141,28.383],[96.3049,28.3693],[96.2881,28.0613],[96.4165,27.9238],[96.6321,27.8111],[96.6994,27.6599],[96.8615,27.631]]]}},{"type":"Feature","properties":{"key":"arunachal-pradesh/changlang","slug":"changlang","name":"Changlang","state":"arunachal-pradesh"},"geometry":{"type":"Polygon","coordinates":[[[96.6994,27.6599],[96.3722,27.6448],[96.311,27.5705],[96.0618,27.6063],[95.8737,27.5444],[95.8568,27.2708],[95.6336,27.231],[95.684,26.9038],[95.9455,27.0509],[96.022,27.1801],[96.3064,27.2942],[96.6061,27.3657],[96.7973,27.3464],[96.86,27.1897],[97.0634,27.0921],[97.1643,27.1416],[96.9624,27.4014],[96.8615,27.631],[96.6994,27.6599]]]}},{"type":"Feature","properties":{"key":"arunachal-pradesh/east-kameng","slug":"east-kameng","name":"East Kameng","state":"arunachal-pradesh"},"geometry":{"type":"Polygon","coordinates":[[[92.4605,27.7822],[92.6608,27.4825],[92.8031,27.4482],[92.8092,27.1774],[93.3306,27.3547],[93.2297,27.6035],[93.2389,27.8015],[92.9789,27.8235],[92.9315,27.9252],[92.7342,27.9761],[92.4682,27.8152],[92.4605,27.7822]]]}},{"type":"Feature","properties":{"key":"arunachal-pradesh/east-siang","slug":"east-siang","name":"East Siang","state":"arunachal-pradesh"},"geometry":{"type":"Polygon","coordinates":[[[95.5189,27.884],[95.5632,28.2552],[95.3828,28.3115],[95.2283,28.1562],[95.0678,28.0228],[95.1366,27.8152],[95.5143,27.8799],[95.5189,27.884]]]}},{"type":"Feature","properties":{"key":"arunachal-pradesh/kamle","slug":"kamle","name":"Kamle","state":"arunachal-pradesh"},"geometry":{"type":"Polygon","coordinates":[[[93.9622,27.9788],[93.8903,27.8207],[93.9423,27.5114],[94.2191,27.5045],[94.2665,27.5197],[94.213,27.6063],[94.3185,27.7726],[93.9622,27.9788]]]}},{"type":"Feature","properties":{"key":"arunachal-pradesh/kra-daadi","slug":"kra-daadi","name":"Kra Daadi","state":"arunachal-pradesh"},"geometry":{"type":"Polygon","coordinates":[[[93.456,28.2717],[93.4606,28.1136],[93.6181,27.9541],[93.5141,27.6503],[93.5432,27.6214],[93.8903,27.8207],[93.9622,27.9788],[93.8551,28.0819],[93.8398,28.2373],[93.6793,28.3225],[93.456,28.2717]]]}},{"type":"Feature","properties":{"key":"arunachal-pradesh/kurung-kumey","slug":"kurung-kumey","name":"Kurung Kumey","state":"arunachal-pradesh"},"geometry":{"type":"Polygon","coordinates":[[[93.2236,28.3418],[92.8015,28.2015],[92.6624,28.0668],[92.7342,27.9761],[92.9315,27.9252],[92.9789,27.8235],[93.2389,27.8015],[93.2297,27.6035],[93.5141,27.6503],[93.6181,27.9541],[93.4606,28.1136],[93.456,28.2717],[93.2236,28.3418]]]}},{"type":"Feature","properties":{"key":"arunachal-pradesh/lepa-rada","slug":"lepa-rada","name":"Lepa Rada","state":"arunachal-pradesh"},"geometry":{"type":"Polygon","coordinates":[[[94.5953,27.8702],[94.7466,27.7726],[94.9011,27.8235],[94.8935,28.016],[94.6029,28.0613],[94.4852,28.0215],[94.5953,27.8702]]]}},{"type":"Feature","properties":{"key":"arunachal-pradesh/lohit","slug":"lohit","name":"Lohit","state":"arunachal-pradesh"},"geometry":{"type":"Polygon","coordinates":[[[96.3049,28.3693],[95.97,27.9596],[95.7743,27.7328],[96.0235,27.8496],[96.2086,27.8771],[96.311,27.5705],[96.3722,27.6448],[96.6994,27.6599],[96.6321,27.8111],[96.4165,27.9238],[96.2881,28.0613],[96.3049,28.3693]]]}},{"type":"Feature","properties":{"key":"arunachal-pradesh/longding","slug":"longding","name":"Longding","state":"arunachal-pradesh"},"geometry":{"type":"Polygon","coordinates":[[[95.369,27.11],[95.1962,27.0344],[95.2345,26.6824],[95.4271,26.6976],[95.496,26.8172],[95.3675,26.9354],[95.3767,27.0962],[95.369,27.11]]]}},{"type":"Feature","properties":{"key":"arunachal-pradesh/lower-dibang-valley","slug":"lower-dibang-valley","name":"Lower Dibang Valley","state":"arunachal-pradesh"},"geometry":{"type":"Polygon","coordinates":[[[96.3141,28.383],[96.3263,28.5109],[95.9486,28.482],[95.8324,28.2744],[95.5801,28.4627],[95.395,28.5301],[95.3828,28.3115],[95.5632,28.2552],[95.5189,27.884],[95.6061,27.9555],[95.97,27.9596],[96.3049,28.3693],[96.3141,28.383]]]}},{"type":"Feature","properties":{"key":"arunachal-pradesh/lower-siang","slug":"lower-siang","name":"Lower Siang","state":"arunachal-pradesh"},"geometry":{"type":"Polygon","coordinates":[[[94.3185,27.7726],[94.213,27.6063],[94.4622,27.5554],[94.8522,27.7273],[95.1366,27.8152],[95.0678,28.0228],[94.9286,28.0517],[94.8935,28.016],[94.9011,27.8235],[94.7466,27.7726],[94.5953,27.8702],[94.3185,27.7726]]]}},{"type":"Feature","properties":{"key":"arunachal-pradesh/lower-subansiri","slug":"lower-subansiri","name":"Lower Subansiri","state":"arunachal-pradesh"},"geometry":{"type":"Polygon","coordinates":[[[93.9423,27.5114],[93.8903,27.8207],[93.5432,27.6214],[93.6655,27.3368],[93.8353,27.3629],[93.9423,27.5114]]]}},{"type":"Feature","properties":{"key":"arunachal-pradesh/namsai","slug":"namsai","name":"Namsai","state":"arunachal-pradesh"},"geometry":{"type":"Polygon","coordinates":[[[95.8737,27.5444],[96.0618,27.6063],[96.311,27.5705],[96.2086,27.8771],[96.0235,27.8496],[95.7743,27.7328],[95.8737,27.5444]]]}},{"type":"Feature","properties":{"key":"arunachal-pradesh/pakke-kessang","slug":"pakke-kessang","name":"Pakke Kessang","state":"arunachal-pradesh"},"geometry":{"type":"Polygon","coordinates":[[[93.3306,27.3547],[92.8092,27.1774],[92.615,27.143],[92.6562,27.0083],[92.8872,27],[93.0615,26.9216],[93.3979,26.9574],[93.3123,27.1732],[93.3306,27.3547]]]}},{"type":"Feature","properties":{"key":"arunachal-pradesh/papum-pare","slug":"papum-pare","name":"Papum Pare","state":"arunachal-pradesh"},"geometry":{"type":"Polygon","coordinates":[[[93.9423,27.5114],[93.8353,27.3629],[93.6655,27.3368],[93.5432,27.6214],[93.5141,27.6503],[93.2297,27.6035],[93.3306,27.3547],[93.3123,27.1732],[93.3979,26.9574],[93.6976,26.9945],[93.8062,27.1485],[94.2191,27.5045],[93.9423,27.5114]]]}},{"type":"Feature","properties":{"key":"arunachal-pradesh/shi-yomi","slug":"shi-yomi","name":"Shi Yomi","state":"arunachal-pradesh"},"geometry":{"type":"Polygon","coordinates":[[[94.4011,28.339],[94.4852,28.3954],[94.5586,28.4944],[94.3949,28.9315],[94.187,29.0388],[93.9973,28.8408],[93.9622,28.713],[94.0019,28.5782],[94.4011,28.339]]]}},{"type":"Feature","properties":{"key":"arunachal-pradesh/siang","slug":"siang","name":"Siang","state":"arunachal-pradesh"},"geometry":{"type":"Polygon","coordinates":[[[95.2283,28.1562],[95.106,28.2634],[95.0846,28.526],[94.8201,28.5686],[94.6197,28.7941],[94.3949,28.9315],[94.5586,28.4944],[94.4852,28.3954],[94.6136,28.2579],[94.9286,28.0517],[95.0678,28.0228],[95.2283,28.1562]]]}},{"type":"Feature","properties":{"key":"arunachal-pradesh/tawang","slug":"tawang","name":"Tawang","state":"arunachal-pradesh"},"geometry":{"type":"Polygon","coordinates":[[[92.014,27.4894],[92.222,27.6269],[92.3932,27.6723],[92.4605,27.7822],[92.4682,27.8152],[92.2571,27.862],[91.881,27.7218],[91.8259,27.8097],[91.6302,27.8015],[91.5644,27.5843],[91.6546,27.4825],[92.014,27.4894]]]}},{"type":"Feature","properties":{"key":"arunachal-pradesh/tirap","slug":"tirap","name":"Tirap","state":"arunachal-pradesh"},"geometry":{"type":"Polygon","coordinates":[[[95.4837,27.242],[95.3767,27.0962],[95.3675,26.9354],[95.496,26.8172],[95.684,26.9038],[95.6336,27.231],[95.4837,27.242]]]}},{"type":"Feature","properties":{"key":"arunachal-pradesh/upper-dibang-valley","slug":"upper-dibang-valley","name":"Upper Dibang Valley","state":"arunachal-pradesh"},"geometry":{"type":"Polygon","coordinates":[[[95.395,28.5301],[95.5801,28.4627],[95.8324,28.2744],[95.9486,28.482],[96.3263,28.5109],[96.5847,28.7171],[96.519,28.9673],[96.1504,29.0498],[96.2437,29.2326],[96.0893,29.4594],[95.5388,29.212],[95.4547,29.0346],[95.2696,29.0498],[95.395,28.5301]]]}},{"type":"Feature","properties":{"key":"arunachal-pradesh/upper-siang","slug":"upper-siang","name":"Upper Siang","state":"arunachal-pradesh"},"geometry":{"type":"Polygon","coordinates":[[[95.3828,28.3115],[95.395,28.5301],[95.2696,29.0498],[95.2528,29.1089],[94.8736,29.1831],[94.6794,29.3275],[94.4332,29.2271],[94.187,29.0388],[94.3949,28.9315],[94.6197,28.7941],[94.8201,28.5686],[95.0846,28.526],[95.106,28.2634],[95.2283,28.1562],[95.3828,28.3115]]]}},{"type":"Feature","properties":{"key":"arunachal-pradesh/upper-subansiri","slug":"upper-subansiri","name":"Upper Subansiri","state":"arunachal-pradesh"},"geometry":{"type":"Polygon","coordinates":[[[94.4011,28.339],[94.0019,28.5782],[93.9622,28.713],[93.3398,28.6401],[93.1823,28.4325],[93.2236,28.3418],[93.456,28.2717],[93.6793,28.3225],[93.8398,28.2373],[93.8551,28.0819],[93.9622,27.9788],[94.3185,27.7726],[94.5953,27.8702],[94.4852,28.0215],[94.3567,28.1988],[94.4011,28.339]]]}},{"type":"Feature","properties":{"key":"arunachal-pradesh/west-kameng","slug":"west-kameng","name":"West Kameng","state":"arunachal-pradesh"},"geometry":{"type":"Polygon","coordinates":[[[92.014,27.4894],[92.0706,27.2763],[92.0339,27.0646],[92.1134,26.8928],[92.3596,26.9258],[92.6562,27.0083],[92.615,27.143],[92.8092,27.1774],[92.8031,27.4482],[92.6608,27.4825],[92.4605,27.7822],[92.3932,27.6723],[92.222,27.6269],[92.014,27.4894]]]}},{"type":"Feature","properties":{"key":"arunachal-pradesh/west-siang","slug":"west-siang","name":"West Siang","state":"arunachal-pradesh"},"geometry":{"type":"Polygon","coordinates":[[[94.4852,28.0215],[94.6029,28.0613],[94.8935,28.016],[94.9286,28.0517],[94.6136,28.2579],[94.4852,28.3954],[94.4011,28.339],[94.3567,28.1988],[94.4852,28.0215]]]}}]}