{"type":"FeatureCollection","features":[{"type":"Feature","properties":{"key":"assam/baksa","slug":"baksa","name":"Baksa","state":"assam"},"geometry":{"type":"Polygon","coordinates":[[[91.7036,26.813],[91.3366,26.78],[91.098,26.8227],[90.9512,26.7773],[90.8747,26.5628],[90.9894,26.5903],[91.2494,26.523],[91.5782,26.5285],[91.78,26.479],[91.7785,26.5133],[91.7036,26.813]]]}},{"type":"Feature","properties":{"key":"assam/barpeta","slug":"barpeta","name":"Barpeta","state":"assam"},"geometry":{"type":"Polygon","coordinates":[[[90.8472,26.5285],[90.861,26.4309],[90.6698,26.2027],[90.7142,26.1298],[90.9436,26.094],[91.2234,26.1793],[91.2769,26.3415],[91.2494,26.523],[90.9894,26.5903],[90.8747,26.5628],[90.8472,26.5285]]]}},{"type":"Feature","properties":{"key":"assam/biswanath","slug":"biswanath","name":"Biswanath","state":"assam"},"geometry":{"type":"Polygon","coordinates":[[[93.3979,26.9574],[93.0615,26.9216],[93.1441,26.5945],[93.3062,26.6976],[93.7695,26.8447],[93.6976,26.9945],[93.3979,26.9574]]]}},{"type":"Feature","properties":{"key":"assam/bongaigaon","slug":"bongaigaon","name":"Bongaigaon","state":"assam"},"geometry":{"type":"Polygon","coordinates":[[[90.3992,26.4419],[90.4252,26.3635],[90.39,26.204],[90.6698,26.2027],[90.861,26.4309],[90.8472,26.5285],[90.7448,26.4652],[90.52,26.5092],[90.3992,26.4419]]]}},{"type":"Feature","properties":{"key":"assam/cachar","slug":"cachar","name":"Cachar","state":"assam"},"geometry":{"type":"Polygon","coordinates":[[[93.0095,24.4127],[93.0875,24.5722],[93.1746,24.7977],[93.2465,24.9722],[93.0141,25.0616],[92.722,25.1125],[92.54,25.0987],[92.4253,25.03],[92.5156,24.8801],[92.5798,24.8719],[92.6685,24.5914],[92.7618,24.5131],[92.8963,24.3907],[93.0095,24.4127]]]}},{"type":"Feature","properties":{"key":"assam/charaideo","slug":"charaideo","name":"Charaideo","state":"assam"},"geometry":{"type":"Polygon","coordinates":[[[94.8353,27.0921],[94.924,26.9491],[95.1962,27.0344],[95.369,27.11],[94.9852,27.1691],[94.8353,27.0921]]]}},{"type":"Feature","properties":{"key":"assam/chirang","slug":"chirang","name":"Chirang","state":"assam"},"geometry":{"type":"Polygon","coordinates":[[[90.8747,26.5628],[90.9512,26.7773],[90.7172,26.769],[90.4175,26.9052],[90.3365,26.8625],[90.3992,26.4419],[90.52,26.5092],[90.7448,26.4652],[90.8472,26.5285],[90.8747,26.5628]]]}},{"type":"Feature","properties":{"key":"assam/darrang","slug":"darrang","name":"Darrang","state":"assam"},"geometry":{"type":"Polygon","coordinates":[[[92.3596,26.5835],[92.0721,26.6467],[92.0033,26.5436],[91.7785,26.5133],[91.78,26.479],[91.8228,26.3704],[91.7479,26.2095],[91.9803,26.2741],[92.3412,26.5023],[92.3596,26.5835]]]}},{"type":"Feature","properties":{"key":"assam/dhemaji","slug":"dhemaji","name":"Dhemaji","state":"assam"},"geometry":{"type":"Polygon","coordinates":[[[95.5143,27.8799],[95.1366,27.8152],[94.8522,27.7273],[94.4622,27.5554],[94.213,27.6063],[94.2665,27.5197],[94.3903,27.3506],[94.6258,27.3368],[94.9959,27.6585],[95.2696,27.6805],[95.5143,27.8799]]]}},{"type":"Feature","properties":{"key":"assam/dhubri","slug":"dhubri","name":"Dhubri","state":"assam"},"geometry":{"type":"Polygon","coordinates":[[[89.8425,26.3827],[89.7294,26.171],[89.8869,25.9456],[89.8425,25.8823],[90.179,26.0487],[90.2646,26.1834],[90.39,26.204],[90.4252,26.3635],[90.1163,26.3388],[90.1361,26.215],[89.8823,26.1353],[89.8425,26.3827]]]}},{"type":"Feature","properties":{"key":"assam/dibrugarh","slug":"dibrugarh","name":"Dibrugarh","state":"assam"},"geometry":{"type":"Polygon","coordinates":[[[95.2696,27.6805],[94.9959,27.6585],[94.6258,27.3368],[94.5631,27.1815],[94.5937,27.1457],[94.7696,27.2378],[94.8353,27.0921],[94.9852,27.1691],[95.369,27.11],[95.3767,27.0962],[95.4837,27.242],[95.4745,27.3671],[95.2207,27.4441],[95.3186,27.587],[95.2696,27.6805]]]}},{"type":"Feature","properties":{"key":"assam/dima-hasao","slug":"dima-hasao","name":"Dima Hasao","state":"assam"},"geometry":{"type":"Polygon","coordinates":[[[93.0645,25.7751],[92.8214,25.7407],[92.6608,25.5716],[92.5691,25.4658],[92.7923,25.2829],[92.54,25.0987],[92.722,25.1125],[93.0141,25.0616],[93.2465,24.9722],[93.3811,25.2403],[93.4698,25.3063],[93.456,25.4342],[93.3291,25.5428],[93.2083,25.5428],[93.1425,25.7187],[93.0645,25.7751]]]}},{"type":"Feature","properties":{"key":"assam/goalpara","slug":"goalpara","name":"Goalpara","state":"assam"},"geometry":{"type":"Polygon","coordinates":[[[90.6698,26.2027],[90.39,26.204],[90.2646,26.1834],[90.179,26.0487],[90.1224,25.9593],[90.4343,25.9909],[90.6316,25.9195],[90.9481,25.9483],[91.0261,25.8865],[91.0995,26.0102],[90.9436,26.094],[90.7142,26.1298],[90.6698,26.2027]]]}},{"type":"Feature","properties":{"key":"assam/golaghat","slug":"golaghat","name":"Golaghat","state":"assam"},"geometry":{"type":"Polygon","coordinates":[[[93.7695,26.8447],[93.3062,26.6976],[93.297,26.5752],[93.7007,26.6068],[93.8934,26.3717],[93.7756,25.9689],[93.9545,25.9689],[94.0004,26.1724],[94.164,26.3511],[94.0983,26.6426],[93.9729,26.7677],[94.0004,26.8667],[93.9637,26.9244],[93.7695,26.8447]]]}},{"type":"Feature","properties":{"key":"assam/hailakandi","slug":"hailakandi","name":"Hailakandi","state":"assam"},"geometry":{"type":"Polygon","coordinates":[[[92.7618,24.5131],[92.6685,24.5914],[92.5798,24.8719],[92.5064,24.6643],[92.5094,24.4553],[92.4223,24.2505],[92.5324,24.1776],[92.7618,24.5131]]]}},{"type":"Feature","properties":{"key":"assam/hojai","slug":"hojai","name":"Hojai","state":"assam"},"geometry":{"type":"Polygon","coordinates":[[[92.7526,26.0542],[92.8688,25.8686],[93.0645,25.7751],[93.1425,25.7187],[93.2404,25.8466],[93.1089,26.0775],[92.8015,26.2013],[92.7526,26.0542]]]}},{"type":"Feature","properties":{"key":"assam/jorhat","slug":"jorhat","name":"Jorhat","state":"assam"},"geometry":{"type":"Polygon","coordinates":[[[94.3965,26.9505],[94.0004,26.8667],[93.9729,26.7677],[94.0983,26.6426],[94.164,26.3511],[94.3139,26.4611],[94.4026,26.611],[94.5861,26.7251],[94.3965,26.9505]]]}},{"type":"Feature","properties":{"key":"assam/kamrup","slug":"kamrup","name":"Kamrup","state":"assam"},"geometry":{"type":"Polygon","coordinates":[[[91.5782,26.5285],[91.5247,26.336],[91.3534,26.1669],[91.2234,26.1793],[90.9436,26.094],[91.0995,26.0102],[91.0261,25.8865],[91.0078,25.8246],[91.335,25.8411],[91.4451,25.8397],[91.5797,26.0336],[91.7234,26.0349],[91.7479,26.2095],[91.8228,26.3704],[91.78,26.479],[91.5782,26.5285]]]}},{"type":"Feature","properties":{"key":"assam/kamrup-metropolitan","slug":"kamrup-metropolitan","name":"Kamrup Metropolitan","state":"assam"},"geometry":{"type":"Polygon","coordinates":[[[91.7479,26.2095],[91.7234,26.0349],[92.173,26.0762],[92.1669,26.1642],[91.9803,26.2741],[91.7479,26.2095]]]}},{"type":"Feature","properties":{"key":"assam/karbi-anglong","slug":"karbi-anglong","name":"Karbi Anglong","state":"assam"},"geometry":{"type":"Polygon","coordinates":[[[93.297,26.5752],[93.0126,26.5078],[92.9422,26.3305],[92.8015,26.2013],[93.1089,26.0775],[93.2404,25.8466],[93.1425,25.7187],[93.2083,25.5428],[93.3291,25.5428],[93.5126,25.6747],[93.7756,25.9689],[93.8934,26.3717],[93.7007,26.6068],[93.297,26.5752]]]}},{"type":"Feature","properties":{"key":"assam/karimganj","slug":"karimganj","name":"Karimganj","state":"assam"},"geometry":{"type":"Polygon","coordinates":[[[92.4223,24.2505],[92.5094,24.4553],[92.5064,24.6643],[92.5798,24.8719],[92.5156,24.8801],[92.2954,24.7372],[92.2143,24.509],[92.2954,24.245],[92.4223,24.2505]]]}},{"type":"Feature","properties":{"key":"assam/kokrajhar","slug":"kokrajhar","name":"Kokrajhar","state":"assam"},"geometry":{"type":"Polygon","coordinates":[[[90.3365,26.8625],[90.1943,26.7732],[89.8517,26.6976],[89.8349,26.4144],[89.8425,26.3827],[89.8823,26.1353],[90.1361,26.215],[90.1163,26.3388],[90.4252,26.3635],[90.3992,26.4419],[90.3365,26.8625]]]}},{"type":"Feature","properties":{"key":"assam/lakhimpur","slug":"lakhimpur","name":"Lakhimpur","state":"assam"},"geometry":{"type":"Polygon","coordinates":[[[94.2665,27.5197],[94.2191,27.5045],[93.8062,27.1485],[93.6976,26.9945],[93.7695,26.8447],[93.9637,26.9244],[94.2344,27.0715],[94.5631,27.1815],[94.6258,27.3368],[94.3903,27.3506],[94.2665,27.5197]]]}},{"type":"Feature","properties":{"key":"assam/majuli","slug":"majuli","name":"Majuli","state":"assam"},"geometry":{"type":"Polygon","coordinates":[[[94.5631,27.1815],[94.2344,27.0715],[93.9637,26.9244],[94.0004,26.8667],[94.3965,26.9505],[94.5937,27.1457],[94.5631,27.1815]]]}},{"type":"Feature","properties":{"key":"assam/morigaon","slug":"morigaon","name":"Morigaon","state":"assam"},"geometry":{"type":"Polygon","coordinates":[[[92.3412,26.5023],[91.9803,26.2741],[92.1669,26.1642],[92.173,26.0762],[92.274,26.0652],[92.3948,26.1133],[92.4192,26.5147],[92.3412,26.5023]]]}},{"type":"Feature","properties":{"key":"assam/nagaon","slug":"nagaon","name":"Nagaon","state":"assam"},"geometry":{"type":"Polygon","coordinates":[[[92.4192,26.5147],[92.3948,26.1133],[92.5293,26.1504],[92.7526,26.0542],[92.8015,26.2013],[92.9422,26.3305],[93.0126,26.5078],[93.297,26.5752],[93.3062,26.6976],[93.1441,26.5945],[92.9514,26.6206],[92.5752,26.4996],[92.4192,26.5147]]]}},{"type":"Feature","properties":{"key":"assam/nalbari","slug":"nalbari","name":"Nalbari","state":"assam"},"geometry":{"type":"Polygon","coordinates":[[[91.2494,26.523],[91.2769,26.3415],[91.2234,26.1793],[91.3534,26.1669],[91.5247,26.336],[91.5782,26.5285],[91.2494,26.523]]]}},{"type":"Feature","properties":{"key":"assam/sivasagar","slug":"sivasagar","name":"Sivasagar","state":"assam"},"geometry":{"type":"Polygon","coordinates":[[[94.5937,27.1457],[94.3965,26.9505],[94.5861,26.7251],[94.7359,26.7498],[94.791,26.7965],[94.924,26.9491],[94.8353,27.0921],[94.7696,27.2378],[94.5937,27.1457]]]}},{"type":"Feature","properties":{"key":"assam/sonitpur","slug":"sonitpur","name":"Sonitpur","state":"assam"},"geometry":{"type":"Polygon","coordinates":[[[93.0615,26.9216],[92.8872,27],[92.6562,27.0083],[92.3596,26.9258],[92.3596,26.5835],[92.3412,26.5023],[92.4192,26.5147],[92.5752,26.4996],[92.9514,26.6206],[93.1441,26.5945],[93.0615,26.9216]]]}},{"type":"Feature","properties":{"key":"assam/south-salmara-mankachar","slug":"south-salmara-mankachar","name":"South Salmara Mankachar","state":"assam"},"geometry":{"type":"Polygon","coordinates":[[[89.8425,25.8823],[89.8716,25.4768],[90.0199,25.6074],[89.8991,25.727],[90.1224,25.9593],[90.179,26.0487],[89.8425,25.8823]]]}},{"type":"Feature","properties":{"key":"assam/tinsukia","slug":"tinsukia","name":"Tinsukia","state":"assam"},"geometry":{"type":"Polygon","coordinates":[[[95.7743,27.7328],[95.97,27.9596],[95.6061,27.9555],[95.5189,27.884],[95.5143,27.8799],[95.2696,27.6805],[95.3186,27.587],[95.2207,27.4441],[95.4745,27.3671],[95.4837,27.242],[95.6336,27.231],[95.8568,27.2708],[95.8737,27.5444],[95.7743,27.7328]]]}},{"type":"Feature","properties":{"key":"assam/udalguri","slug":"udalguri","name":"Udalguri","state":"assam"},"geometry":{"type":"Polygon","coordinates":[[[92.3596,26.9258],[92.1134,26.8928],[91.8932,26.9189],[91.7036,26.813],[91.7785,26.5133],[92.0033,26.5436],[92.0721,26.6467],[92.3596,26.5835],[92.3596,26.9258]]]}},{"type":"Feature","properties":{"key":"assam/west-karbi-anglong","slug":"west-karbi-anglong","name":"West Karbi Anglong","state":"assam"},"geometry":{"type":"Polygon","coordinates":[[[92.3948,26.1133],[92.274,26.0652],[92.1639,25.9703],[92.1516,25.672],[92.4437,25.7201],[92.6608,25.5716],[92.8214,25.7407],[93.0645,25.7751],[92.8688,25.8686],[92.7526,26.0542],[92.5293,26.1504],[92.3948,26.1133]]]}}]}