{"type":"FeatureCollection","features":[{"type":"Feature","properties":{"key":"bihar/araria","slug":"araria","name":"Araria","state":"bihar"},"geometry":{"type":"Polygon","coordinates":[[[87.0793,25.9648],[87.5182,25.9744],[87.6849,26.1023],[87.6589,26.38],[87.4631,26.4405],[87.1619,26.4047],[87.0426,26.5601],[87.0931,26.0597],[87.0793,25.9648]]]}},{"type":"Feature","properties":{"key":"bihar/arwal","slug":"arwal","name":"Arwal","state":"bihar"},"geometry":{"type":"Polygon","coordinates":[[[84.4629,25.1606],[84.4476,25.1276],[84.7335,25.0547],[84.8559,25.0616],[84.8574,25.2266],[84.7075,25.3091],[84.4629,25.1606]]]}},{"type":"Feature","properties":{"key":"bihar/aurangabad","slug":"aurangabad","name":"Aurangabad","state":"bihar"},"geometry":{"type":"Polygon","coordinates":[[[84.0087,24.6423],[84.0928,24.5337],[84.3268,24.4897],[84.547,24.5268],[84.7351,24.7647],[84.7335,25.0547],[84.4476,25.1276],[84.0852,24.7702],[84.0087,24.6423]]]}},{"type":"Feature","properties":{"key":"bihar/banka","slug":"banka","name":"Banka","state":"bihar"},"geometry":{"type":"Polygon","coordinates":[[[87.1756,25.0575],[87.0135,25.1097],[86.6924,25.1152],[86.6511,24.9819],[86.5043,24.9832],[86.6114,24.6079],[86.9126,24.5474],[87.0518,24.6272],[87.1756,25.0575]]]}},{"type":"Feature","properties":{"key":"bihar/begusarai","slug":"begusarai","name":"Begusarai","state":"bihar"},"geometry":{"type":"Polygon","coordinates":[[[85.7351,25.5249],[85.8896,25.4988],[86.0685,25.3352],[86.2627,25.2802],[86.5104,25.4232],[86.2826,25.5428],[86.2933,25.6376],[86.0838,25.7449],[85.8437,25.6445],[85.7351,25.5249]]]}},{"type":"Feature","properties":{"key":"bihar/bhagalpur","slug":"bhagalpur","name":"Bhagalpur","state":"bihar"},"geometry":{"type":"Polygon","coordinates":[[[87.2169,25.4562],[87.1007,25.5194],[86.8224,25.4452],[86.7261,25.2541],[86.6924,25.1152],[87.0135,25.1097],[87.1756,25.0575],[87.327,25.2238],[87.4784,25.195],[87.5518,25.3311],[87.2169,25.4562]]]}},{"type":"Feature","properties":{"key":"bihar/bhojpur","slug":"bhojpur","name":"Bhojpur","state":"bihar"},"geometry":{"type":"Polygon","coordinates":[[[84.3191,25.6679],[84.365,25.4713],[84.2748,25.3586],[84.3206,25.2128],[84.4629,25.1606],[84.7075,25.3091],[84.8482,25.6995],[84.6005,25.7325],[84.3191,25.6679]]]}},{"type":"Feature","properties":{"key":"bihar/buxar","slug":"buxar","name":"Buxar","state":"bihar"},"geometry":{"type":"Polygon","coordinates":[[[83.9307,25.5579],[83.7793,25.3984],[83.8971,25.2898],[84.0469,25.375],[84.2748,25.3586],[84.365,25.4713],[84.3191,25.6679],[84.0806,25.6363],[83.9307,25.5579]]]}},{"type":"Feature","properties":{"key":"bihar/darbhanga","slug":"darbhanga","name":"Darbhanga","state":"bihar"},"geometry":{"type":"Polygon","coordinates":[[[85.7046,26.303],[85.7122,26.0885],[86.3912,25.7187],[86.4126,25.7297],[86.3162,25.8603],[86.3881,26.0336],[86.33,26.1559],[85.9783,26.3236],[85.8162,26.2934],[85.7673,26.4364],[85.7046,26.303]]]}},{"type":"Feature","properties":{"key":"bihar/east-champaran","slug":"east-champaran","name":"East Champaran","state":"bihar"},"geometry":{"type":"Polygon","coordinates":[[[84.5026,26.6027],[84.865,26.2604],[85.0455,26.3415],[85.2902,26.3539],[85.1785,26.4872],[85.2657,26.6467],[85.255,26.7539],[85.1923,26.8694],[84.758,27.0028],[84.6785,26.9134],[84.7274,26.7429],[84.5026,26.6027]]]}},{"type":"Feature","properties":{"key":"bihar/gaya","slug":"gaya","name":"Gaya","state":"bihar"},"geometry":{"type":"Polygon","coordinates":[[[85.388,24.9626],[85.2015,25.0589],[85.0898,24.9929],[84.8559,25.0616],[84.7335,25.0547],[84.7351,24.7647],[84.547,24.5268],[84.3268,24.4897],[84.4965,24.2876],[84.5852,24.4003],[84.8023,24.5309],[85.0883,24.3701],[85.3314,24.5103],[85.3743,24.5543],[85.2764,24.7798],[85.388,24.9626]]]}},{"type":"Feature","properties":{"key":"bihar/gopalganj","slug":"gopalganj","name":"Gopalganj","state":"bihar"},"geometry":{"type":"Polygon","coordinates":[[[84.4185,26.6316],[84.1127,26.6302],[84.0515,26.5518],[83.9078,26.4474],[84.157,26.3759],[84.654,26.2989],[84.7656,26.2095],[84.8972,26.215],[84.865,26.2604],[84.5026,26.6027],[84.4185,26.6316]]]}},{"type":"Feature","properties":{"key":"bihar/jamui","slug":"jamui","name":"Jamui","state":"bihar"},"geometry":{"type":"Polygon","coordinates":[[[86.5043,24.9832],[86.3713,25.1441],[86.119,24.9736],[85.9752,24.997],[85.8345,24.9874],[86.0547,24.7798],[86.1327,24.6038],[86.4523,24.3729],[86.6114,24.6079],[86.5043,24.9832]]]}},{"type":"Feature","properties":{"key":"bihar/jehanabad","slug":"jehanabad","name":"Jehanabad","state":"bihar"},"geometry":{"type":"Polygon","coordinates":[[[85.2015,25.0589],[85.1663,25.3077],[84.8574,25.2266],[84.8559,25.0616],[85.0898,24.9929],[85.2015,25.0589]]]}},{"type":"Feature","properties":{"key":"bihar/kaimur","slug":"kaimur","name":"Kaimur","state":"bihar"},"geometry":{"type":"Polygon","coordinates":[[[83.5377,25.3091],[83.3496,25.184],[83.3955,24.7812],[83.4888,24.7358],[83.5239,24.5502],[83.6967,24.5406],[83.7854,24.7592],[83.8359,25.2431],[83.8971,25.2898],[83.7793,25.3984],[83.5377,25.3091]]]}},{"type":"Feature","properties":{"key":"bihar/katihar","slug":"katihar","name":"Katihar","state":"bihar"},"geometry":{"type":"Polygon","coordinates":[[[88.0672,25.4837],[87.8928,25.8658],[87.8271,25.8906],[87.8301,25.7875],[87.6497,25.683],[87.2414,25.6967],[87.2169,25.4562],[87.5518,25.3311],[87.7109,25.2582],[87.7674,25.4163],[87.9601,25.5386],[88.0672,25.4837]]]}},{"type":"Feature","properties":{"key":"bihar/khagaria","slug":"khagaria","name":"Khagaria","state":"bihar"},"geometry":{"type":"Polygon","coordinates":[[[86.2933,25.6376],[86.2826,25.5428],[86.5104,25.4232],[86.6404,25.3902],[86.7261,25.2541],[86.8224,25.4452],[86.7979,25.6349],[86.4936,25.6198],[86.4126,25.7297],[86.3912,25.7187],[86.2933,25.6376]]]}},{"type":"Feature","properties":{"key":"bihar/kishanganj","slug":"kishanganj","name":"Kishanganj","state":"bihar"},"geometry":{"type":"Polygon","coordinates":[[[88.11,26.5477],[88.0335,26.3924],[87.8485,26.4364],[87.6589,26.38],[87.6849,26.1023],[87.85,26.0391],[88.2797,26.3305],[88.24,26.4584],[88.11,26.5477]]]}},{"type":"Feature","properties":{"key":"bihar/lakhisarai","slug":"lakhisarai","name":"Lakhisarai","state":"bihar"},"geometry":{"type":"Polygon","coordinates":[[[86.3713,25.1441],[86.2627,25.2802],[86.0685,25.3352],[85.9064,25.2884],[85.9018,25.2568],[85.9813,25.1798],[85.9752,24.997],[86.119,24.9736],[86.3713,25.1441]]]}},{"type":"Feature","properties":{"key":"bihar/madhepura","slug":"madhepura","name":"Madhepura","state":"bihar"},"geometry":{"type":"Polygon","coordinates":[[[86.8224,25.4452],[87.1007,25.5194],[87.0074,25.7449],[87.0793,25.9648],[87.0931,26.0597],[86.7888,26.0899],[86.645,26.0184],[86.7123,25.8658],[86.8438,25.8713],[86.7979,25.6349],[86.8224,25.4452]]]}},{"type":"Feature","properties":{"key":"bihar/madhubani","slug":"madhubani","name":"Madhubani","state":"bihar"},"geometry":{"type":"Polygon","coordinates":[[[85.7673,26.4364],[85.8162,26.2934],[85.9783,26.3236],[86.33,26.1559],[86.3881,26.0336],[86.437,26.072],[86.5349,26.303],[86.723,26.4254],[86.5426,26.5381],[86.0287,26.6659],[85.8162,26.6],[85.7673,26.4364]]]}},{"type":"Feature","properties":{"key":"bihar/munger","slug":"munger","name":"Munger","state":"bihar"},"geometry":{"type":"Polygon","coordinates":[[[86.5104,25.4232],[86.2627,25.2802],[86.3713,25.1441],[86.5043,24.9832],[86.6511,24.9819],[86.6924,25.1152],[86.7261,25.2541],[86.6404,25.3902],[86.5104,25.4232]]]}},{"type":"Feature","properties":{"key":"bihar/muzaffarpur","slug":"muzaffarpur","name":"Muzaffarpur","state":"bihar"},"geometry":{"type":"Polygon","coordinates":[[[84.865,26.2604],[84.8972,26.215],[84.9369,26.0239],[85.0684,25.9744],[85.1755,26.0116],[85.5088,25.9043],[85.6449,25.9167],[85.7122,26.0885],[85.7046,26.303],[85.5042,26.3814],[85.3758,26.3374],[85.2902,26.3539],[85.0455,26.3415],[84.865,26.2604]]]}},{"type":"Feature","properties":{"key":"bihar/nalanda","slug":"nalanda","name":"Nalanda","state":"bihar"},"geometry":{"type":"Polygon","coordinates":[[[85.6342,25.0973],[85.7015,25.2637],[85.9018,25.2568],[85.9064,25.2884],[85.414,25.4617],[85.1785,25.4025],[85.1663,25.3077],[85.2015,25.0589],[85.388,24.9626],[85.6342,25.0973]]]}},{"type":"Feature","properties":{"key":"bihar/nawada","slug":"nawada","name":"Nawada","state":"bihar"},"geometry":{"type":"Polygon","coordinates":[[[85.8345,24.9874],[85.6342,25.0973],[85.388,24.9626],[85.2764,24.7798],[85.3743,24.5543],[85.677,24.5914],[85.7382,24.8196],[85.9018,24.766],[86.0547,24.7798],[85.8345,24.9874]]]}},{"type":"Feature","properties":{"key":"bihar/patna","slug":"patna","name":"Patna","state":"bihar"},"geometry":{"type":"Polygon","coordinates":[[[85.5272,25.5386],[85.3116,25.5125],[85.2305,25.6005],[84.995,25.7297],[84.8482,25.6995],[84.7075,25.3091],[84.8574,25.2266],[85.1663,25.3077],[85.1785,25.4025],[85.414,25.4617],[85.9064,25.2884],[86.0685,25.3352],[85.8896,25.4988],[85.7351,25.5249],[85.5272,25.5386]]]}},{"type":"Feature","properties":{"key":"bihar/purnia","slug":"purnia","name":"Purnia","state":"bihar"},"geometry":{"type":"Polygon","coordinates":[[[87.8271,25.8906],[87.85,26.0391],[87.6849,26.1023],[87.5182,25.9744],[87.0793,25.9648],[87.0074,25.7449],[87.1007,25.5194],[87.2169,25.4562],[87.2414,25.6967],[87.6497,25.683],[87.8301,25.7875],[87.8271,25.8906]]]}},{"type":"Feature","properties":{"key":"bihar/rohtas","slug":"rohtas","name":"Rohtas","state":"bihar"},"geometry":{"type":"Polygon","coordinates":[[[84.2748,25.3586],[84.0469,25.375],[83.8971,25.2898],[83.8359,25.2431],[83.7854,24.7592],[83.6967,24.5406],[83.5239,24.5502],[83.5025,24.5255],[83.8726,24.5323],[84.0087,24.6423],[84.0852,24.7702],[84.4476,25.1276],[84.4629,25.1606],[84.3206,25.2128],[84.2748,25.3586]]]}},{"type":"Feature","properties":{"key":"bihar/saharsa","slug":"saharsa","name":"Saharsa","state":"bihar"},"geometry":{"type":"Polygon","coordinates":[[[86.7979,25.6349],[86.8438,25.8713],[86.7123,25.8658],[86.645,26.0184],[86.437,26.072],[86.3881,26.0336],[86.3162,25.8603],[86.4126,25.7297],[86.4936,25.6198],[86.7979,25.6349]]]}},{"type":"Feature","properties":{"key":"bihar/samastipur","slug":"samastipur","name":"Samastipur","state":"bihar"},"geometry":{"type":"Polygon","coordinates":[[[86.3912,25.7187],[85.7122,26.0885],[85.6449,25.9167],[85.5272,25.5386],[85.7351,25.5249],[85.8437,25.6445],[86.0838,25.7449],[86.2933,25.6376],[86.3912,25.7187]]]}},{"type":"Feature","properties":{"key":"bihar/saran","slug":"saran","name":"Saran","state":"bihar"},"geometry":{"type":"Polygon","coordinates":[[[84.7656,26.2095],[84.7045,26.0817],[84.4093,26.0322],[84.472,25.8823],[84.6005,25.7325],[84.8482,25.6995],[84.995,25.7297],[85.2305,25.6005],[85.1648,25.8383],[85.0684,25.9744],[84.9369,26.0239],[84.8972,26.215],[84.7656,26.2095]]]}},{"type":"Feature","properties":{"key":"bihar/sheikhpura","slug":"sheikhpura","name":"Sheikhpura","state":"bihar"},"geometry":{"type":"Polygon","coordinates":[[[85.9752,24.997],[85.9813,25.1798],[85.9018,25.2568],[85.7015,25.2637],[85.6342,25.0973],[85.8345,24.9874],[85.9752,24.997]]]}},{"type":"Feature","properties":{"key":"bihar/sheohar","slug":"sheohar","name":"Sheohar","state":"bihar"},"geometry":{"type":"Polygon","coordinates":[[[85.2902,26.3539],[85.3758,26.3374],[85.2657,26.6467],[85.1785,26.4872],[85.2902,26.3539]]]}},{"type":"Feature","properties":{"key":"bihar/sitamarhi","slug":"sitamarhi","name":"Sitamarhi","state":"bihar"},"geometry":{"type":"Polygon","coordinates":[[[85.2657,26.6467],[85.3758,26.3374],[85.5042,26.3814],[85.7046,26.303],[85.7673,26.4364],[85.8162,26.6],[85.729,26.8089],[85.544,26.8378],[85.255,26.7539],[85.2657,26.6467]]]}},{"type":"Feature","properties":{"key":"bihar/siwan","slug":"siwan","name":"Siwan","state":"bihar"},"geometry":{"type":"Polygon","coordinates":[[[84.0561,26.0995],[84.472,25.8823],[84.4093,26.0322],[84.7045,26.0817],[84.7656,26.2095],[84.654,26.2989],[84.157,26.3759],[84.0561,26.0995]]]}},{"type":"Feature","properties":{"key":"bihar/supaul","slug":"supaul","name":"Supaul","state":"bihar"},"geometry":{"type":"Polygon","coordinates":[[[86.645,26.0184],[86.7888,26.0899],[87.0931,26.0597],[87.0426,26.5601],[86.723,26.4254],[86.5349,26.303],[86.437,26.072],[86.645,26.0184]]]}},{"type":"Feature","properties":{"key":"bihar/vaishali","slug":"vaishali","name":"Vaishali","state":"bihar"},"geometry":{"type":"Polygon","coordinates":[[[85.6449,25.9167],[85.5088,25.9043],[85.1755,26.0116],[85.0684,25.9744],[85.1648,25.8383],[85.2305,25.6005],[85.3116,25.5125],[85.5272,25.5386],[85.6449,25.9167]]]}},{"type":"Feature","properties":{"key":"bihar/west-champaran","slug":"west-champaran","name":"West Champaran","state":"bihar"},"geometry":{"type":"Polygon","coordinates":[[[84.5026,26.6027],[84.7274,26.7429],[84.6785,26.9134],[84.758,27.0028],[84.6418,27.0481],[84.6892,27.2213],[84.6204,27.3396],[84.2794,27.3946],[84.0974,27.5169],[83.8619,27.3354],[83.9078,27.275],[84.05,27.044],[84.0607,26.8873],[84.2595,26.8048],[84.4185,26.6316],[84.5026,26.6027]]]}}]}