{"type":"FeatureCollection","features":[{"type":"Feature","properties":{"key":"chhattisgarh/balod","slug":"balod","name":"Balod","state":"chhattisgarh"},"geometry":{"type":"Polygon","coordinates":[[[81.4106,20.5538],[81.5161,20.7133],[81.4718,20.87],[81.4198,21.0061],[81.1552,21.0762],[80.9534,21.0033],[80.9213,20.782],[80.9916,20.4589],[81.1491,20.3764],[81.325,20.5634],[81.4106,20.5538]]]}},{"type":"Feature","properties":{"key":"chhattisgarh/baloda-bazar","slug":"baloda-bazar","name":"Baloda Bazar","state":"chhattisgarh"},"geometry":{"type":"Polygon","coordinates":[[[82.9337,21.4969],[82.949,21.7237],[82.6615,21.71],[82.4459,21.7443],[82.2012,21.7608],[82.0376,21.8832],[81.9366,21.8144],[81.6981,21.7484],[81.695,21.6013],[81.9015,21.6],[81.9305,21.4927],[82.1935,21.3786],[82.3893,21.2618],[82.4719,21.3278],[82.6966,21.3305],[82.6905,21.4845],[82.9337,21.4969]]]}},{"type":"Feature","properties":{"key":"chhattisgarh/balrampur","slug":"balrampur","name":"Balrampur","state":"chhattisgarh"},"geometry":{"type":"Polygon","coordinates":[[[82.8129,23.9618],[82.6936,23.9192],[82.7823,23.8175],[83.0652,23.7693],[83.1982,23.6855],[83.3481,23.4696],[83.2074,23.3775],[83.2456,23.2318],[83.3924,23.2703],[83.5545,23.1699],[83.7915,23.2511],[84.0377,23.1713],[84.0744,23.3335],[83.9628,23.3858],[84.0163,23.6346],[83.7747,23.6099],[83.7059,23.8202],[83.5713,23.8628],[83.4322,24.0855],[83.3297,24.102],[83.2074,23.9219],[82.9474,23.8711],[82.8129,23.9618]]]}},{"type":"Feature","properties":{"key":"chhattisgarh/bametara","slug":"bametara","name":"Bametara","state":"chhattisgarh"},"geometry":{"type":"Polygon","coordinates":[[[81.695,21.6013],[81.6981,21.7484],[81.9366,21.8144],[81.7531,21.9602],[81.5008,22.0042],[81.4549,21.9134],[81.172,21.7045],[81.2042,21.5175],[81.3556,21.5436],[81.5543,21.3319],[81.695,21.6013]]]}},{"type":"Feature","properties":{"key":"chhattisgarh/bastar","slug":"bastar","name":"Bastar","state":"chhattisgarh"},"geometry":{"type":"Polygon","coordinates":[[[82.0284,19.5076],[81.8632,19.5516],[81.536,19.223],[81.3754,19.3055],[81.5024,19.2038],[81.5559,18.9123],[81.6736,18.6525],[81.8999,18.6607],[82.0911,18.7377],[82.2455,18.9192],[82.2058,19.1213],[82.189,19.4279],[82.0284,19.5076]]]}},{"type":"Feature","properties":{"key":"chhattisgarh/bijapur","slug":"bijapur","name":"Bijapur","state":"chhattisgarh"},"geometry":{"type":"Polygon","coordinates":[[[80.2759,18.7199],[80.3723,18.6113],[80.4549,18.6305],[80.7056,18.4394],[80.7561,18.17],[80.9794,18.1658],[81.0757,18.192],[81.0222,18.4655],[81.1828,18.5411],[81.1598,18.691],[81.2363,18.9673],[81.2103,19.1832],[81.1292,19.256],[80.9549,19.2368],[80.8524,19.3646],[80.7515,19.2876],[80.4824,19.3371],[80.2714,18.9426],[80.3493,18.8477],[80.2759,18.7199]]]}},{"type":"Feature","properties":{"key":"chhattisgarh/bilaspur","slug":"bilaspur","name":"Bilaspur","state":"chhattisgarh"},"geometry":{"type":"Polygon","coordinates":[[[82.4581,22.2145],[82.3511,22.3272],[82.2043,22.3121],[82.1385,22.4551],[82.1737,22.6709],[82.1339,22.8537],[82.2165,22.9445],[82.1232,23.104],[81.9504,22.983],[81.7317,22.6764],[81.7287,22.6695],[81.747,22.5912],[81.9764,22.3602],[81.7654,22.242],[81.9886,21.9945],[82.0376,21.8832],[82.2012,21.7608],[82.4459,21.7443],[82.3052,21.9079],[82.3342,22.1059],[82.4581,22.2145]]]}},{"type":"Feature","properties":{"key":"chhattisgarh/dakshin-bastar-dantewada","slug":"dakshin-bastar-dantewada","name":"Dakshin Bastar Dantewada","state":"chhattisgarh"},"geometry":{"type":"Polygon","coordinates":[[[81.1292,19.256],[81.2103,19.1832],[81.2363,18.9673],[81.1598,18.691],[81.1828,18.5411],[81.3693,18.4325],[81.5696,18.7405],[81.6736,18.6525],[81.5559,18.9123],[81.5024,19.2038],[81.3754,19.3055],[81.3433,19.3193],[81.1292,19.256]]]}},{"type":"Feature","properties":{"key":"chhattisgarh/dhamtari","slug":"dhamtari","name":"Dhamtari","state":"chhattisgarh"},"geometry":{"type":"Polygon","coordinates":[[[81.8143,20.1675],[81.8755,20.052],[82.0177,20.0493],[82.1079,20.2912],[81.981,20.7243],[81.8663,20.9621],[81.6125,21.0226],[81.4718,20.87],[81.5161,20.7133],[81.4106,20.5538],[81.692,20.4809],[81.7944,20.327],[81.8143,20.1675]]]}},{"type":"Feature","properties":{"key":"chhattisgarh/durg","slug":"durg","name":"Durg","state":"chhattisgarh"},"geometry":{"type":"Polygon","coordinates":[[[81.5543,21.3319],[81.3556,21.5436],[81.2042,21.5175],[81.1552,21.0762],[81.4198,21.0061],[81.4718,20.87],[81.6125,21.0226],[81.5543,21.3319]]]}},{"type":"Feature","properties":{"key":"chhattisgarh/gariaband","slug":"gariaband","name":"Gariaband","state":"chhattisgarh"},"geometry":{"type":"Polygon","coordinates":[[[81.9886,21.0831],[81.8663,20.9621],[81.981,20.7243],[82.1079,20.2912],[82.0177,20.0493],[82.4459,19.9104],[82.5942,19.7757],[82.6966,19.8307],[82.7181,19.9888],[82.3985,20.0561],[82.4382,20.4342],[82.3388,20.8741],[82.1614,21.0157],[81.9886,21.0831]]]}},{"type":"Feature","properties":{"key":"chhattisgarh/janjgir-champa","slug":"janjgir-champa","name":"Janjgir Champa","state":"chhattisgarh"},"geometry":{"type":"Polygon","coordinates":[[[82.9367,22.1224],[82.8618,22.1719],[82.6691,22.0811],[82.5942,22.2626],[82.4581,22.2145],[82.3342,22.1059],[82.3052,21.9079],[82.4459,21.7443],[82.6615,21.71],[82.949,21.7237],[83.264,21.7155],[83.1875,21.9272],[83.004,21.9657],[82.9367,22.1224]]]}},{"type":"Feature","properties":{"key":"chhattisgarh/jashpur","slug":"jashpur","name":"Jashpur","state":"chhattisgarh"},"geometry":{"type":"Polygon","coordinates":[[[84.0118,22.5279],[84.0836,22.6379],[84.2931,22.7726],[84.3742,22.9789],[84.1784,22.9802],[84.0377,23.1713],[83.7915,23.2511],[83.5545,23.1699],[83.5041,22.9514],[83.6463,22.8263],[83.6295,22.7121],[83.4093,22.6407],[83.4001,22.5541],[83.738,22.3781],[83.8023,22.2942],[84.0102,22.3712],[84.0118,22.5279]]]}},{"type":"Feature","properties":{"key":"chhattisgarh/kabeerdham","slug":"kabeerdham","name":"Kabeerdham","state":"chhattisgarh"},"geometry":{"type":"Polygon","coordinates":[[[81.4748,22.4894],[81.1935,22.4908],[81.0451,22.2406],[80.9075,22.11],[80.8463,21.8351],[80.9993,21.7278],[81.172,21.7045],[81.4549,21.9134],[81.5008,22.0042],[81.5559,22.3437],[81.4748,22.4894]]]}},{"type":"Feature","properties":{"key":"chhattisgarh/kondagaon","slug":"kondagaon","name":"Kondagaon","state":"chhattisgarh"},"geometry":{"type":"Polygon","coordinates":[[[81.3739,19.7798],[81.4855,19.6877],[81.3433,19.3193],[81.3754,19.3055],[81.536,19.223],[81.8632,19.5516],[82.0284,19.5076],[82.0651,19.7908],[81.8694,19.9022],[81.8755,20.052],[81.8143,20.1675],[81.5849,20.195],[81.2913,20.0218],[81.406,19.8802],[81.3739,19.7798]]]}},{"type":"Feature","properties":{"key":"chhattisgarh/korba","slug":"korba","name":"Korba","state":"chhattisgarh"},"geometry":{"type":"Polygon","coordinates":[[[82.9367,22.1224],[83.1141,22.4221],[83.1111,22.6709],[83.0132,22.6393],[82.7578,22.7974],[82.559,22.8565],[82.5728,22.961],[82.3847,22.9995],[82.2165,22.9445],[82.1339,22.8537],[82.1737,22.6709],[82.1385,22.4551],[82.2043,22.3121],[82.3511,22.3272],[82.4581,22.2145],[82.5942,22.2626],[82.6691,22.0811],[82.8618,22.1719],[82.9367,22.1224]]]}},{"type":"Feature","properties":{"key":"chhattisgarh/koriya","slug":"koriya","name":"Koriya","state":"chhattisgarh"},"geometry":{"type":"Polygon","coordinates":[[[82.2165,22.9445],[82.3847,22.9995],[82.5728,22.961],[82.5774,23.1273],[82.7441,23.2689],[82.582,23.5453],[82.6018,23.6759],[82.4979,23.7845],[82.2088,23.8532],[81.9214,23.8711],[81.8097,23.8078],[81.6033,23.8848],[81.6966,23.7212],[81.6109,23.5123],[81.9168,23.5343],[81.9856,23.4146],[82.1997,23.3143],[82.1232,23.104],[82.2165,22.9445]]]}},{"type":"Feature","properties":{"key":"chhattisgarh/mahasamund","slug":"mahasamund","name":"Mahasamund","state":"chhattisgarh"},"geometry":{"type":"Polygon","coordinates":[[[83.2686,21.3773],[82.9337,21.4969],[82.6905,21.4845],[82.6966,21.3305],[82.4719,21.3278],[82.3893,21.2618],[82.1935,21.3786],[82.0284,21.2329],[81.9886,21.0831],[82.1614,21.0157],[82.3388,20.8741],[82.4596,20.826],[82.6385,21.0886],[82.6401,21.1546],[82.9658,21.1752],[83.1921,21.1394],[83.2686,21.3773]]]}},{"type":"Feature","properties":{"key":"chhattisgarh/mungeli","slug":"mungeli","name":"Mungeli","state":"chhattisgarh"},"geometry":{"type":"Polygon","coordinates":[[[81.5008,22.0042],[81.7531,21.9602],[81.9366,21.8144],[82.0376,21.8832],[81.9886,21.9945],[81.7654,22.242],[81.9764,22.3602],[81.747,22.5912],[81.7287,22.6695],[81.6216,22.5376],[81.4748,22.4894],[81.5559,22.3437],[81.5008,22.0042]]]}},{"type":"Feature","properties":{"key":"chhattisgarh/narayanpur","slug":"narayanpur","name":"Narayanpur","state":"chhattisgarh"},"geometry":{"type":"Polygon","coordinates":[[[80.8524,19.3646],[80.9549,19.2368],[81.1292,19.256],[81.3433,19.3193],[81.4855,19.6877],[81.3739,19.7798],[81.0849,19.7069],[80.8433,19.9475],[80.672,19.7028],[80.8953,19.52],[80.8524,19.3646]]]}},{"type":"Feature","properties":{"key":"chhattisgarh/raigarh","slug":"raigarh","name":"Raigarh","state":"chhattisgarh"},"geometry":{"type":"Polygon","coordinates":[[[83.2686,21.3773],[83.3833,21.6206],[83.4872,21.644],[83.5912,21.8254],[83.5377,22.0454],[83.6279,22.2035],[83.8023,22.2942],[83.738,22.3781],[83.4001,22.5541],[83.4093,22.6407],[83.2181,22.7878],[83.1111,22.6709],[83.1141,22.4221],[82.9367,22.1224],[83.004,21.9657],[83.1875,21.9272],[83.264,21.7155],[82.949,21.7237],[82.9337,21.4969],[83.2686,21.3773]]]}},{"type":"Feature","properties":{"key":"chhattisgarh/raipur","slug":"raipur","name":"Raipur","state":"chhattisgarh"},"geometry":{"type":"Polygon","coordinates":[[[82.1935,21.3786],[81.9305,21.4927],[81.9015,21.6],[81.695,21.6013],[81.5543,21.3319],[81.6125,21.0226],[81.8663,20.9621],[81.9886,21.0831],[82.0284,21.2329],[82.1935,21.3786]]]}},{"type":"Feature","properties":{"key":"chhattisgarh/rajnandgaon","slug":"rajnandgaon","name":"Rajnandgaon","state":"chhattisgarh"},"geometry":{"type":"Polygon","coordinates":[[[80.5619,20.8232],[80.6261,20.3324],[80.3952,20.2445],[80.5451,20.1001],[80.6537,20.2266],[80.8295,20.3091],[80.9916,20.4589],[80.9213,20.782],[80.9534,21.0033],[81.1552,21.0762],[81.2042,21.5175],[81.172,21.7045],[80.9993,21.7278],[80.8463,21.8351],[80.7148,21.6618],[80.7378,21.4735],[80.6613,21.3333],[80.464,21.1752],[80.464,20.9291],[80.5619,20.8232]]]}},{"type":"Feature","properties":{"key":"chhattisgarh/sukma","slug":"sukma","name":"Sukma","state":"chhattisgarh"},"geometry":{"type":"Polygon","coordinates":[[[81.8999,18.6607],[81.6736,18.6525],[81.5696,18.7405],[81.3693,18.4325],[81.1828,18.5411],[81.0222,18.4655],[81.0757,18.192],[80.9794,18.1658],[81.0161,17.7947],[81.0849,17.7974],[81.1659,17.8579],[81.3968,17.818],[81.4825,17.9775],[81.5299,18.2401],[81.9106,18.57],[81.8999,18.6607]]]}},{"type":"Feature","properties":{"key":"chhattisgarh/surajpur","slug":"surajpur","name":"Surajpur","state":"chhattisgarh"},"geometry":{"type":"Polygon","coordinates":[[[82.4979,23.7845],[82.6018,23.6759],[82.582,23.5453],[82.7441,23.2689],[82.5774,23.1273],[82.5728,22.961],[82.559,22.8565],[82.7578,22.7974],[82.8526,22.9871],[83.2456,23.2318],[83.2074,23.3775],[83.3481,23.4696],[83.1982,23.6855],[83.0652,23.7693],[82.7823,23.8175],[82.6936,23.9192],[82.4979,23.7845]]]}},{"type":"Feature","properties":{"key":"chhattisgarh/surguja","slug":"surguja","name":"Surguja","state":"chhattisgarh"},"geometry":{"type":"Polygon","coordinates":[[[83.4093,22.6407],[83.6295,22.7121],[83.6463,22.8263],[83.5041,22.9514],[83.5545,23.1699],[83.3924,23.2703],[83.2456,23.2318],[82.8526,22.9871],[82.7578,22.7974],[83.0132,22.6393],[83.1111,22.6709],[83.2181,22.7878],[83.4093,22.6407]]]}},{"type":"Feature","properties":{"key":"chhattisgarh/uttar-bastar-kanker","slug":"uttar-bastar-kanker","name":"Uttar Bastar Kanker","state":"chhattisgarh"},"geometry":{"type":"Polygon","coordinates":[[[80.672,19.7028],[80.8433,19.9475],[81.0849,19.7069],[81.3739,19.7798],[81.406,19.8802],[81.2913,20.0218],[81.5849,20.195],[81.8143,20.1675],[81.7944,20.327],[81.692,20.4809],[81.4106,20.5538],[81.325,20.5634],[81.1491,20.3764],[80.9916,20.4589],[80.8295,20.3091],[80.6537,20.2266],[80.5451,20.1001],[80.4686,19.8265],[80.672,19.7028]]]}}]}