{"type":"FeatureCollection","features":[{"type":"Feature","properties":{"key":"dadra-and-nagar-haveli-and-daman-and-diu/dadra-and-nagar-haveli","slug":"dadra-and-nagar-haveli","name":"Dadra and Nagar Haveli","state":"dadra-and-nagar-haveli-and-daman-and-diu"},"geometry":{"type":"Polygon","coordinates":[[[72.9618,20.2087],[72.9649,20.1276],[73.2111,20.1207],[73.0429,20.3256],[72.9618,20.2087]]]}},{"type":"Feature","properties":{"key":"dadra-and-nagar-haveli-and-daman-and-diu/daman","slug":"daman","name":"Daman","state":"dadra-and-nagar-haveli-and-daman-and-diu"},"geometry":{"type":"Polygon","coordinates":[[[72.8869,20.4617],[72.8364,20.4534],[72.8288,20.3682],[72.8869,20.4617]]]}},{"type":"Feature","properties":{"key":"dadra-and-nagar-haveli-and-daman-and-diu/diu","slug":"diu","name":"Diu","state":"dadra-and-nagar-haveli-and-daman-and-diu"},"geometry":{"type":"Polygon","coordinates":[[[70.9204,20.7421],[70.977,20.7023],[70.9999,20.7421],[70.9204,20.7421]]]}}]}