{"type":"FeatureCollection","features":[{"type":"Feature","properties":{"key":"goa/north-goa","slug":"north-goa","name":"North Goa","state":"goa"},"geometry":{"type":"Polygon","coordinates":[[[74.1179,15.6514],[73.939,15.7421],[73.6851,15.7284],[73.7662,15.4947],[73.9344,15.4328],[74.0552,15.4081],[74.2509,15.4919],[74.2785,15.5222],[74.1179,15.6514]]]}},{"type":"Feature","properties":{"key":"goa/south-goa","slug":"south-goa","name":"South Goa","state":"goa"},"geometry":{"type":"Polygon","coordinates":[[[73.9344,15.4328],[73.8839,15.3545],[73.9818,15.0548],[74.0858,14.9008],[74.2968,15.041],[74.3228,15.3682],[74.2509,15.4919],[74.0552,15.4081],[73.9344,15.4328]]]}}]}