{"type":"FeatureCollection","features":[{"type":"Feature","properties":{"key":"gujarat/ahmedabad","slug":"ahmedabad","name":"Ahmedabad","state":"gujarat"},"geometry":{"type":"Polygon","coordinates":[[[72.0611,22.1018],[72.2447,21.9945],[72.3762,22.3148],[72.3762,22.4729],[72.5092,22.6104],[72.5214,22.796],[72.838,22.9967],[72.7661,23.0957],[72.4832,23.1438],[72.3364,23.1067],[72.1881,23.1438],[72.1743,23.273],[72.2982,23.4146],[71.9893,23.4889],[71.87,23.3817],[71.9189,23.0655],[72.0566,22.796],[72.0336,22.5073],[71.8624,22.3712],[71.8348,22.2667],[72.0596,22.2475],[72.0611,22.1018]]]}},{"type":"Feature","properties":{"key":"gujarat/amreli","slug":"amreli","name":"Amreli","state":"gujarat"},"geometry":{"type":"Polygon","coordinates":[[[71.3929,21.9808],[71.3302,22.0316],[71.0305,21.8735],[71.0473,21.7553],[70.7935,21.666],[70.9234,21.4625],[70.9433,21.3113],[70.8546,21.1669],[71.006,21.1656],[71.1345,21.0679],[71.2063,20.7957],[71.6773,20.9965],[71.5259,21.1862],[71.6253,21.3278],[71.4785,21.4817],[71.5902,21.688],[71.3929,21.9808]]]}},{"type":"Feature","properties":{"key":"gujarat/anand","slug":"anand","name":"Anand","state":"gujarat"},"geometry":{"type":"Polygon","coordinates":[[[73.2187,22.6283],[73.0031,22.7231],[72.9175,22.5953],[72.7401,22.6462],[72.6529,22.5004],[72.5092,22.6104],[72.3762,22.4729],[72.3762,22.3148],[72.6591,22.2791],[72.9465,22.2928],[73.0475,22.363],[73.2187,22.6283]]]}},{"type":"Feature","properties":{"key":"gujarat/aravalli","slug":"aravalli","name":"Aravalli","state":"gujarat"},"geometry":{"type":"Polygon","coordinates":[[[73.3778,23.9041],[73.2249,23.8559],[73.1255,23.7075],[73.2096,23.6099],[73.1025,23.3239],[73.0169,23.2785],[73.0123,23.1603],[73.1209,23.1864],[73.2723,23.0586],[73.3411,23.2002],[73.5246,23.2854],[73.627,23.449],[73.6561,23.6209],[73.3686,23.8147],[73.3778,23.9041]]]}},{"type":"Feature","properties":{"key":"gujarat/banaskantha","slug":"banaskantha","name":"Banaskantha","state":"gujarat"},"geometry":{"type":"Polygon","coordinates":[[[72.3348,24.6327],[72.3203,24.6176],[72.3049,24.6176],[72.2847,24.6294],[72.1963,24.6237],[72.1947,24.6229],[72.1647,24.6212],[72.0897,24.6587],[71.8512,24.6097],[72.029,24.4465],[72.052,24.2828],[71.684,24.0637],[71.6796,23.9713],[71.6885,23.9707],[71.6936,23.9485],[71.6978,23.9302],[71.6984,23.9302],[71.7173,23.9276],[71.7143,23.8699],[71.7149,23.8696],[71.7616,23.8414],[71.7665,23.8268],[71.7788,23.8447],[71.8121,23.8541],[71.8152,23.855],[71.8173,23.8533],[71.828,23.8444],[71.8581,23.8468],[71.8613,23.847],[71.9382,23.9276],[71.9311,23.9469],[71.9292,23.9521],[71.9255,24.0092],[71.9611,23.9909],[72.1572,24.0944],[72.149,24.1295],[72.1771,24.1182],[72.2037,24.1491],[72.2236,24.1308],[72.2065,24.1141],[72.2063,24.1139],[72.2258,24.0722],[72.2261,24.0722],[72.2558,24.0814],[72.2685,24.059],[72.2704,24.0556],[72.3094,24.0383],[72.3385,24.0377],[72.3398,24.0377],[72.3702,23.9717],[72.5843,23.9359],[72.6507,23.9939],[72.6522,24.0838],[72.6529,24.0832],[72.6702,24.0712],[72.6859,24.0728],[72.7069,24.0916],[72.7144,24.0984],[72.7282,24.0945],[72.7298,24.094],[72.7347,24.0765],[72.7591,24.0801],[72.7703,24.0993],[72.7826,24.102],[72.7827,24.102],[72.8198,24.0486],[72.8206,24.0476],[72.8667,24.0247],[72.8668,24.0247],[72.8986,24.0254],[72.9216,24.0396],[72.9233,24.0407],[72.9567,24.159],[72.9584,24.1602],[72.9919,24.1839],[72.9916,24.2148],[72.9916,24.2234],[72.9991,24.2272],[73.0141,24.2346],[73.0279,24.2738],[73.0275,24.274],[73.0013,24.289],[72.9968,24.3079],[72.9672,24.3132],[72.9595,24.3595],[72.9593,24.361],[72.9589,24.3608],[72.9583,24.3605],[72.9106,24.3371],[72.8911,24.357],[72.8753,24.363],[72.8536,24.3712],[72.8161,24.3647],[72.8059,24.3629],[72.7249,24.3673],[72.6893,24.4117],[72.6833,24.4636],[72.6833,24.4637],[72.682,24.4639],[72.5761,24.4787],[72.5202,24.5002],[72.5003,24.417],[72.5001,24.417],[72.4999,24.417],[72.4572,24.4147],[72.4302,24.48],[72.3886,24.5075],[72.3538,24.5633],[72.3537,24.5636],[72.3536,24.5636],[72.3308,24.5692],[72.3289,24.5523],[72.2948,24.5466],[72.2464,24.5854],[72.2761,24.6073],[72.3136,24.5937],[72.3361,24.5987],[72.3407,24.6109],[72.3473,24.6285],[72.3353,24.6332],[72.3349,24.6327],[72.3348,24.6327]]]}},{"type":"Feature","properties":{"key":"gujarat/bharuch","slug":"bharuch","name":"Bharuch","state":"gujarat"},"geometry":{"type":"Polygon","coordinates":[[[72.867,22.2145],[72.5673,22.1815],[72.5092,21.9437],[72.6224,21.8089],[72.5428,21.7333],[72.7355,21.4749],[72.942,21.512],[73.2509,21.4941],[73.4527,21.5285],[73.5001,21.6811],[73.3044,21.8873],[73.208,21.8241],[72.9053,22.0674],[72.867,22.2145]]]}},{"type":"Feature","properties":{"key":"gujarat/bhavnagar","slug":"bhavnagar","name":"Bhavnagar","state":"gujarat"},"geometry":{"type":"Polygon","coordinates":[[[71.6773,20.9965],[72.1131,21.1985],[72.1086,21.3017],[72.3089,21.6247],[72.1942,21.7498],[72.2447,21.9945],[72.0611,22.1018],[71.9205,22.1306],[71.7354,22.011],[71.5902,21.688],[71.4785,21.4817],[71.6253,21.3278],[71.5259,21.1862],[71.6773,20.9965]]]}},{"type":"Feature","properties":{"key":"gujarat/botad","slug":"botad","name":"Botad","state":"gujarat"},"geometry":{"type":"Polygon","coordinates":[[[71.5902,21.688],[71.7354,22.011],[71.9205,22.1306],[72.0611,22.1018],[72.0596,22.2475],[71.8348,22.2667],[71.8624,22.3712],[71.532,22.3423],[71.4372,22.2612],[71.4999,22.0536],[71.3929,21.9808],[71.5902,21.688]]]}},{"type":"Feature","properties":{"key":"gujarat/chhota-udaipur","slug":"chhota-udaipur","name":"Chhota Udaipur","state":"gujarat"},"geometry":{"type":"Polygon","coordinates":[[[73.5307,22.0509],[73.8549,21.9519],[73.939,21.8735],[74.147,21.9505],[74.095,22.0165],[74.1898,22.3203],[74.0583,22.5499],[73.8029,22.5486],[73.7295,22.5156],[73.731,22.2874],[73.5628,22.33],[73.5307,22.0509]]]}},{"type":"Feature","properties":{"key":"gujarat/dahod","slug":"dahod","name":"Dahod","state":"gujarat"},"geometry":{"type":"Polygon","coordinates":[[[74.3794,22.6352],[74.465,22.8166],[74.3198,23.06],[74.2479,23.1837],[73.9818,23.3377],[73.9023,23.0503],[73.8029,22.5486],[74.0583,22.5499],[74.3794,22.6352]]]}},{"type":"Feature","properties":{"key":"gujarat/dang","slug":"dang","name":"Dang","state":"gujarat"},"geometry":{"type":"MultiPolygon","coordinates":[[[[73.8488,20.9992],[73.8075,21.0088],[73.8488,20.9978],[73.8488,20.9992]]],[[[73.942,20.8397],[73.8885,20.9332],[73.7524,21.0061],[73.5643,21.0102],[73.4955,20.8191],[73.4741,20.7201],[73.7448,20.5648],[73.8381,20.6211],[73.942,20.8397]]]]}},{"type":"Feature","properties":{"key":"gujarat/devbhumi-dwarka","slug":"devbhumi-dwarka","name":"Devbhumi Dwarka","state":"gujarat"},"geometry":{"type":"Polygon","coordinates":[[[69.8148,21.8213],[69.9157,21.9272],[69.7322,22.308],[69.7536,22.418],[69.3407,22.3121],[69.0058,22.4399],[68.9661,22.2337],[69.2169,21.9574],[69.3958,21.8887],[69.5594,21.9409],[69.6557,21.8378],[69.8148,21.8213]]]}},{"type":"Feature","properties":{"key":"gujarat/gandhinagar","slug":"gandhinagar","name":"Gandhinagar","state":"gujarat"},"geometry":{"type":"Polygon","coordinates":[[[72.3364,23.1067],[72.4832,23.1438],[72.7661,23.0957],[72.838,22.9967],[73.0123,23.1603],[73.0169,23.2785],[72.9481,23.2524],[72.734,23.4037],[72.7982,23.5013],[72.6239,23.5562],[72.4129,23.2813],[72.3364,23.1067]]]}},{"type":"Feature","properties":{"key":"gujarat/gir-somnath","slug":"gir-somnath","name":"Gir Somnath","state":"gujarat"},"geometry":{"type":"Polygon","coordinates":[[[70.8546,21.1669],[70.5931,21.281],[70.4005,21.0528],[70.2399,20.9923],[70.4479,20.848],[70.8271,20.6899],[70.9204,20.7421],[70.9999,20.7421],[71.2063,20.7957],[71.1345,21.0679],[71.006,21.1656],[70.8546,21.1669]]]}},{"type":"Feature","properties":{"key":"gujarat/jamnagar","slug":"jamnagar","name":"Jamnagar","state":"gujarat"},"geometry":{"type":"Polygon","coordinates":[[[70.0732,21.7388],[70.3301,22.0509],[70.5488,22.0468],[70.5794,22.2392],[70.4739,22.3093],[70.4662,22.4702],[70.5809,22.6035],[70.6451,22.8634],[70.4968,22.9335],[70.3989,22.9046],[70.1252,22.5527],[69.9753,22.5431],[69.7536,22.418],[69.7322,22.308],[69.9157,21.9272],[69.8148,21.8213],[70.0732,21.7388]]]}},{"type":"Feature","properties":{"key":"gujarat/junagadh","slug":"junagadh","name":"Junagadh","state":"gujarat"},"geometry":{"type":"Polygon","coordinates":[[[70.7935,21.666],[70.4372,21.6591],[70.3041,21.5903],[70.1481,21.6646],[69.9906,21.5794],[69.9448,21.3979],[69.9815,21.2274],[70.2399,20.9923],[70.4005,21.0528],[70.5931,21.281],[70.8546,21.1669],[70.9433,21.3113],[70.9234,21.4625],[70.7935,21.666]]]}},{"type":"Feature","properties":{"key":"gujarat/kheda","slug":"kheda","name":"Kheda","state":"gujarat"},"geometry":{"type":"Polygon","coordinates":[[[73.3503,22.7919],[73.4221,22.9445],[73.2723,23.0586],[73.1209,23.1864],[73.0123,23.1603],[72.838,22.9967],[72.5214,22.796],[72.5092,22.6104],[72.6529,22.5004],[72.7401,22.6462],[72.9175,22.5953],[73.0031,22.7231],[73.2187,22.6283],[73.3503,22.7919]]]}},{"type":"Feature","properties":{"key":"gujarat/kutch","slug":"kutch","name":"Kutch","state":"gujarat"},"geometry":{"type":"Polygon","coordinates":[[[71.1115,24.6753],[70.9861,24.5956],[70.9861,24.366],[70.8057,24.2203],[70.5717,24.2519],[70.5732,24.4223],[70.1099,24.2945],[70.0258,24.1708],[69.7322,24.1708],[69.5946,24.2931],[69.1939,24.2368],[68.9462,24.3027],[68.7642,24.2959],[68.7535,23.9714],[68.3391,23.9659],[68.2091,23.8752],[68.1418,23.6016],[68.3101,23.5782],[68.4003,23.4201],[68.5501,23.3555],[68.6327,23.1699],[69.1312,22.8744],[69.6481,22.796],[70.0809,22.9197],[70.3118,23.2153],[70.6895,23.1177],[71.1222,23.2057],[71.3088,23.1713],[71.6697,23.1424],[71.5336,23.4793],[71.3761,23.6497],[71.0809,23.5989],[71.1008,23.9027],[71.3191,23.9836],[71.3195,23.9838],[71.3148,24.0448],[71.309,24.1201],[71.295,24.3014],[71.3485,24.5172],[71.3483,24.5173],[71.3469,24.5175],[71.2605,24.5336],[71.2599,24.5337],[71.2874,24.6162],[71.188,24.6506],[71.1115,24.6753]]]}},{"type":"Feature","properties":{"key":"gujarat/mahisagar","slug":"mahisagar","name":"Mahisagar","state":"gujarat"},"geometry":{"type":"Polygon","coordinates":[[[73.627,23.449],[73.5246,23.2854],[73.3411,23.2002],[73.2723,23.0586],[73.4221,22.9445],[73.5842,22.9871],[73.6744,23.1026],[73.9023,23.0503],[73.9818,23.3377],[73.9589,23.3803],[73.627,23.449]]]}},{"type":"Feature","properties":{"key":"gujarat/mehsana","slug":"mehsana","name":"Mehsana","state":"gujarat"},"geometry":{"type":"Polygon","coordinates":[[[71.9694,23.526],[71.9893,23.4889],[72.2982,23.4146],[72.1743,23.273],[72.1881,23.1438],[72.3364,23.1067],[72.4129,23.2813],[72.6239,23.5562],[72.7982,23.5013],[72.8349,23.6717],[72.789,23.8326],[72.8181,23.9481],[72.8668,24.0247],[72.8667,24.0247],[72.8206,24.0476],[72.8198,24.0486],[72.7827,24.102],[72.7826,24.102],[72.7703,24.0993],[72.7591,24.0801],[72.7347,24.0765],[72.7298,24.094],[72.7282,24.0945],[72.7069,24.0916],[72.6859,24.0728],[72.6702,24.0712],[72.6529,24.0832],[72.6514,23.9934],[72.5841,23.9357],[72.4863,23.9357],[72.3288,23.8807],[72.2905,23.6195],[72.1835,23.6415],[71.9694,23.526]]]}},{"type":"Feature","properties":{"key":"gujarat/morbi","slug":"morbi","name":"Morbi","state":"gujarat"},"geometry":{"type":"Polygon","coordinates":[[[70.9815,22.4152],[71.0825,22.4028],[71.162,22.6833],[71.347,23.0985],[71.3088,23.1713],[71.1222,23.2057],[70.6895,23.1177],[70.4968,22.9335],[70.6451,22.8634],[70.5809,22.6035],[70.6941,22.4372],[70.9815,22.4152]]]}},{"type":"Feature","properties":{"key":"gujarat/narmada","slug":"narmada","name":"Narmada","state":"gujarat"},"geometry":{"type":"Polygon","coordinates":[[[73.3044,21.8873],[73.5001,21.6811],[73.4527,21.5285],[73.6989,21.3993],[73.9818,21.5216],[73.835,21.5202],[73.939,21.8735],[73.8549,21.9519],[73.5307,22.0509],[73.5032,21.9629],[73.3044,21.8873]]]}},{"type":"Feature","properties":{"key":"gujarat/navsari","slug":"navsari","name":"Navsari","state":"gujarat"},"geometry":{"type":"Polygon","coordinates":[[[73.4068,20.6239],[73.4741,20.7201],[73.4955,20.8191],[73.3166,20.8796],[73.1255,20.8975],[73.0245,21.0198],[72.7508,21.0624],[72.8548,20.7504],[73.0475,20.6995],[73.0735,20.6005],[73.4068,20.6239]]]}},{"type":"Feature","properties":{"key":"gujarat/panchmahal","slug":"panchmahal","name":"Panchmahal","state":"gujarat"},"geometry":{"type":"Polygon","coordinates":[[[73.5628,22.33],[73.731,22.2874],[73.7295,22.5156],[73.8029,22.5486],[73.9023,23.0503],[73.6744,23.1026],[73.5842,22.9871],[73.4221,22.9445],[73.3503,22.7919],[73.4175,22.6613],[73.4206,22.4289],[73.5628,22.33]]]}},{"type":"Feature","properties":{"key":"gujarat/patan","slug":"patan","name":"Patan","state":"gujarat"},"geometry":{"type":"Polygon","coordinates":[[[71.3195,23.9838],[71.3191,23.9836],[71.1008,23.9027],[71.0809,23.5989],[71.3761,23.6497],[71.5336,23.4793],[71.8624,23.471],[71.9694,23.526],[72.1835,23.6415],[72.2905,23.6195],[72.3288,23.8807],[72.4863,23.9357],[72.37,23.9714],[72.3395,24.0374],[72.3385,24.0377],[72.3094,24.0383],[72.2704,24.0556],[72.2685,24.059],[72.2263,24.0718],[72.2261,24.0722],[72.2258,24.0722],[72.2063,24.1139],[72.2065,24.1141],[72.2064,24.1144],[71.9618,23.9907],[71.9311,23.9469],[71.9382,23.9276],[71.8613,23.847],[71.8608,23.8463],[71.8581,23.8468],[71.828,23.8444],[71.8173,23.8533],[71.8121,23.8541],[71.7788,23.8447],[71.7665,23.8268],[71.7616,23.8414],[71.7149,23.8696],[71.714,23.8697],[71.6984,23.9302],[71.6978,23.9302],[71.6936,23.9485],[71.688,23.97],[71.453,23.9667],[71.396,23.9659],[71.3195,23.9838]]]}},{"type":"Feature","properties":{"key":"gujarat/porbandar","slug":"porbandar","name":"Porbandar","state":"gujarat"},"geometry":{"type":"Polygon","coordinates":[[[69.8148,21.8213],[69.6557,21.8378],[69.5594,21.9409],[69.3958,21.8887],[69.3713,21.8296],[69.7077,21.5354],[69.9815,21.2274],[69.9448,21.3979],[69.9906,21.5794],[70.1481,21.6646],[70.0732,21.7388],[69.8148,21.8213]]]}},{"type":"Feature","properties":{"key":"gujarat/rajkot","slug":"rajkot","name":"Rajkot","state":"gujarat"},"geometry":{"type":"Polygon","coordinates":[[[71.3929,21.9808],[71.4999,22.0536],[71.4372,22.2612],[71.2354,22.2764],[71.1589,22.165],[70.9815,22.4152],[70.6941,22.4372],[70.5809,22.6035],[70.4662,22.4702],[70.4739,22.3093],[70.5794,22.2392],[70.5488,22.0468],[70.3301,22.0509],[70.0732,21.7388],[70.1481,21.6646],[70.3041,21.5903],[70.4372,21.6591],[70.7935,21.666],[71.0473,21.7553],[71.0305,21.8735],[71.3302,22.0316],[71.3929,21.9808]]]}},{"type":"Feature","properties":{"key":"gujarat/sabarkantha","slug":"sabarkantha","name":"Sabarkantha","state":"gujarat"},"geometry":{"type":"Polygon","coordinates":[[[72.9589,24.3608],[72.9593,24.361],[72.9595,24.3595],[73.0275,24.274],[73.0279,24.2738],[73.0141,24.2346],[72.9991,24.2272],[72.9916,24.2148],[72.9919,24.1839],[72.9584,24.1602],[72.9573,24.1584],[72.9236,24.0402],[72.9216,24.0396],[72.8986,24.0254],[72.8668,24.0247],[72.8181,23.9481],[72.789,23.8326],[72.8349,23.6717],[72.7982,23.5013],[72.734,23.4037],[72.9481,23.2524],[73.0169,23.2785],[73.1025,23.3239],[73.2096,23.6099],[73.1255,23.7075],[73.2249,23.8559],[73.3778,23.9041],[73.4053,24.0415],[73.2142,24.0773],[73.0674,24.1941],[73.1515,24.355],[73.0016,24.4801],[72.9589,24.3608]]]}},{"type":"Feature","properties":{"key":"gujarat/surat","slug":"surat","name":"Surat","state":"gujarat"},"geometry":{"type":"Polygon","coordinates":[[[72.7355,21.4749],[72.6545,21.3456],[72.6208,21.0996],[72.7508,21.0624],[73.0245,21.0198],[73.1255,20.8975],[73.3166,20.8796],[73.1989,21.0776],[73.3747,21.2247],[73.4542,21.3841],[73.6989,21.3993],[73.4527,21.5285],[73.2509,21.4941],[72.942,21.512],[72.7355,21.4749]]]}},{"type":"Feature","properties":{"key":"gujarat/surendranagar","slug":"surendranagar","name":"Surendranagar","state":"gujarat"},"geometry":{"type":"Polygon","coordinates":[[[71.8624,22.3712],[72.0336,22.5073],[72.0566,22.796],[71.9189,23.0655],[71.87,23.3817],[71.9893,23.4889],[71.9694,23.526],[71.8624,23.471],[71.5336,23.4793],[71.6697,23.1424],[71.3088,23.1713],[71.347,23.0985],[71.162,22.6833],[71.0825,22.4028],[70.9815,22.4152],[71.1589,22.165],[71.2354,22.2764],[71.4372,22.2612],[71.532,22.3423],[71.8624,22.3712]]]}},{"type":"Feature","properties":{"key":"gujarat/tapi","slug":"tapi","name":"Tapi","state":"gujarat"},"geometry":{"type":"Polygon","coordinates":[[[73.8075,21.0088],[73.8151,21.1738],[74.046,21.446],[73.9818,21.5216],[73.6989,21.3993],[73.4542,21.3841],[73.3747,21.2247],[73.1989,21.0776],[73.3166,20.8796],[73.4955,20.8191],[73.5643,21.0102],[73.7524,21.0061],[73.8885,20.9332],[73.8488,20.9978],[73.8075,21.0088]]]}},{"type":"Feature","properties":{"key":"gujarat/vadodara","slug":"vadodara","name":"Vadodara","state":"gujarat"},"geometry":{"type":"Polygon","coordinates":[[[73.5628,22.33],[73.4206,22.4289],[73.4175,22.6613],[73.3503,22.7919],[73.2187,22.6283],[73.0475,22.363],[72.9465,22.2928],[72.867,22.2145],[72.9053,22.0674],[73.208,21.8241],[73.3044,21.8873],[73.5032,21.9629],[73.5307,22.0509],[73.5628,22.33]]]}},{"type":"Feature","properties":{"key":"gujarat/valsad","slug":"valsad","name":"Valsad","state":"gujarat"},"geometry":{"type":"Polygon","coordinates":[[[72.7753,20.1317],[72.9618,20.2087],[73.0429,20.3256],[73.2111,20.1207],[73.2493,20.1221],[73.416,20.2046],[73.4038,20.3861],[73.468,20.496],[73.4068,20.6239],[73.0735,20.6005],[73.0475,20.6995],[72.8548,20.7504],[72.8869,20.4617],[72.8288,20.3682],[72.7401,20.2431],[72.7753,20.1317]]]}},{"type":"Feature","properties":{"key":"gujarat/vav-tharad","slug":"vav-tharad","name":"Vav-Tharad","state":"gujarat"},"geometry":{"type":"Polygon","coordinates":[[[71.6573,24.6399],[71.6555,24.6392],[71.6082,24.6767],[71.4785,24.6794],[71.3776,24.6258],[71.2882,24.6163],[71.288,24.6159],[71.2974,24.5642],[71.2605,24.5336],[71.3469,24.5175],[71.3484,24.5175],[71.3483,24.5173],[71.3485,24.5172],[71.295,24.3014],[71.309,24.1201],[71.3326,24.1163],[71.3337,24.1163],[71.3165,24.0957],[71.3217,24.0523],[71.3148,24.0448],[71.3195,23.9838],[71.396,23.9659],[71.453,23.9667],[71.4425,23.981],[71.6796,23.9713],[71.684,24.0637],[72.052,24.2828],[72.029,24.4465],[71.8512,24.6097],[71.8058,24.6266],[71.8103,24.6561],[71.7921,24.6767],[71.792,24.6767],[71.6573,24.6399]]]}}]}