{"type":"FeatureCollection","features":[{"type":"Feature","properties":{"key":"haryana/ambala","slug":"ambala","name":"Ambala","state":"haryana"},"geometry":{"type":"Polygon","coordinates":[[[77.1228,30.5634],[76.9071,30.4589],[76.7481,30.4286],[76.5615,30.2417],[76.6426,30.1496],[76.8169,30.2183],[77.0647,30.1262],[77.2084,30.4878],[77.1228,30.5634]]]}},{"type":"Feature","properties":{"key":"haryana/bhiwani","slug":"bhiwani","name":"Bhiwani","state":"haryana"},"geometry":{"type":"Polygon","coordinates":[[[75.67,28.5191],[75.8933,28.3899],[75.9055,28.4325],[75.8474,28.5865],[76.1334,28.6868],[76.3261,28.8119],[76.2282,28.9907],[75.9682,29.0635],[75.8321,28.9109],[75.5278,28.9714],[75.4743,28.926],[75.5615,28.6126],[75.67,28.5191]]]}},{"type":"Feature","properties":{"key":"haryana/charkhi-dadri","slug":"charkhi-dadri","name":"Charkhi Dadri","state":"haryana"},"geometry":{"type":"Polygon","coordinates":[[[76.4224,28.702],[76.3261,28.8119],[76.1334,28.6868],[75.8474,28.5865],[75.9055,28.4325],[76.2848,28.4298],[76.2924,28.4682],[76.4224,28.702]]]}},{"type":"Feature","properties":{"key":"haryana/faridabad","slug":"faridabad","name":"Faridabad","state":"haryana"},"geometry":{"type":"Polygon","coordinates":[[[77.1748,28.405],[77.2237,28.2662],[77.5005,28.2057],[77.5051,28.3706],[77.3476,28.5205],[77.1748,28.405]]]}},{"type":"Feature","properties":{"key":"haryana/fatehabad","slug":"fatehabad","name":"Fatehabad","state":"haryana"},"geometry":{"type":"Polygon","coordinates":[[[75.7205,29.8141],[75.5798,29.7399],[75.4605,29.8073],[75.303,29.5598],[75.2205,29.3976],[75.2403,29.2601],[75.3458,29.2835],[75.9636,29.5626],[75.9468,29.7289],[75.7205,29.8141]]]}},{"type":"Feature","properties":{"key":"haryana/gurugram","slug":"gurugram","name":"Gurugram","state":"haryana"},"geometry":{"type":"Polygon","coordinates":[[[76.8842,28.5026],[76.6686,28.3789],[76.6778,28.2634],[76.8582,28.229],[77.1916,28.2084],[77.2237,28.2662],[77.1748,28.405],[77.0065,28.5411],[76.8842,28.5026]]]}},{"type":"Feature","properties":{"key":"haryana/hisar","slug":"hisar","name":"Hisar","state":"haryana"},"geometry":{"type":"Polygon","coordinates":[[[75.5278,28.9714],[75.8321,28.9109],[75.9682,29.0635],[76.2282,28.9907],[76.3016,29.0869],[76.1318,29.3907],[75.9636,29.5626],[75.3458,29.2835],[75.3917,29.0621],[75.5278,28.9714]]]}},{"type":"Feature","properties":{"key":"haryana/jhajjar","slug":"jhajjar","name":"Jhajjar","state":"haryana"},"geometry":{"type":"Polygon","coordinates":[[[76.9423,28.7982],[76.8842,28.8092],[76.4224,28.702],[76.2924,28.4682],[76.6686,28.3789],[76.8842,28.5026],[76.9714,28.6978],[76.9423,28.7982]]]}},{"type":"Feature","properties":{"key":"haryana/jind","slug":"jind","name":"Jind","state":"haryana"},"geometry":{"type":"Polygon","coordinates":[[[75.9468,29.7289],[75.9636,29.5626],[76.1318,29.3907],[76.3016,29.0869],[76.4774,29.0924],[76.5615,29.2807],[76.6762,29.2807],[76.7603,29.4622],[76.5034,29.5158],[76.2389,29.5928],[76.2144,29.8403],[76.0982,29.81],[75.9468,29.7289]]]}},{"type":"Feature","properties":{"key":"haryana/kaithal","slug":"kaithal","name":"Kaithal","state":"haryana"},"geometry":{"type":"Polygon","coordinates":[[[76.2144,29.8403],[76.2389,29.5928],[76.5034,29.5158],[76.6839,29.678],[76.7298,29.8705],[76.4652,29.9131],[76.4667,30.0987],[76.2542,30.0891],[76.2144,29.8403]]]}},{"type":"Feature","properties":{"key":"haryana/karnal","slug":"karnal","name":"Karnal","state":"haryana"},"geometry":{"type":"Polygon","coordinates":[[[77.1197,29.9915],[76.8811,29.8801],[76.7298,29.8705],[76.6839,29.678],[76.5034,29.5158],[76.7603,29.4622],[77.1319,29.4842],[77.1518,29.6877],[77.2267,29.9392],[77.1197,29.9915]]]}},{"type":"Feature","properties":{"key":"haryana/kurukshetra","slug":"kurukshetra","name":"Kurukshetra","state":"haryana"},"geometry":{"type":"Polygon","coordinates":[[[76.4667,30.0987],[76.4652,29.9131],[76.7298,29.8705],[76.8811,29.8801],[77.1197,29.9915],[77.0647,30.1262],[76.8169,30.2183],[76.6426,30.1496],[76.4667,30.0987]]]}},{"type":"Feature","properties":{"key":"haryana/mahendragarh","slug":"mahendragarh","name":"Mahendragarh","state":"haryana"},"geometry":{"type":"Polygon","coordinates":[[[75.9331,27.928],[76.0768,27.8414],[76.2251,27.8331],[76.1594,27.9981],[76.3123,28.1782],[76.3673,28.3225],[76.2848,28.4298],[75.9055,28.4325],[75.8933,28.3899],[76.0554,28.2208],[75.9331,27.928]]]}},{"type":"Feature","properties":{"key":"haryana/nuh","slug":"nuh","name":"Nuh","state":"haryana"},"geometry":{"type":"Polygon","coordinates":[[[76.8582,28.229],[76.8536,28.2208],[76.9698,28.1383],[76.9423,27.8427],[76.9775,27.6544],[77.0448,27.8207],[77.2833,27.7987],[77.3445,27.8496],[77.1579,27.9486],[77.1212,28.1163],[77.1916,28.2084],[76.8582,28.229]]]}},{"type":"Feature","properties":{"key":"haryana/palwal","slug":"palwal","name":"Palwal","state":"haryana"},"geometry":{"type":"Polygon","coordinates":[[[77.5005,28.2057],[77.2237,28.2662],[77.1916,28.2084],[77.1212,28.1163],[77.1579,27.9486],[77.3445,27.8496],[77.5295,27.9266],[77.476,28.0847],[77.5005,28.2057]]]}},{"type":"Feature","properties":{"key":"haryana/panchkula","slug":"panchkula","name":"Panchkula","state":"haryana"},"geometry":{"type":"Polygon","coordinates":[[[76.7772,30.9043],[76.8383,30.7545],[76.8276,30.6816],[76.9255,30.6101],[76.9071,30.4589],[77.1228,30.5634],[77.1671,30.6844],[77.0249,30.749],[76.9163,30.9002],[76.7772,30.9043]]]}},{"type":"Feature","properties":{"key":"haryana/panipat","slug":"panipat","name":"Panipat","state":"haryana"},"geometry":{"type":"Polygon","coordinates":[[[76.7603,29.4622],[76.6762,29.2807],[76.8108,29.2175],[77.1426,29.1666],[77.1549,29.2972],[77.1319,29.4842],[76.7603,29.4622]]]}},{"type":"Feature","properties":{"key":"haryana/rewari","slug":"rewari","name":"Rewari","state":"haryana"},"geometry":{"type":"Polygon","coordinates":[[[76.2924,28.4682],[76.2848,28.4298],[76.3673,28.3225],[76.3123,28.1782],[76.5432,28.0338],[76.8536,28.2208],[76.8582,28.229],[76.6778,28.2634],[76.6686,28.3789],[76.2924,28.4682]]]}},{"type":"Feature","properties":{"key":"haryana/rohtak","slug":"rohtak","name":"Rohtak","state":"haryana"},"geometry":{"type":"Polygon","coordinates":[[[76.8842,28.8092],[76.7359,29.0071],[76.4774,29.0924],[76.3016,29.0869],[76.2282,28.9907],[76.3261,28.8119],[76.4224,28.702],[76.8842,28.8092]]]}},{"type":"Feature","properties":{"key":"haryana/sirsa","slug":"sirsa","name":"Sirsa","state":"haryana"},"geometry":{"type":"Polygon","coordinates":[[[74.5262,29.9406],[74.6164,29.7523],[74.5751,29.5639],[74.6027,29.3646],[74.9376,29.3618],[75.0813,29.2285],[75.2403,29.2601],[75.2205,29.3976],[75.303,29.5598],[75.1685,29.667],[75.1914,29.8444],[74.9972,29.8677],[74.8122,29.9928],[74.7051,29.975],[74.5262,29.9406]]]}},{"type":"Feature","properties":{"key":"haryana/sonipat","slug":"sonipat","name":"Sonipat","state":"haryana"},"geometry":{"type":"Polygon","coordinates":[[[77.216,28.8532],[77.1426,29.1666],[76.8108,29.2175],[76.6762,29.2807],[76.5615,29.2807],[76.4774,29.0924],[76.7359,29.0071],[76.8842,28.8092],[76.9423,28.7982],[77.216,28.8532]]]}},{"type":"Feature","properties":{"key":"haryana/yamunanagar","slug":"yamunanagar","name":"Yamunanagar","state":"haryana"},"geometry":{"type":"Polygon","coordinates":[[[77.2084,30.4878],[77.0647,30.1262],[77.1197,29.9915],[77.2267,29.9392],[77.583,30.3077],[77.58,30.3792],[77.2084,30.4878]]]}}]}