{"type":"FeatureCollection","features":[{"type":"Feature","properties":{"key":"himachal-pradesh/bilaspur","slug":"bilaspur","name":"Bilaspur","state":"himachal-pradesh"},"geometry":{"type":"Polygon","coordinates":[[[76.7313,31.5821],[76.4622,31.4872],[76.3918,31.413],[76.4973,31.27],[76.6457,31.2095],[76.8399,31.2315],[76.8766,31.3511],[76.7313,31.5821]]]}},{"type":"Feature","properties":{"key":"himachal-pradesh/chamba","slug":"chamba","name":"Chamba","state":"himachal-pradesh"},"geometry":{"type":"Polygon","coordinates":[[[76.2221,33.0214],[75.9545,32.873],[75.8015,32.8853],[75.9239,32.7479],[75.8367,32.5114],[75.9315,32.3945],[76.1624,32.2997],[76.2221,32.3945],[76.4285,32.2612],[76.6655,32.176],[76.8659,32.4633],[76.5952,32.6365],[76.4912,32.8015],[76.6793,32.8468],[76.7863,32.9527],[76.7481,33.1795],[76.4102,33.1864],[76.2221,33.0214]]]}},{"type":"Feature","properties":{"key":"himachal-pradesh/hamirpur","slug":"hamirpur","name":"Hamirpur","state":"himachal-pradesh"},"geometry":{"type":"Polygon","coordinates":[[[76.3123,31.7223],[76.4622,31.4872],[76.7313,31.5821],[76.6395,31.8721],[76.557,31.8859],[76.3123,31.7223]]]}},{"type":"Feature","properties":{"key":"himachal-pradesh/kangra","slug":"kangra","name":"Kangra","state":"himachal-pradesh"},"geometry":{"type":"Polygon","coordinates":[[[76.8659,32.4633],[76.6655,32.176],[76.4285,32.2612],[76.2221,32.3945],[76.1624,32.2997],[75.9315,32.3945],[75.6379,32.2516],[75.6012,32.0935],[75.5982,32.0825],[75.9101,31.9505],[75.9606,31.857],[76.3123,31.7223],[76.557,31.8859],[76.6395,31.8721],[76.6625,32.0137],[76.9362,32.0619],[77.0738,32.3987],[76.8659,32.4633]]]}},{"type":"Feature","properties":{"key":"himachal-pradesh/kinnaur","slug":"kinnaur","name":"Kinnaur","state":"himachal-pradesh"},"geometry":{"type":"Polygon","coordinates":[[[77.8629,31.7814],[77.7482,31.714],[77.8399,31.5065],[77.9653,31.402],[78.1014,31.4198],[78.3109,31.2837],[78.4837,31.1985],[78.8095,31.1985],[78.8813,31.2837],[78.7498,31.3662],[78.7345,31.5367],[78.8462,31.6082],[78.7055,31.7745],[78.7819,31.9931],[78.6734,32.0784],[78.4486,32.0605],[78.4195,31.9354],[78.2008,31.9326],[78.028,31.7594],[77.8629,31.7814]]]}},{"type":"Feature","properties":{"key":"himachal-pradesh/kullu","slug":"kullu","name":"Kullu","state":"himachal-pradesh"},"geometry":{"type":"Polygon","coordinates":[[[77.0738,32.3987],[76.9362,32.0619],[77.0585,31.8598],[77.1778,31.8419],[77.3032,31.6687],[77.3827,31.3607],[77.6289,31.3896],[77.7482,31.714],[77.8629,31.7814],[77.7436,32.0907],[77.1518,32.4152],[77.0738,32.3987]]]}},{"type":"Feature","properties":{"key":"himachal-pradesh/lahaul-and-spiti","slug":"lahaul-and-spiti","name":"Lahaul and Spiti","state":"himachal-pradesh"},"geometry":{"type":"Polygon","coordinates":[[[77.2741,32.8743],[77.1503,32.9774],[76.9331,33.0283],[76.7726,33.251],[76.7481,33.1795],[76.7863,32.9527],[76.6793,32.8468],[76.4912,32.8015],[76.5952,32.6365],[76.8659,32.4633],[77.0738,32.3987],[77.1518,32.4152],[77.7436,32.0907],[77.8629,31.7814],[78.028,31.7594],[78.2008,31.9326],[78.4195,31.9354],[78.4486,32.0605],[78.6734,32.0784],[78.4822,32.2791],[78.5342,32.4138],[78.3981,32.5251],[78.3874,32.7575],[78.0158,32.62],[77.7406,32.9692],[77.3384,32.8166],[77.2741,32.8743]]]}},{"type":"Feature","properties":{"key":"himachal-pradesh/mandi","slug":"mandi","name":"Mandi","state":"himachal-pradesh"},"geometry":{"type":"Polygon","coordinates":[[[76.6395,31.8721],[76.7313,31.5821],[76.8766,31.3511],[77.031,31.2727],[77.1549,31.2301],[77.3827,31.3607],[77.3032,31.6687],[77.1778,31.8419],[77.0585,31.8598],[76.9362,32.0619],[76.6625,32.0137],[76.6395,31.8721]]]}},{"type":"Feature","properties":{"key":"himachal-pradesh/shimla","slug":"shimla","name":"Shimla","state":"himachal-pradesh"},"geometry":{"type":"Polygon","coordinates":[[[77.3827,31.3607],[77.1549,31.2301],[77.031,31.2727],[77.0478,31.1146],[77.2466,30.9194],[77.3797,31.0212],[77.4928,30.7957],[77.7039,30.7641],[77.8063,30.8534],[77.8292,31.0294],[77.9669,31.1738],[78.3109,31.2837],[78.1014,31.4198],[77.9653,31.402],[77.8399,31.5065],[77.7482,31.714],[77.6289,31.3896],[77.3827,31.3607]]]}},{"type":"Feature","properties":{"key":"himachal-pradesh/sirmaur","slug":"sirmaur","name":"Sirmaur","state":"himachal-pradesh"},"geometry":{"type":"Polygon","coordinates":[[[77.2466,30.9194],[77.0249,30.749],[77.1671,30.6844],[77.1228,30.5634],[77.2084,30.4878],[77.58,30.3792],[77.5754,30.4012],[77.8155,30.5056],[77.7039,30.7641],[77.4928,30.7957],[77.3797,31.0212],[77.2466,30.9194]]]}},{"type":"Feature","properties":{"key":"himachal-pradesh/solan","slug":"solan","name":"Solan","state":"himachal-pradesh"},"geometry":{"type":"Polygon","coordinates":[[[76.8766,31.3511],[76.8399,31.2315],[76.6457,31.2095],[76.6242,30.9992],[76.7328,30.9373],[76.7772,30.9043],[76.9163,30.9002],[77.0249,30.749],[77.2466,30.9194],[77.0478,31.1146],[77.031,31.2727],[76.8766,31.3511]]]}},{"type":"Feature","properties":{"key":"himachal-pradesh/una","slug":"una","name":"Una","state":"himachal-pradesh"},"geometry":{"type":"Polygon","coordinates":[[[75.9606,31.857],[76.0172,31.6316],[76.2007,31.303],[76.2894,31.3071],[76.3918,31.413],[76.4622,31.4872],[76.3123,31.7223],[75.9606,31.857]]]}}]}