{"type":"FeatureCollection","features":[{"type":"Feature","properties":{"key":"jammu-and-kashmir/anantnag","slug":"anantnag","name":"Anantnag","state":"jammu-and-kashmir"},"geometry":{"type":"Polygon","coordinates":[[[75.4972,34.234],[75.2694,34.256],[75.1058,34.1666],[75.1501,34.0855],[75.1929,33.904],[75.0431,33.8133],[75.0308,33.7803],[75.1516,33.5562],[75.3825,33.3637],[75.4728,33.3995],[75.5217,33.7157],[75.3948,33.9027],[75.5951,34.1982],[75.4972,34.234]]]}},{"type":"Feature","properties":{"key":"jammu-and-kashmir/bandipora","slug":"bandipora","name":"Bandipora","state":"jammu-and-kashmir"},"geometry":{"type":"Polygon","coordinates":[[[74.6011,34.7371],[74.5476,34.5543],[74.4299,34.4333],[74.5507,34.2422],[74.6852,34.1776],[74.7005,34.1845],[74.7449,34.3137],[75.0171,34.4361],[75.1486,34.3453],[75.3749,34.3879],[75.2388,34.6285],[74.7326,34.6711],[74.6011,34.7371]]]}},{"type":"Feature","properties":{"key":"jammu-and-kashmir/baramulla","slug":"baramulla","name":"Baramulla","state":"jammu-and-kashmir"},"geometry":{"type":"Polygon","coordinates":[[[73.994,34.2573],[73.8946,34.0649],[74.2464,34.0209],[74.4161,33.9081],[74.6929,34.1377],[74.6852,34.1776],[74.5507,34.2422],[74.4299,34.4333],[74.3473,34.3467],[73.994,34.2573]]]}},{"type":"Feature","properties":{"key":"jammu-and-kashmir/budgam","slug":"budgam","name":"Budgam","state":"jammu-and-kashmir"},"geometry":{"type":"Polygon","coordinates":[[[74.4161,33.9081],[74.543,33.6813],[74.5675,33.6923],[74.7158,33.805],[74.9146,34.0209],[74.6929,34.1377],[74.4161,33.9081]]]}},{"type":"Feature","properties":{"key":"jammu-and-kashmir/doda","slug":"doda","name":"Doda","state":"jammu-and-kashmir"},"geometry":{"type":"Polygon","coordinates":[[[75.3825,33.3637],[75.3565,33.0695],[75.6823,32.862],[75.8015,32.8853],[75.9545,32.873],[76.2221,33.0214],[76.1456,33.1603],[75.9988,33.0874],[75.6043,33.2565],[75.4728,33.3995],[75.3825,33.3637]]]}},{"type":"Feature","properties":{"key":"jammu-and-kashmir/ganderbal","slug":"ganderbal","name":"Ganderbal","state":"jammu-and-kashmir"},"geometry":{"type":"Polygon","coordinates":[[[75.3749,34.3879],[75.1486,34.3453],[75.0171,34.4361],[74.7449,34.3137],[74.7005,34.1845],[75.1058,34.1666],[75.2694,34.256],[75.4972,34.234],[75.3841,34.3618],[75.3749,34.3879]]]}},{"type":"Feature","properties":{"key":"jammu-and-kashmir/jammu","slug":"jammu","name":"Jammu","state":"jammu-and-kashmir"},"geometry":{"type":"Polygon","coordinates":[[[74.3335,32.9541],[74.4467,32.7891],[74.6592,32.7877],[74.6806,32.4922],[74.8886,32.521],[74.8978,32.6461],[75.092,32.7162],[74.9804,32.9279],[74.7372,33.0599],[74.5705,33.0283],[74.3335,32.9541]]]}},{"type":"Feature","properties":{"key":"jammu-and-kashmir/kathua","slug":"kathua","name":"Kathua","state":"jammu-and-kashmir"},"geometry":{"type":"Polygon","coordinates":[[[75.6823,32.862],[75.2847,32.642],[75.2052,32.4179],[75.3413,32.3464],[75.5125,32.3079],[75.8367,32.5114],[75.9239,32.7479],[75.8015,32.8853],[75.6823,32.862]]]}},{"type":"Feature","properties":{"key":"jammu-and-kashmir/kishtwar","slug":"kishtwar","name":"Kishtwar","state":"jammu-and-kashmir"},"geometry":{"type":"Polygon","coordinates":[[[75.5951,34.1982],[75.3948,33.9027],[75.5217,33.7157],[75.4728,33.3995],[75.6043,33.2565],[75.9988,33.0874],[76.1456,33.1603],[76.2221,33.0214],[76.4102,33.1864],[76.7481,33.1795],[76.7726,33.251],[76.5019,33.5163],[76.3092,33.5713],[76.2649,33.7418],[76.0217,33.9975],[75.8642,33.9783],[75.5951,34.1982]]]}},{"type":"Feature","properties":{"key":"jammu-and-kashmir/kulgam","slug":"kulgam","name":"Kulgam","state":"jammu-and-kashmir"},"geometry":{"type":"Polygon","coordinates":[[[75.0308,33.7803],[74.8703,33.6236],[74.5675,33.6923],[74.543,33.6813],[74.5736,33.5081],[74.6256,33.4957],[75.0232,33.4985],[75.1516,33.5562],[75.0308,33.7803]]]}},{"type":"Feature","properties":{"key":"jammu-and-kashmir/kupwara","slug":"kupwara","name":"Kupwara","state":"jammu-and-kashmir"},"geometry":{"type":"Polygon","coordinates":[[[74.3198,34.7866],[74.1577,34.6835],[73.9772,34.6863],[73.8931,34.4498],[73.994,34.2573],[74.3473,34.3467],[74.4299,34.4333],[74.5476,34.5543],[74.6011,34.7371],[74.3198,34.7866]]]}},{"type":"Feature","properties":{"key":"jammu-and-kashmir/mirpur","slug":"mirpur","name":"Mirpur","state":"jammu-and-kashmir"},"geometry":{"type":"Polygon","coordinates":[[[73.598,33.7129],[73.5643,33.3418],[73.6882,33.0874],[73.9573,32.9871],[74.3825,32.7575],[74.4467,32.7891],[74.3335,32.9541],[74.0017,33.218],[74.1668,33.4119],[74.147,33.5397],[73.9528,33.6222],[73.7035,33.6222],[73.598,33.7129]]]}},{"type":"Feature","properties":{"key":"jammu-and-kashmir/muzaffarabad","slug":"muzaffarabad","name":"Muzaffarabad","state":"jammu-and-kashmir"},"geometry":{"type":"Polygon","coordinates":[[[74.147,35.0973],[73.9635,34.8416],[73.7494,34.7866],[73.6179,34.5859],[73.4466,34.5735],[73.39,34.3742],[73.4879,34.1446],[73.653,34.0635],[73.8946,34.0649],[73.994,34.2573],[73.8931,34.4498],[73.9772,34.6863],[74.1577,34.6835],[74.3198,34.7866],[74.5675,34.8732],[74.4864,35.1097],[74.2525,35.0368],[74.147,35.0973]]]}},{"type":"Feature","properties":{"key":"jammu-and-kashmir/pulwama","slug":"pulwama","name":"Pulwama","state":"jammu-and-kashmir"},"geometry":{"type":"Polygon","coordinates":[[[75.1501,34.0855],[74.9146,34.0209],[74.7158,33.805],[75.0431,33.8133],[75.1929,33.904],[75.1501,34.0855]]]}},{"type":"Feature","properties":{"key":"jammu-and-kashmir/punch","slug":"punch","name":"Punch","state":"jammu-and-kashmir"},"geometry":{"type":"Polygon","coordinates":[[[73.8946,34.0649],[73.653,34.0635],[73.4879,34.1446],[73.5888,33.8834],[73.598,33.7129],[73.7035,33.6222],[73.9528,33.6222],[74.147,33.5397],[74.1668,33.4119],[74.2097,33.5452],[74.4222,33.5672],[74.5736,33.5081],[74.543,33.6813],[74.4161,33.9081],[74.2464,34.0209],[73.8946,34.0649]]]}},{"type":"Feature","properties":{"key":"jammu-and-kashmir/rajouri","slug":"rajouri","name":"Rajouri","state":"jammu-and-kashmir"},"geometry":{"type":"Polygon","coordinates":[[[74.1668,33.4119],[74.0017,33.218],[74.3335,32.9541],[74.5705,33.0283],[74.6914,33.2414],[74.6256,33.4957],[74.5736,33.5081],[74.4222,33.5672],[74.2097,33.5452],[74.1668,33.4119]]]}},{"type":"Feature","properties":{"key":"jammu-and-kashmir/ramban","slug":"ramban","name":"Ramban","state":"jammu-and-kashmir"},"geometry":{"type":"Polygon","coordinates":[[[75.1516,33.5562],[75.0232,33.4985],[75.092,33.1864],[75.3565,33.0695],[75.3825,33.3637],[75.1516,33.5562]]]}},{"type":"Feature","properties":{"key":"jammu-and-kashmir/reasi","slug":"reasi","name":"Reasi","state":"jammu-and-kashmir"},"geometry":{"type":"Polygon","coordinates":[[[74.6256,33.4957],[74.6914,33.2414],[74.5705,33.0283],[74.7372,33.0599],[74.9804,32.9279],[75.092,33.1864],[75.0232,33.4985],[74.6256,33.4957]]]}},{"type":"Feature","properties":{"key":"jammu-and-kashmir/samba","slug":"samba","name":"Samba","state":"jammu-and-kashmir"},"geometry":{"type":"Polygon","coordinates":[[[74.8886,32.521],[74.9467,32.4468],[75.2052,32.4179],[75.2847,32.642],[75.092,32.7162],[74.8978,32.6461],[74.8886,32.521]]]}},{"type":"Feature","properties":{"key":"jammu-and-kashmir/shopiyan","slug":"shopiyan","name":"Shopiyan","state":"jammu-and-kashmir"},"geometry":{"type":"Polygon","coordinates":[[[75.0431,33.8133],[74.7158,33.805],[74.5675,33.6923],[74.8703,33.6236],[75.0308,33.7803],[75.0431,33.8133]]]}},{"type":"Feature","properties":{"key":"jammu-and-kashmir/srinagar","slug":"srinagar","name":"Srinagar","state":"jammu-and-kashmir"},"geometry":{"type":"Polygon","coordinates":[[[74.6852,34.1776],[74.6929,34.1377],[74.9146,34.0209],[75.1501,34.0855],[75.1058,34.1666],[74.7005,34.1845],[74.6852,34.1776]]]}},{"type":"Feature","properties":{"key":"jammu-and-kashmir/udhampur","slug":"udhampur","name":"Udhampur","state":"jammu-and-kashmir"},"geometry":{"type":"Polygon","coordinates":[[[75.092,33.1864],[74.9804,32.9279],[75.092,32.7162],[75.2847,32.642],[75.6823,32.862],[75.3565,33.0695],[75.092,33.1864]]]}}]}