{"type":"FeatureCollection","features":[{"type":"Feature","properties":{"key":"jharkhand/bokaro","slug":"bokaro","name":"Bokaro","state":"jharkhand"},"geometry":{"type":"Polygon","coordinates":[[[85.9141,23.9494],[85.8345,23.8408],[85.6434,23.9549],[85.5822,23.8532],[85.6143,23.6332],[85.755,23.6635],[85.885,23.4834],[86.0395,23.4985],[86.3101,23.4119],[86.486,23.636],[86.2444,23.713],[86.1098,23.8876],[85.9141,23.9494]]]}},{"type":"Feature","properties":{"key":"jharkhand/chatra","slug":"chatra","name":"Chatra","state":"jharkhand"},"geometry":{"type":"Polygon","coordinates":[[[84.4965,24.2876],[84.5821,24.1419],[84.5791,23.9879],[84.9339,23.9412],[84.969,23.7157],[85.0531,23.7116],[85.0241,23.992],[85.2015,23.9563],[85.1602,24.2299],[85.0883,24.3701],[84.8023,24.5309],[84.5852,24.4003],[84.4965,24.2876]]]}},{"type":"Feature","properties":{"key":"jharkhand/deoghar","slug":"deoghar","name":"Deoghar","state":"jharkhand"},"geometry":{"type":"Polygon","coordinates":[[[86.4523,24.3729],[86.5701,24.1419],[86.9539,24.0415],[86.9738,24.1089],[87.0457,24.223],[86.8882,24.4471],[86.9126,24.5474],[86.6114,24.6079],[86.4523,24.3729]]]}},{"type":"Feature","properties":{"key":"jharkhand/dhanbad","slug":"dhanbad","name":"Dhanbad","state":"jharkhand"},"geometry":{"type":"Polygon","coordinates":[[[86.1098,23.8876],[86.2444,23.713],[86.486,23.636],[86.801,23.6992],[86.801,23.8339],[86.4814,24.0223],[86.2933,23.9164],[86.1098,23.8876]]]}},{"type":"Feature","properties":{"key":"jharkhand/dumka","slug":"dumka","name":"Dumka","state":"jharkhand"},"geometry":{"type":"Polygon","coordinates":[[[87.0518,24.6272],[86.9126,24.5474],[86.8882,24.4471],[87.0457,24.223],[86.9738,24.1089],[87.2337,24.025],[87.4402,23.9824],[87.6313,24.1639],[87.639,24.2546],[87.5641,24.5241],[87.4203,24.5145],[87.3072,24.5983],[87.0518,24.6272]]]}},{"type":"Feature","properties":{"key":"jharkhand/east-singhbhum","slug":"east-singhbhum","name":"East Singhbhum","state":"jharkhand"},"geometry":{"type":"Polygon","coordinates":[[[86.7276,22.2159],[86.8453,22.4001],[86.7658,22.576],[86.5594,22.7135],[86.4187,22.7905],[86.4355,22.9266],[86.2413,22.9967],[86.1496,22.631],[86.067,22.5568],[86.7276,22.2159]]]}},{"type":"Feature","properties":{"key":"jharkhand/garhwa","slug":"garhwa","name":"Garhwa","state":"jharkhand"},"geometry":{"type":"Polygon","coordinates":[[[83.5025,24.5255],[83.4001,24.498],[83.4093,24.267],[83.3297,24.102],[83.4322,24.0855],[83.5713,23.8628],[83.7059,23.8202],[83.7747,23.6099],[84.0163,23.6346],[84.0194,23.8023],[83.8649,24.069],[83.9888,24.1062],[83.8175,24.289],[83.8726,24.5323],[83.5025,24.5255]]]}},{"type":"Feature","properties":{"key":"jharkhand/giridih","slug":"giridih","name":"Giridih","state":"jharkhand"},"geometry":{"type":"Polygon","coordinates":[[[86.0547,24.7798],[85.9018,24.766],[85.7734,24.6107],[85.8682,24.5268],[85.8498,24.2739],[85.6816,24.1763],[85.9141,23.9494],[86.1098,23.8876],[86.2933,23.9164],[86.4814,24.0223],[86.5701,24.1419],[86.4523,24.3729],[86.1327,24.6038],[86.0547,24.7798]]]}},{"type":"Feature","properties":{"key":"jharkhand/godda","slug":"godda","name":"Godda","state":"jharkhand"},"geometry":{"type":"Polygon","coordinates":[[[87.4784,25.195],[87.327,25.2238],[87.1756,25.0575],[87.0518,24.6272],[87.3072,24.5983],[87.4203,24.5145],[87.509,24.799],[87.454,24.9393],[87.5212,25.0602],[87.4784,25.195]]]}},{"type":"Feature","properties":{"key":"jharkhand/gumla","slug":"gumla","name":"Gumla","state":"jharkhand"},"geometry":{"type":"Polygon","coordinates":[[[84.0744,23.3335],[84.0377,23.1713],[84.1784,22.9802],[84.3742,22.9789],[84.2931,22.7726],[84.4491,22.8359],[84.8574,22.7204],[84.9797,22.785],[84.943,23.0022],[84.9017,23.3267],[84.7932,23.2785],[84.4415,23.405],[84.3879,23.6044],[84.1922,23.3253],[84.0744,23.3335]]]}},{"type":"Feature","properties":{"key":"jharkhand/hazaribagh","slug":"hazaribagh","name":"Hazaribagh","state":"jharkhand"},"geometry":{"type":"Polygon","coordinates":[[[85.0883,24.3701],[85.1602,24.2299],[85.2015,23.9563],[85.0241,23.992],[85.0531,23.7116],[85.2305,23.6841],[85.4232,23.6841],[85.4262,23.7941],[85.6434,23.9549],[85.8345,23.8408],[85.9141,23.9494],[85.6816,24.1763],[85.8498,24.2739],[85.5165,24.3179],[85.3314,24.5103],[85.0883,24.3701]]]}},{"type":"Feature","properties":{"key":"jharkhand/jamtara","slug":"jamtara","name":"Jamtara","state":"jharkhand"},"geometry":{"type":"Polygon","coordinates":[[[86.4814,24.0223],[86.801,23.8339],[86.9157,23.8821],[87.0854,23.812],[87.2949,23.9013],[87.2337,24.025],[86.9738,24.1089],[86.9539,24.0415],[86.5701,24.1419],[86.4814,24.0223]]]}},{"type":"Feature","properties":{"key":"jharkhand/khunti","slug":"khunti","name":"Khunti","state":"jharkhand"},"geometry":{"type":"Polygon","coordinates":[[[84.943,23.0022],[84.9797,22.785],[85.073,22.5678],[85.1571,22.8318],[85.3406,22.8826],[85.5165,22.807],[85.5822,22.895],[85.6143,23.115],[85.0883,23.2428],[84.943,23.0022]]]}},{"type":"Feature","properties":{"key":"jharkhand/koderma","slug":"koderma","name":"Koderma","state":"jharkhand"},"geometry":{"type":"Polygon","coordinates":[[[85.3743,24.5543],[85.3314,24.5103],[85.5165,24.3179],[85.8498,24.2739],[85.8682,24.5268],[85.7734,24.6107],[85.9018,24.766],[85.7382,24.8196],[85.677,24.5914],[85.3743,24.5543]]]}},{"type":"Feature","properties":{"key":"jharkhand/latehar","slug":"latehar","name":"Latehar","state":"jharkhand"},"geometry":{"type":"Polygon","coordinates":[[[84.0194,23.8023],[84.0163,23.6346],[83.9628,23.3858],[84.0744,23.3335],[84.1922,23.3253],[84.3879,23.6044],[84.6418,23.669],[84.8849,23.559],[84.969,23.7157],[84.9339,23.9412],[84.5791,23.9879],[84.3344,23.9096],[84.1371,23.9041],[84.0194,23.8023]]]}},{"type":"Feature","properties":{"key":"jharkhand/lohardaga","slug":"lohardaga","name":"Lohardaga","state":"jharkhand"},"geometry":{"type":"Polygon","coordinates":[[[84.3879,23.6044],[84.4415,23.405],[84.7932,23.2785],[84.9017,23.3267],[84.8849,23.559],[84.6418,23.669],[84.3879,23.6044]]]}},{"type":"Feature","properties":{"key":"jharkhand/pakur","slug":"pakur","name":"Pakur","state":"jharkhand"},"geometry":{"type":"Polygon","coordinates":[[[87.509,24.799],[87.4203,24.5145],[87.5641,24.5241],[87.639,24.2546],[87.8011,24.3825],[87.8898,24.5653],[87.8393,24.7454],[87.509,24.799]]]}},{"type":"Feature","properties":{"key":"jharkhand/palamu","slug":"palamu","name":"Palamu","state":"jharkhand"},"geometry":{"type":"Polygon","coordinates":[[[83.8726,24.5323],[83.8175,24.289],[83.9888,24.1062],[83.8649,24.069],[84.0194,23.8023],[84.1371,23.9041],[84.3344,23.9096],[84.5791,23.9879],[84.5821,24.1419],[84.4965,24.2876],[84.3268,24.4897],[84.0928,24.5337],[84.0087,24.6423],[83.8726,24.5323]]]}},{"type":"Feature","properties":{"key":"jharkhand/ramgarh","slug":"ramgarh","name":"Ramgarh","state":"jharkhand"},"geometry":{"type":"Polygon","coordinates":[[[85.6434,23.9549],[85.4262,23.7941],[85.4232,23.6841],[85.2305,23.6841],[85.2672,23.5782],[85.5287,23.5617],[85.6006,23.4889],[85.859,23.4298],[85.885,23.4834],[85.755,23.6635],[85.6143,23.6332],[85.5822,23.8532],[85.6434,23.9549]]]}},{"type":"Feature","properties":{"key":"jharkhand/ranchi","slug":"ranchi","name":"Ranchi","state":"jharkhand"},"geometry":{"type":"Polygon","coordinates":[[[84.969,23.7157],[84.8849,23.559],[84.9017,23.3267],[84.943,23.0022],[85.0883,23.2428],[85.6143,23.115],[85.5822,22.895],[85.729,22.9445],[85.885,23.1672],[85.8193,23.2689],[85.859,23.4298],[85.6006,23.4889],[85.5287,23.5617],[85.2672,23.5782],[85.2305,23.6841],[85.0531,23.7116],[84.969,23.7157]]]}},{"type":"Feature","properties":{"key":"jharkhand/sahibganj","slug":"sahibganj","name":"Sahibganj","state":"jharkhand"},"geometry":{"type":"Polygon","coordinates":[[[87.5518,25.3311],[87.4784,25.195],[87.5212,25.0602],[87.454,24.9393],[87.509,24.799],[87.8393,24.7454],[87.8913,24.8554],[87.954,24.9736],[87.795,25.0877],[87.7109,25.2582],[87.5518,25.3311]]]}},{"type":"Feature","properties":{"key":"jharkhand/saraikela-kharsawan","slug":"saraikela-kharsawan","name":"Saraikela-Kharsawan","state":"jharkhand"},"geometry":{"type":"Polygon","coordinates":[[[86.067,22.5568],[86.1496,22.631],[86.2413,22.9967],[86.044,23.1452],[85.885,23.1672],[85.729,22.9445],[85.5822,22.895],[85.5165,22.807],[85.6465,22.851],[85.7244,22.6847],[85.8651,22.7121],[85.963,22.4853],[86.067,22.5568]]]}},{"type":"Feature","properties":{"key":"jharkhand/simdega","slug":"simdega","name":"Simdega","state":"jharkhand"},"geometry":{"type":"Polygon","coordinates":[[[85.0699,22.4908],[85.073,22.5678],[84.9797,22.785],[84.8574,22.7204],[84.4491,22.8359],[84.2931,22.7726],[84.0836,22.6379],[84.0118,22.5279],[84.1968,22.3781],[84.4292,22.352],[84.5347,22.4276],[84.7503,22.4193],[85.0699,22.4908]]]}},{"type":"Feature","properties":{"key":"jharkhand/west-singhbhum","slug":"west-singhbhum","name":"West Singhbhum","state":"jharkhand"},"geometry":{"type":"Polygon","coordinates":[[[85.963,22.4853],[85.8651,22.7121],[85.7244,22.6847],[85.6465,22.851],[85.5165,22.807],[85.3406,22.8826],[85.1571,22.8318],[85.073,22.5678],[85.0699,22.4908],[85.0287,22.1224],[85.2382,22.0096],[85.3972,22.1636],[85.6832,22.0578],[85.8972,21.9835],[86.0089,22.1155],[86.0287,22.3341],[85.963,22.4853]]]}}]}