{"type":"FeatureCollection","features":[{"type":"Feature","properties":{"key":"karnataka/bagalkote","slug":"bagalkote","name":"Bagalkote","state":"karnataka"},"geometry":{"type":"Polygon","coordinates":[[[75.4514,15.8865],[75.5293,15.8343],[75.8474,15.8384],[75.8765,15.9319],[76.2817,15.903],[76.2389,16.1656],[75.6333,16.4433],[75.3841,16.7636],[75.2587,16.6069],[74.988,16.4529],[75.0431,16.3182],[75.2342,16.2591],[75.2755,16.1202],[75.4192,16.0528],[75.4514,15.8865]]]}},{"type":"Feature","properties":{"key":"karnataka/ballari","slug":"ballari","name":"Ballari","state":"karnataka"},"geometry":{"type":"Polygon","coordinates":[[[76.8108,15.5469],[76.4927,15.3448],[76.3643,15.3283],[75.9514,15.1386],[75.7006,14.9489],[75.6639,14.8073],[75.7587,14.7344],[75.8015,14.8692],[75.9667,14.909],[76.1288,14.8692],[76.1838,14.7001],[76.3337,14.6877],[76.5111,14.5599],[76.6441,14.7125],[76.7603,14.9888],[76.8001,15.096],[76.9851,15.0149],[77.1564,15.14],[77.0631,15.3283],[77.0264,15.837],[76.8108,15.5469]]]}},{"type":"Feature","properties":{"key":"karnataka/belagavi","slug":"belagavi","name":"Belagavi","state":"karnataka"},"geometry":{"type":"Polygon","coordinates":[[[74.6959,16.7155],[74.3152,16.5546],[74.3167,16.3264],[74.4803,16.2494],[74.4635,16.0391],[74.3458,15.7641],[74.2097,15.7806],[74.1179,15.6514],[74.2785,15.5222],[74.6134,15.3586],[74.7388,15.415],[74.8305,15.6102],[75.2893,15.6913],[75.4514,15.8865],[75.4192,16.0528],[75.2755,16.1202],[75.2342,16.2591],[75.0431,16.3182],[74.988,16.4529],[75.2587,16.6069],[75.3841,16.7636],[75.3413,16.9561],[75.1822,16.8433],[75.0889,16.9519],[74.6959,16.7155]]]}},{"type":"Feature","properties":{"key":"karnataka/bengaluru-rural","slug":"bengaluru-rural","name":"Bengaluru Rural","state":"karnataka"},"geometry":{"type":"Polygon","coordinates":[[[77.8659,12.8703],[77.9348,13.2456],[77.8277,13.3267],[77.4332,13.4642],[77.3858,13.5137],[77.3384,13.3295],[77.2038,13.1851],[77.3307,12.9748],[77.4806,13.2236],[77.7253,13.1933],[77.8308,12.8662],[77.8659,12.8703]]]}},{"type":"Feature","properties":{"key":"karnataka/bengaluru-urban","slug":"bengaluru-urban","name":"Bengaluru Urban","state":"karnataka"},"geometry":{"type":"Polygon","coordinates":[[[77.8308,12.8662],[77.7253,13.1933],[77.4806,13.2236],[77.3307,12.9748],[77.343,12.8882],[77.5433,12.7754],[77.6014,12.6682],[77.739,12.6723],[77.8308,12.8662]]]}},{"type":"Feature","properties":{"key":"karnataka/bidar","slug":"bidar","name":"Bidar","state":"karnataka"},"geometry":{"type":"Polygon","coordinates":[[[77.265,18.4229],[77.0647,18.1507],[76.9515,18.1878],[76.9194,17.9156],[76.7405,17.8991],[76.6854,17.6819],[77.0861,17.6586],[77.4439,17.5843],[77.4531,17.6943],[77.6564,17.9692],[77.5632,18.1961],[77.6014,18.2758],[77.5509,18.2923],[77.265,18.4229]]]}},{"type":"Feature","properties":{"key":"karnataka/chamarajanagara","slug":"chamarajanagara","name":"Chamarajanagara","state":"karnataka"},"geometry":{"type":"Polygon","coordinates":[[[77.4714,12.2434],[77.3261,12.308],[77.109,12.2406],[76.9148,12.0262],[76.5768,11.9231],[76.4132,11.7581],[76.4178,11.6715],[76.8475,11.5945],[76.9087,11.7952],[77.2925,11.809],[77.4286,11.7677],[77.4944,11.9437],[77.6763,11.9519],[77.7467,12.1554],[77.4714,12.2434]]]}},{"type":"Feature","properties":{"key":"karnataka/chikkaballapura","slug":"chikkaballapura","name":"Chikkaballapura","state":"karnataka"},"geometry":{"type":"Polygon","coordinates":[[[77.4561,13.6828],[77.3858,13.5137],[77.4332,13.4642],[77.8277,13.3267],[77.9348,13.2456],[78.1336,13.2882],[78.1963,13.5687],[78.1259,13.7872],[77.9699,13.9591],[77.7818,13.8189],[77.4561,13.6828]]]}},{"type":"Feature","properties":{"key":"karnataka/chikkamagaluru","slug":"chikkamagaluru","name":"Chikkamagaluru","state":"karnataka"},"geometry":{"type":"Polygon","coordinates":[[[76.0294,13.8986],[75.878,13.8106],[75.4192,13.7061],[75.3443,13.581],[75.1409,13.4614],[75.1119,13.3569],[75.2052,13.1769],[75.5156,13.0655],[75.5584,12.9156],[75.7098,13.038],[75.7281,13.1837],[76.3643,13.5467],[76.3536,13.5797],[76.2725,13.6058],[76.0294,13.8986]]]}},{"type":"Feature","properties":{"key":"karnataka/chitradurga","slug":"chitradurga","name":"Chitradurga","state":"karnataka"},"geometry":{"type":"Polygon","coordinates":[[[76.5111,14.5599],[76.4591,14.4513],[76.1364,14.4265],[76.0615,14.223],[76.0294,13.8986],[76.2725,13.6058],[76.3536,13.5797],[76.6212,13.7336],[76.7221,13.8986],[76.9484,14.0952],[77.0035,14.1983],[77.005,14.2354],[76.8842,14.3481],[76.901,14.4897],[76.7649,14.6025],[76.8674,14.9695],[76.7603,14.9888],[76.6441,14.7125],[76.5111,14.5599]]]}},{"type":"Feature","properties":{"key":"karnataka/dakshina-kannada","slug":"dakshina-kannada","name":"Dakshina Kannada","state":"karnataka"},"geometry":{"type":"Polygon","coordinates":[[[74.777,13.071],[74.8687,12.7589],[75.1119,12.6806],[75.2801,12.5238],[75.4162,12.4991],[75.67,12.5513],[75.667,12.6971],[75.5584,12.9156],[75.5156,13.0655],[75.2052,13.1769],[74.9941,13.1576],[74.777,13.071]]]}},{"type":"Feature","properties":{"key":"karnataka/davanagere","slug":"davanagere","name":"Davanagere","state":"karnataka"},"geometry":{"type":"Polygon","coordinates":[[[75.7587,14.7344],[75.797,14.5104],[75.6899,14.4925],[75.5324,14.278],[75.3994,14.1172],[75.6043,14.0567],[75.8061,14.0979],[75.878,13.8106],[76.0294,13.8986],[76.0615,14.223],[76.1364,14.4265],[76.4591,14.4513],[76.5111,14.5599],[76.3337,14.6877],[76.1838,14.7001],[76.1288,14.8692],[75.9667,14.909],[75.8015,14.8692],[75.7587,14.7344]]]}},{"type":"Feature","properties":{"key":"karnataka/dharwad","slug":"dharwad","name":"Dharwad","state":"karnataka"},"geometry":{"type":"Polygon","coordinates":[[[74.7388,15.415],[74.91,15.2514],[74.8886,15.0506],[75.0828,15.0754],[75.4162,15.085],[75.4131,15.2995],[75.5538,15.6473],[75.2893,15.6913],[74.8305,15.6102],[74.7388,15.415]]]}},{"type":"Feature","properties":{"key":"karnataka/gadag","slug":"gadag","name":"Gadag","state":"karnataka"},"geometry":{"type":"Polygon","coordinates":[[[75.2893,15.6913],[75.5538,15.6473],[75.4131,15.2995],[75.4162,15.085],[75.7006,14.9489],[75.9514,15.1386],[75.8245,15.4521],[76.0386,15.7683],[75.8474,15.8384],[75.5293,15.8343],[75.4514,15.8865],[75.2893,15.6913]]]}},{"type":"Feature","properties":{"key":"karnataka/hassan","slug":"hassan","name":"Hassan","state":"karnataka"},"geometry":{"type":"Polygon","coordinates":[[[75.5584,12.9156],[75.667,12.6971],[76.0187,12.5706],[76.3429,12.6558],[76.3857,12.8455],[76.5784,12.8469],[76.6319,13.0036],[76.3704,13.2002],[76.3643,13.5467],[75.7281,13.1837],[75.7098,13.038],[75.5584,12.9156]]]}},{"type":"Feature","properties":{"key":"karnataka/haveri","slug":"haveri","name":"Haveri","state":"karnataka"},"geometry":{"type":"Polygon","coordinates":[[[75.4162,15.085],[75.0828,15.0754],[75.1027,14.9338],[75.0507,14.6492],[75.1883,14.6231],[75.3458,14.4856],[75.3489,14.388],[75.5324,14.278],[75.6899,14.4925],[75.797,14.5104],[75.7587,14.7344],[75.6639,14.8073],[75.7006,14.9489],[75.4162,15.085]]]}},{"type":"Feature","properties":{"key":"karnataka/kalaburagi","slug":"kalaburagi","name":"Kalaburagi","state":"karnataka"},"geometry":{"type":"Polygon","coordinates":[[[76.4285,17.6434],[76.3322,17.5967],[76.3826,17.3149],[76.0753,17.3369],[76.4407,16.9973],[76.3704,16.7691],[76.4622,16.7113],[76.7343,16.7787],[76.8704,16.8956],[77.1656,16.9396],[77.4592,16.8846],[77.4668,16.9547],[77.3797,17.2228],[77.5127,17.4303],[77.6855,17.5115],[77.4439,17.5843],[77.0861,17.6586],[76.6854,17.6819],[76.5233,17.7603],[76.4285,17.6434]]]}},{"type":"Feature","properties":{"key":"karnataka/kodagu","slug":"kodagu","name":"Kodagu","state":"karnataka"},"geometry":{"type":"Polygon","coordinates":[[[75.667,12.6971],[75.67,12.5513],[75.4162,12.4991],[75.4147,12.2901],[75.5768,12.1568],[75.9361,11.9409],[76.1135,11.9794],[76.1334,12.1912],[75.9086,12.3987],[76.0187,12.5706],[75.667,12.6971]]]}},{"type":"Feature","properties":{"key":"karnataka/kolar","slug":"kolar","name":"Kolar","state":"karnataka"},"geometry":{"type":"Polygon","coordinates":[[[78.2314,12.7603],[78.2528,12.8607],[78.4669,12.9748],[78.5862,13.2758],[78.3645,13.3624],[78.4012,13.5879],[78.1963,13.5687],[78.1336,13.2882],[77.9348,13.2456],[77.8659,12.8703],[78.0571,12.8524],[78.2314,12.7603]]]}},{"type":"Feature","properties":{"key":"karnataka/koppal","slug":"koppal","name":"Koppal","state":"karnataka"},"geometry":{"type":"Polygon","coordinates":[[[75.8474,15.8384],[76.0386,15.7683],[75.8245,15.4521],[75.9514,15.1386],[76.3643,15.3283],[76.4927,15.3448],[76.8108,15.5469],[76.5967,15.6995],[76.4469,15.7339],[76.427,15.8906],[76.2817,15.903],[75.8765,15.9319],[75.8474,15.8384]]]}},{"type":"Feature","properties":{"key":"karnataka/mandya","slug":"mandya","name":"Mandya","state":"karnataka"},"geometry":{"type":"Polygon","coordinates":[[[76.3429,12.6558],[76.4514,12.484],[76.7313,12.3424],[76.9377,12.4001],[76.9958,12.242],[77.109,12.2406],[77.3261,12.308],[77.2696,12.4647],[77.1258,12.4826],[77.0769,12.7493],[76.924,12.8043],[76.8536,12.9789],[76.6319,13.0036],[76.5784,12.8469],[76.3857,12.8455],[76.3429,12.6558]]]}},{"type":"Feature","properties":{"key":"karnataka/mysuru","slug":"mysuru","name":"Mysuru","state":"karnataka"},"geometry":{"type":"Polygon","coordinates":[[[76.0187,12.5706],[75.9086,12.3987],[76.1334,12.1912],[76.1135,11.9794],[76.3184,11.7512],[76.4132,11.7581],[76.5768,11.9231],[76.9148,12.0262],[77.109,12.2406],[76.9958,12.242],[76.9377,12.4001],[76.7313,12.3424],[76.4514,12.484],[76.3429,12.6558],[76.0187,12.5706]]]}},{"type":"Feature","properties":{"key":"karnataka/raichur","slug":"raichur","name":"Raichur","state":"karnataka"},"geometry":{"type":"Polygon","coordinates":[[[76.3322,16.1944],[76.2389,16.1656],[76.2817,15.903],[76.427,15.8906],[76.4469,15.7339],[76.5967,15.6995],[76.8108,15.5469],[77.0264,15.837],[77.2482,15.9649],[77.5142,15.9277],[77.5005,16.2219],[77.5938,16.3429],[77.2879,16.4089],[77.0096,16.545],[76.4805,16.292],[76.3322,16.1944]]]}},{"type":"Feature","properties":{"key":"karnataka/ramanagara","slug":"ramanagara","name":"Ramanagara","state":"karnataka"},"geometry":{"type":"Polygon","coordinates":[[[77.6014,12.6682],[77.5433,12.7754],[77.343,12.8882],[77.3307,12.9748],[77.2038,13.1851],[77.0738,13.1246],[77.1579,12.9583],[77.0769,12.7493],[77.1258,12.4826],[77.2696,12.4647],[77.3261,12.308],[77.4714,12.2434],[77.6152,12.3671],[77.6014,12.6682]]]}},{"type":"Feature","properties":{"key":"karnataka/shivamogga","slug":"shivamogga","name":"Shivamogga","state":"karnataka"},"geometry":{"type":"Polygon","coordinates":[[[74.6669,13.9866],[74.7112,13.9055],[74.9085,13.8574],[75.0354,13.5673],[75.1409,13.4614],[75.3443,13.581],[75.4192,13.7061],[75.878,13.8106],[75.8061,14.0979],[75.6043,14.0567],[75.3994,14.1172],[75.5324,14.278],[75.3489,14.388],[75.3458,14.4856],[75.1883,14.6231],[75.0507,14.6492],[74.9009,14.5296],[74.9483,14.399],[74.8901,14.2162],[74.6654,14.1845],[74.6669,13.9866]]]}},{"type":"Feature","properties":{"key":"karnataka/tumakuru","slug":"tumakuru","name":"Tumakuru","state":"karnataka"},"geometry":{"type":"MultiPolygon","coordinates":[[[[76.9484,14.0952],[76.7221,13.8986],[76.6212,13.7336],[76.3536,13.5797],[76.3643,13.5467],[76.3704,13.2002],[76.6319,13.0036],[76.8536,12.9789],[76.924,12.8043],[77.0769,12.7493],[77.1579,12.9583],[77.0738,13.1246],[77.2038,13.1851],[77.3384,13.3295],[77.3858,13.5137],[77.4561,13.6828],[77.4332,13.8436],[77.1809,13.8697],[77.0417,13.933],[76.9484,14.0952]]],[[[77.005,14.2354],[77.0035,14.1983],[77.028,14.0622],[77.3216,14.0306],[77.3644,14.2753],[77.1381,14.3371],[77.005,14.2354]]]]}},{"type":"Feature","properties":{"key":"karnataka/udupi","slug":"udupi","name":"Udupi","state":"karnataka"},"geometry":{"type":"Polygon","coordinates":[[[74.5828,13.9261],[74.6699,13.6346],[74.777,13.071],[74.9941,13.1576],[75.2052,13.1769],[75.1119,13.3569],[75.1409,13.4614],[75.0354,13.5673],[74.9085,13.8574],[74.7112,13.9055],[74.6669,13.9866],[74.5828,13.9261]]]}},{"type":"Feature","properties":{"key":"karnataka/uttara-kannada","slug":"uttara-kannada","name":"Uttara Kannada","state":"karnataka"},"geometry":{"type":"Polygon","coordinates":[[[74.2785,15.5222],[74.2509,15.4919],[74.3228,15.3682],[74.2968,15.041],[74.0858,14.9008],[74.1179,14.7853],[74.2632,14.7193],[74.3947,14.4183],[74.5155,13.9866],[74.5828,13.9261],[74.6669,13.9866],[74.6654,14.1845],[74.8901,14.2162],[74.9483,14.399],[74.9009,14.5296],[75.0507,14.6492],[75.1027,14.9338],[75.0828,15.0754],[74.8886,15.0506],[74.91,15.2514],[74.7388,15.415],[74.6134,15.3586],[74.2785,15.5222]]]}},{"type":"Feature","properties":{"key":"karnataka/vijayapura","slug":"vijayapura","name":"Vijayapura","state":"karnataka"},"geometry":{"type":"Polygon","coordinates":[[[75.6043,17.3052],[75.6654,16.9794],[75.3413,16.9561],[75.3841,16.7636],[75.6333,16.4433],[76.2389,16.1656],[76.3322,16.1944],[76.3322,16.4268],[76.4346,16.4378],[76.4056,16.6426],[76.4622,16.7113],[76.3704,16.7691],[76.4407,16.9973],[76.0753,17.3369],[75.9315,17.3231],[75.6333,17.4771],[75.6043,17.3052]]]}},{"type":"Feature","properties":{"key":"karnataka/yadgir","slug":"yadgir","name":"Yadgir","state":"karnataka"},"geometry":{"type":"Polygon","coordinates":[[[76.4622,16.7113],[76.4056,16.6426],[76.4346,16.4378],[76.3322,16.4268],[76.3322,16.1944],[76.4805,16.292],[77.0096,16.545],[77.2879,16.4089],[77.4164,16.5175],[77.4592,16.8846],[77.1656,16.9396],[76.8704,16.8956],[76.7343,16.7787],[76.4622,16.7113]]]}}]}