{"type":"FeatureCollection","features":[{"type":"Feature","properties":{"key":"kerala/alappuzha","slug":"alappuzha","name":"Alappuzha","state":"kerala"},"geometry":{"type":"Polygon","coordinates":[[[76.2802,9.7895],[76.3199,9.4829],[76.479,9.1227],[76.6334,9.1392],[76.6411,9.3399],[76.5141,9.4004],[76.3918,9.5475],[76.3735,9.8362],[76.2802,9.7895]]]}},{"type":"Feature","properties":{"key":"kerala/ernakulam","slug":"ernakulam","name":"Ernakulam","state":"kerala"},"geometry":{"type":"Polygon","coordinates":[[[76.8919,10.2596],[76.4147,10.294],[76.2144,10.1936],[76.167,10.1813],[76.2802,9.7895],[76.3735,9.8362],[76.6288,9.8541],[76.927,10.1785],[77.0509,10.2624],[76.8919,10.2596]]]}},{"type":"Feature","properties":{"key":"kerala/idukki","slug":"idukki","name":"Idukki","state":"kerala"},"geometry":{"type":"Polygon","coordinates":[[[77.0509,10.2624],[76.927,10.1785],[76.6288,9.8541],[76.8873,9.7166],[76.8857,9.5393],[76.9729,9.4664],[77.2099,9.4485],[77.2818,9.2987],[77.3399,9.4196],[77.4026,9.5255],[77.1671,9.6121],[77.268,10.1221],[77.2879,10.2321],[77.0906,10.3146],[77.0509,10.2624]]]}},{"type":"Feature","properties":{"key":"kerala/kannur","slug":"kannur","name":"Kannur","state":"kerala"},"geometry":{"type":"Polygon","coordinates":[[[75.1654,12.0894],[75.5538,11.7017],[75.7939,11.7897],[75.9361,11.9409],[75.5768,12.1568],[75.4147,12.2901],[75.2036,12.1912],[75.1654,12.0894]],[[75.5553,11.7224],[75.537,11.7196],[75.5416,11.7389],[75.5553,11.7224]]]}},{"type":"Feature","properties":{"key":"kerala/kasaragod","slug":"kasaragod","name":"Kasaragod","state":"kerala"},"geometry":{"type":"Polygon","coordinates":[[[74.8687,12.7589],[75.1654,12.0894],[75.2036,12.1912],[75.4147,12.2901],[75.4162,12.4991],[75.2801,12.5238],[75.1119,12.6806],[74.8687,12.7589]]]}},{"type":"Feature","properties":{"key":"kerala/kollam","slug":"kollam","name":"Kollam","state":"kerala"},"geometry":{"type":"Polygon","coordinates":[[[77.2038,9.0705],[76.9301,9.1736],[76.8414,9.0925],[76.6334,9.1392],[76.479,9.1227],[76.5478,8.9027],[76.6824,8.7763],[76.8154,8.8587],[76.9347,8.7598],[77.0509,8.8464],[77.1992,8.7708],[77.2558,8.8794],[77.2038,9.0705]]]}},{"type":"Feature","properties":{"key":"kerala/kottayam","slug":"kottayam","name":"Kottayam","state":"kerala"},"geometry":{"type":"Polygon","coordinates":[[[76.6288,9.8541],[76.3735,9.8362],[76.3918,9.5475],[76.5141,9.4004],[76.6426,9.4788],[76.9729,9.4664],[76.8857,9.5393],[76.8873,9.7166],[76.6288,9.8541]]]}},{"type":"Feature","properties":{"key":"kerala/kozhikode","slug":"kozhikode","name":"Kozhikode","state":"kerala"},"geometry":{"type":"Polygon","coordinates":[[[75.7939,11.7897],[75.5538,11.7017],[75.618,11.4777],[75.6976,11.4254],[75.826,11.123],[75.8566,11.2041],[76.0829,11.3072],[76.1426,11.4502],[75.9086,11.6],[75.7939,11.7897]]]}},{"type":"Feature","properties":{"key":"kerala/malappuram","slug":"malappuram","name":"Malappuram","state":"kerala"},"geometry":{"type":"Polygon","coordinates":[[[76.2343,11.5271],[76.1426,11.4502],[76.0829,11.3072],[75.8566,11.2041],[75.826,11.123],[75.9575,10.6858],[76.0691,10.7298],[76.0447,10.848],[76.3199,10.936],[76.4423,11.2013],[76.5478,11.3594],[76.2343,11.5271]]]}},{"type":"Feature","properties":{"key":"kerala/palakkad","slug":"palakkad","name":"Palakkad","state":"kerala"},"geometry":{"type":"Polygon","coordinates":[[[76.4423,11.2013],[76.3199,10.936],[76.0447,10.848],[76.0691,10.7298],[76.2052,10.7683],[76.4683,10.7518],[76.4132,10.5951],[76.6227,10.3792],[76.8337,10.3394],[76.8383,10.5964],[76.9071,10.782],[76.6564,10.9388],[76.7542,11.079],[76.7068,11.2398],[76.4423,11.2013]]]}},{"type":"Feature","properties":{"key":"kerala/pathanamthitta","slug":"pathanamthitta","name":"Pathanamthitta","state":"kerala"},"geometry":{"type":"Polygon","coordinates":[[[77.2818,9.2987],[77.2099,9.4485],[76.9729,9.4664],[76.6426,9.4788],[76.5141,9.4004],[76.6411,9.3399],[76.6334,9.1392],[76.8414,9.0925],[76.9301,9.1736],[77.2038,9.0705],[77.2818,9.2987]]]}},{"type":"Feature","properties":{"key":"kerala/thiruvananthapuram","slug":"thiruvananthapuram","name":"Thiruvananthapuram","state":"kerala"},"geometry":{"type":"Polygon","coordinates":[[[77.2696,8.5783],[77.1992,8.7708],[77.0509,8.8464],[76.9347,8.7598],[76.8154,8.8587],[76.6824,8.7763],[76.9591,8.4216],[77.0983,8.2924],[77.2696,8.5783]]]}},{"type":"Feature","properties":{"key":"kerala/thrissur","slug":"thrissur","name":"Thrissur","state":"kerala"},"geometry":{"type":"Polygon","coordinates":[[[76.8337,10.3394],[76.6227,10.3792],[76.4132,10.5951],[76.4683,10.7518],[76.2052,10.7683],[76.0691,10.7298],[75.9575,10.6858],[76.2144,10.1936],[76.4147,10.294],[76.8919,10.2596],[76.8337,10.3394]]]}},{"type":"Feature","properties":{"key":"kerala/wayanad","slug":"wayanad","name":"Wayanad","state":"kerala"},"geometry":{"type":"Polygon","coordinates":[[[76.4178,11.6715],[76.4132,11.7581],[76.3184,11.7512],[76.1135,11.9794],[75.9361,11.9409],[75.7939,11.7897],[75.9086,11.6],[76.1426,11.4502],[76.2343,11.5271],[76.4178,11.6715]]]}}]}