{"type":"FeatureCollection","features":[{"type":"Feature","properties":{"key":"ladakh/kargil","slug":"kargil","name":"Kargil","state":"ladakh"},"geometry":{"type":"Polygon","coordinates":[[[75.3841,34.3618],[75.4972,34.234],[75.5951,34.1982],[75.8642,33.9783],[76.0217,33.9975],[76.2649,33.7418],[76.3092,33.5713],[76.5019,33.5163],[76.7726,33.251],[76.9331,33.0283],[77.1503,32.9774],[77.2741,32.8743],[77.2772,32.9953],[77.4775,33.2744],[77.4424,33.4916],[77.3001,33.4847],[77.2084,33.6373],[76.7588,33.805],[76.5157,33.9453],[76.6885,34.08],[76.5615,34.5708],[76.4209,34.7206],[76.1334,34.6629],[75.9728,34.7344],[75.8933,34.5447],[75.5997,34.502],[75.3841,34.3618]]]}},{"type":"Feature","properties":{"key":"ladakh/leh","slug":"leh","name":"Leh","state":"ladakh"},"geometry":{"type":"Polygon","coordinates":[[[78.3981,32.5251],[78.7605,32.6544],[78.8569,32.4399],[78.9807,32.3382],[79.1138,32.3835],[79.3187,32.5925],[79.4471,32.532],[79.626,32.7396],[79.4211,32.9609],[79.3753,33.0847],[79.4532,33.2579],[78.9884,33.3335],[78.9134,33.5741],[79.1061,33.6167],[78.9043,33.9755],[79.0205,34.0511],[79.3538,34.036],[79.5909,34.2821],[79.5068,34.4745],[79.7927,34.4842],[79.7744,34.6271],[80.068,34.7138],[80.1735,35.0025],[80.1811,35.166],[80.3264,35.4699],[80.2897,35.6073],[80.1062,35.6802],[79.9976,35.8369],[79.8692,35.7819],[79.2147,35.9785],[79.1306,35.8356],[78.9593,35.8919],[78.6642,35.8576],[78.5204,35.7627],[78.2712,35.7215],[78.1366,35.5386],[77.9653,35.5716],[77.6121,35.4685],[77.4347,35.5166],[77.4301,35.6541],[76.9347,35.7833],[76.7221,35.9524],[76.8001,36.0473],[76.6426,36.1834],[76.4805,36.2109],[76.3505,36.3593],[75.748,36.5875],[75.615,36.7608],[75.4728,36.8103],[75.3428,37.0522],[74.9207,36.9051],[74.7082,37.077],[74.4283,36.989],[74.0552,36.8061],[73.8625,36.7869],[73.7004,36.6838],[73.4405,36.7443],[73.1255,36.6865],[72.9909,36.4569],[72.7783,36.3098],[72.5948,36.2617],[72.5337,35.9167],[72.6896,35.8328],[73.0888,35.8823],[73.1362,35.7187],[73.4068,35.5634],[73.7845,35.5249],[73.7004,35.3571],[73.7952,35.2444],[74.147,35.0973],[74.2525,35.0368],[74.4864,35.1097],[74.5675,34.8732],[74.3198,34.7866],[74.6011,34.7371],[74.7326,34.6711],[75.2388,34.6285],[75.3749,34.3879],[75.3841,34.3618],[75.5997,34.502],[75.8933,34.5447],[75.9728,34.7344],[76.1334,34.6629],[76.4209,34.7206],[76.5615,34.5708],[76.6885,34.08],[76.5157,33.9453],[76.7588,33.805],[77.2084,33.6373],[77.3001,33.4847],[77.4424,33.4916],[77.4775,33.2744],[77.2772,32.9953],[77.2741,32.8743],[77.3384,32.8166],[77.7406,32.9692],[78.0158,32.62],[78.3874,32.7575],[78.3981,32.5251]]]}}]}