{"type":"FeatureCollection","features":[{"type":"Feature","properties":{"key":"madhya-pradesh/agar-malwa","slug":"agar-malwa","name":"Agar Malwa","state":"madhya-pradesh"},"geometry":{"type":"Polygon","coordinates":[[[75.6899,23.7473],[75.8811,23.5576],[76.1548,23.57],[76.4346,23.6332],[76.3031,23.9604],[76.1915,24.0869],[76.2129,24.2093],[76.1181,24.1941],[75.9376,23.8972],[75.7939,23.8669],[75.6899,23.7473]]]}},{"type":"Feature","properties":{"key":"madhya-pradesh/alirajpur","slug":"alirajpur","name":"Alirajpur","state":"madhya-pradesh"},"geometry":{"type":"Polygon","coordinates":[[[74.7418,22.5596],[74.4421,22.5829],[74.3794,22.6352],[74.0583,22.5499],[74.1898,22.3203],[74.095,22.0165],[74.147,21.9505],[74.2815,21.934],[74.4329,22.0303],[74.5017,22.0454],[74.5262,22.2365],[74.6485,22.2736],[74.7418,22.5596]]]}},{"type":"Feature","properties":{"key":"madhya-pradesh/anuppur","slug":"anuppur","name":"Anuppur","state":"madhya-pradesh"},"geometry":{"type":"Polygon","coordinates":[[[82.1232,23.104],[82.1997,23.3143],[81.9856,23.4146],[81.9137,23.3005],[81.6125,23.1988],[81.5176,23.082],[81.3189,23.104],[81.2516,23.2126],[81.1262,23.2098],[81.2638,23.071],[81.1996,22.9129],[81.4534,22.7699],[81.692,22.7809],[81.7317,22.6764],[81.9504,22.983],[82.1232,23.104]]]}},{"type":"Feature","properties":{"key":"madhya-pradesh/ashoknagar","slug":"ashoknagar","name":"Ashoknagar","state":"madhya-pradesh"},"geometry":{"type":"Polygon","coordinates":[[[77.5647,24.8719],[77.4821,24.6327],[77.4974,24.4732],[77.6519,24.3137],[78.0831,24.2587],[78.2681,24.4498],[78.2758,24.6629],[78.1901,24.8416],[77.9715,24.8843],[77.8308,25.0011],[77.739,24.8568],[77.5647,24.8719]]]}},{"type":"Feature","properties":{"key":"madhya-pradesh/balaghat","slug":"balaghat","name":"Balaghat","state":"madhya-pradesh"},"geometry":{"type":"Polygon","coordinates":[[[80.6613,21.3333],[80.7378,21.4735],[80.7148,21.6618],[80.8463,21.8351],[80.9075,22.11],[81.0451,22.2406],[80.8662,22.3795],[80.5803,22.2269],[80.3998,22.3038],[80.1001,22.3355],[80.0328,22.1815],[79.6734,21.6962],[79.5098,21.5958],[79.5389,21.5409],[79.7392,21.6027],[79.9181,21.5244],[80.2683,21.6178],[80.4227,21.4405],[80.6613,21.3333]]]}},{"type":"Feature","properties":{"key":"madhya-pradesh/barwani","slug":"barwani","name":"Barwani","state":"madhya-pradesh"},"geometry":{"type":"Polygon","coordinates":[[[75.6089,21.3896],[75.4988,21.4872],[75.5018,21.6137],[75.2755,21.7388],[75.3504,21.9822],[75.3168,22.1334],[75.1883,22.1045],[74.5017,22.0454],[74.4329,22.0303],[74.5247,21.912],[74.5048,21.7265],[74.7755,21.6151],[75.0522,21.567],[75.2113,21.4116],[75.6089,21.3896]]]}},{"type":"Feature","properties":{"key":"madhya-pradesh/betul","slug":"betul","name":"Betul","state":"madhya-pradesh"},"geometry":{"type":"Polygon","coordinates":[[[78.2697,22.4015],[78.0326,22.33],[77.8552,22.3685],[77.5479,22.352],[77.3904,22.2227],[77.5051,22.0303],[77.2206,21.9065],[77.0616,21.7127],[77.4791,21.7704],[77.5754,21.5271],[77.4882,21.3745],[78.0296,21.4213],[78.3431,21.589],[78.4593,21.7182],[78.5143,21.9368],[78.2773,22.0908],[78.2697,22.4015]]]}},{"type":"Feature","properties":{"key":"madhya-pradesh/bhind","slug":"bhind","name":"Bhind","state":"madhya-pradesh"},"geometry":{"type":"Polygon","coordinates":[[[78.5449,26.7636],[78.3675,26.5711],[78.2161,26.5298],[78.2574,26.3291],[78.4119,26.2961],[78.6275,26.1573],[78.8859,25.9126],[78.9379,25.9524],[78.9945,26.1972],[79.1382,26.3388],[79.1352,26.4405],[78.9899,26.5793],[79.0067,26.6714],[78.7804,26.769],[78.5449,26.7636]]]}},{"type":"Feature","properties":{"key":"madhya-pradesh/bhopal","slug":"bhopal","name":"Bhopal","state":"madhya-pradesh"},"geometry":{"type":"Polygon","coordinates":[[[77.2267,23.8903],[77.1671,23.6731],[77.2772,23.6002],[77.2879,23.4256],[77.2145,23.2854],[77.2711,23.0943],[77.3797,23.0723],[77.5616,23.1369],[77.6259,23.3157],[77.5173,23.5068],[77.6473,23.713],[77.4745,23.757],[77.3185,23.8903],[77.2267,23.8903]]]}},{"type":"Feature","properties":{"key":"madhya-pradesh/burhanpur","slug":"burhanpur","name":"Burhanpur","state":"madhya-pradesh"},"geometry":{"type":"Polygon","coordinates":[[[76.7818,21.5587],[76.3765,21.5986],[76.0768,21.5725],[75.9866,21.369],[76.1594,21.2549],[76.167,21.0789],[76.3826,21.0762],[76.6625,21.281],[76.7818,21.5587]]]}},{"type":"Feature","properties":{"key":"madhya-pradesh/chhatarpur","slug":"chhatarpur","name":"Chhatarpur","state":"madhya-pradesh"},"geometry":{"type":"Polygon","coordinates":[[[79.3233,25.1496],[79.3447,24.9035],[79.3034,24.6877],[79.0908,24.6327],[78.9853,24.4416],[78.9914,24.4168],[79.181,24.4333],[79.233,24.3344],[79.0541,24.1708],[79.1443,24.102],[79.3829,24.1955],[79.4135,24.3509],[79.5664,24.4278],[79.7958,24.3742],[79.886,24.3742],[79.8936,24.6973],[80.0787,24.799],[80.2637,25.0245],[80.4304,25.1743],[80.3111,25.2857],[80.1047,25.3503],[79.6734,25.1207],[79.2804,25.3242],[79.3233,25.1496]]]}},{"type":"Feature","properties":{"key":"madhya-pradesh/chhindwara","slug":"chhindwara","name":"Chhindwara","state":"madhya-pradesh"},"geometry":{"type":"Polygon","coordinates":[[[79.3278,22.6159],[79.2407,22.8029],[78.918,22.6723],[78.6902,22.7053],[78.522,22.6654],[78.5602,22.4193],[78.2697,22.4015],[78.2773,22.0908],[78.5143,21.9368],[78.4593,21.7182],[78.3431,21.589],[78.4333,21.4969],[78.8997,21.501],[78.9165,21.5903],[79.2239,21.6481],[79.2346,21.7182],[79.3997,21.9973],[79.2881,22.3272],[79.3278,22.6159]]]}},{"type":"Feature","properties":{"key":"madhya-pradesh/damoh","slug":"damoh","name":"Damoh","state":"madhya-pradesh"},"geometry":{"type":"Polygon","coordinates":[[[79.1902,23.2236],[79.3722,23.1658],[79.675,23.3377],[79.9288,23.5975],[79.8279,23.6951],[79.8646,23.8284],[79.7667,24.0415],[79.8585,24.2986],[79.7958,24.3742],[79.5664,24.4278],[79.4135,24.3509],[79.3829,24.1955],[79.1443,24.102],[79.0939,23.9192],[79.2361,23.8188],[79.3019,23.6772],[79.2881,23.4793],[79.181,23.4256],[79.1902,23.2236]]]}},{"type":"Feature","properties":{"key":"madhya-pradesh/datia","slug":"datia","name":"Datia","state":"madhya-pradesh"},"geometry":{"type":"MultiPolygon","coordinates":[[[[78.3905,25.206],[78.3736,25.0987],[78.447,25.1221],[78.3905,25.206]]],[[[78.6275,26.1573],[78.5847,26.0061],[78.2956,25.7861],[78.2482,25.7215],[78.4516,25.5716],[78.6581,25.5593],[78.8859,25.9126],[78.6275,26.1573]]]]}},{"type":"Feature","properties":{"key":"madhya-pradesh/dewas","slug":"dewas","name":"Dewas","state":"madhya-pradesh"},"geometry":{"type":"Polygon","coordinates":[[[77.1304,22.5554],[77.0035,22.8785],[76.5753,22.7713],[76.4545,22.9225],[76.5417,23.1301],[76.3643,23.2332],[76.1211,23.2442],[76.0829,23.0476],[75.8979,23.0036],[76.1028,22.7012],[76.0829,22.5376],[76.2114,22.3272],[76.3261,22.2983],[76.4973,22.4111],[76.7818,22.3437],[76.794,22.4262],[77.1304,22.5554]]]}},{"type":"Feature","properties":{"key":"madhya-pradesh/dhar","slug":"dhar","name":"Dhar","state":"madhya-pradesh"},"geometry":{"type":"Polygon","coordinates":[[[74.5017,22.0454],[75.1883,22.1045],[75.3168,22.1334],[75.4911,22.154],[75.5615,22.3767],[75.5293,22.6297],[75.4407,22.8675],[75.3061,22.9321],[75.2419,23.1356],[75.0064,23.1095],[75.0033,22.9129],[74.8947,22.7479],[74.7602,22.752],[74.7418,22.5596],[74.6485,22.2736],[74.5262,22.2365],[74.5017,22.0454]]]}},{"type":"Feature","properties":{"key":"madhya-pradesh/dindori","slug":"dindori","name":"Dindori","state":"madhya-pradesh"},"geometry":{"type":"Polygon","coordinates":[[[81.4748,22.4894],[81.6216,22.5376],[81.7287,22.6695],[81.7317,22.6764],[81.692,22.7809],[81.4534,22.7699],[81.1996,22.9129],[81.2638,23.071],[81.1262,23.2098],[80.9213,23.284],[80.7255,23.2607],[80.5757,23.3514],[80.5298,23.0833],[80.5237,22.8716],[80.8677,22.7575],[81.013,22.5912],[81.1935,22.4908],[81.4748,22.4894]]]}},{"type":"Feature","properties":{"key":"madhya-pradesh/guna","slug":"guna","name":"Guna","state":"madhya-pradesh"},"geometry":{"type":"Polygon","coordinates":[[[77.3124,25.0809],[76.8766,25.041],[77.0692,24.5571],[76.8444,24.4361],[76.9224,24.212],[76.8811,24.1309],[77.1824,24.0787],[77.2267,23.8903],[77.3185,23.8903],[77.2604,24.0677],[77.346,24.1818],[77.6519,24.3137],[77.4974,24.4732],[77.4821,24.6327],[77.5647,24.8719],[77.3705,24.9255],[77.3124,25.0809]]]}},{"type":"Feature","properties":{"key":"madhya-pradesh/gwalior","slug":"gwalior","name":"Gwalior","state":"madhya-pradesh"},"geometry":{"type":"Polygon","coordinates":[[[77.6962,25.9016],[78.054,25.7091],[78.2956,25.7861],[78.5847,26.0061],[78.6275,26.1573],[78.4119,26.2961],[78.2574,26.3291],[77.8155,26.2549],[77.7436,26.1614],[77.6962,25.9016]]]}},{"type":"Feature","properties":{"key":"madhya-pradesh/harda","slug":"harda","name":"Harda","state":"madhya-pradesh"},"geometry":{"type":"Polygon","coordinates":[[[77.3904,22.2227],[77.2206,22.5692],[77.1304,22.5554],[76.794,22.4262],[76.7818,22.3437],[76.8873,21.9835],[77.1381,21.9945],[77.2206,21.9065],[77.5051,22.0303],[77.3904,22.2227]]]}},{"type":"Feature","properties":{"key":"madhya-pradesh/hoshangabad","slug":"hoshangabad","name":"Hoshangabad","state":"madhya-pradesh"},"geometry":{"type":"Polygon","coordinates":[[[78.6902,22.7053],[78.447,22.983],[78.028,22.8029],[77.8476,22.873],[77.7421,22.7603],[77.3323,22.5637],[77.2206,22.5692],[77.3904,22.2227],[77.5479,22.352],[77.8552,22.3685],[78.0326,22.33],[78.2697,22.4015],[78.5602,22.4193],[78.522,22.6654],[78.6902,22.7053]]]}},{"type":"Feature","properties":{"key":"madhya-pradesh/indore","slug":"indore","name":"Indore","state":"madhya-pradesh"},"geometry":{"type":"Polygon","coordinates":[[[76.0829,22.5376],[76.1028,22.7012],[75.8979,23.0036],[75.6716,23.0146],[75.566,23.0861],[75.4407,22.8675],[75.5293,22.6297],[75.5615,22.3767],[75.615,22.3382],[75.9942,22.4138],[76.0829,22.5376]]]}},{"type":"Feature","properties":{"key":"madhya-pradesh/jabalpur","slug":"jabalpur","name":"Jabalpur","state":"madhya-pradesh"},"geometry":{"type":"Polygon","coordinates":[[[79.964,22.8524],[79.993,23.0283],[80.2484,23.1521],[80.5298,23.0833],[80.5757,23.3514],[80.5436,23.394],[80.2974,23.339],[80.2362,23.5741],[79.9288,23.5975],[79.675,23.3377],[79.3722,23.1658],[79.6077,23.0985],[79.6291,22.95],[79.7851,22.8469],[79.964,22.8524]]]}},{"type":"Feature","properties":{"key":"madhya-pradesh/jhabua","slug":"jhabua","name":"Jhabua","state":"madhya-pradesh"},"geometry":{"type":"Polygon","coordinates":[[[74.7418,22.5596],[74.7602,22.752],[74.8947,22.7479],[75.0033,22.9129],[75.0064,23.1095],[74.7342,23.2208],[74.5063,23.0847],[74.3198,23.06],[74.465,22.8166],[74.3794,22.6352],[74.4421,22.5829],[74.7418,22.5596]]]}},{"type":"Feature","properties":{"key":"madhya-pradesh/katni","slug":"katni","name":"Katni","state":"madhya-pradesh"},"geometry":{"type":"Polygon","coordinates":[[[80.3585,23.9687],[80.3065,23.9096],[80.0527,23.992],[79.8646,23.8284],[79.8279,23.6951],[79.9288,23.5975],[80.2362,23.5741],[80.2974,23.339],[80.5436,23.394],[80.5619,23.5672],[80.6904,23.7322],[80.906,23.6772],[80.8463,23.9659],[80.958,24.0649],[80.7378,24.1309],[80.3585,23.9687]]]}},{"type":"Feature","properties":{"key":"madhya-pradesh/khandwa","slug":"khandwa","name":"Khandwa","state":"madhya-pradesh"},"geometry":{"type":"Polygon","coordinates":[[[76.7818,21.5587],[77.0616,21.7127],[77.2206,21.9065],[77.1381,21.9945],[76.8873,21.9835],[76.7818,22.3437],[76.4973,22.4111],[76.3261,22.2983],[76.2114,22.3272],[76.0829,22.1856],[76.2251,22.0715],[76.1013,21.8543],[76.0768,21.5725],[76.3765,21.5986],[76.7818,21.5587]]]}},{"type":"Feature","properties":{"key":"madhya-pradesh/khargone","slug":"khargone","name":"Khargone","state":"madhya-pradesh"},"geometry":{"type":"Polygon","coordinates":[[[76.0768,21.5725],[76.1013,21.8543],[76.2251,22.0715],[76.0829,22.1856],[76.2114,22.3272],[76.0829,22.5376],[75.9942,22.4138],[75.615,22.3382],[75.5615,22.3767],[75.4911,22.154],[75.3168,22.1334],[75.3504,21.9822],[75.2755,21.7388],[75.5018,21.6137],[75.4988,21.4872],[75.6089,21.3896],[75.9866,21.369],[76.0768,21.5725]]]}},{"type":"Feature","properties":{"key":"madhya-pradesh/mandla","slug":"mandla","name":"Mandla","state":"madhya-pradesh"},"geometry":{"type":"Polygon","coordinates":[[[80.1001,22.3355],[80.3998,22.3038],[80.5803,22.2269],[80.8662,22.3795],[81.0451,22.2406],[81.1935,22.4908],[81.013,22.5912],[80.8677,22.7575],[80.5237,22.8716],[80.5298,23.0833],[80.2484,23.1521],[79.993,23.0283],[79.964,22.8524],[80.0649,22.7616],[80.0359,22.6077],[80.1001,22.3355]]]}},{"type":"Feature","properties":{"key":"madhya-pradesh/mandsaur","slug":"mandsaur","name":"Mandsaur","state":"madhya-pradesh"},"geometry":{"type":"Polygon","coordinates":[[[75.7847,24.7619],[75.5492,24.7028],[75.5905,24.52],[75.3657,24.3151],[75.0247,24.3701],[74.9085,24.212],[74.9743,24.0402],[74.9024,23.8738],[74.9406,23.7652],[75.2556,23.823],[75.4621,23.9178],[75.5217,24.025],[75.7021,23.9659],[75.8367,24.0567],[75.7281,24.3962],[75.9009,24.443],[75.9208,24.5433],[75.7847,24.7619]]]}},{"type":"Feature","properties":{"key":"madhya-pradesh/morena","slug":"morena","name":"Morena","state":"madhya-pradesh"},"geometry":{"type":"Polygon","coordinates":[[[78.2222,26.8323],[78.0892,26.6756],[77.9042,26.6591],[77.5387,26.4116],[77.3751,26.3649],[77.1197,26.2136],[77.2527,26.0872],[77.4255,26.1229],[77.6427,25.8988],[77.6962,25.9016],[77.7436,26.1614],[77.8155,26.2549],[78.2574,26.3291],[78.2161,26.5298],[78.3675,26.5711],[78.5449,26.7636],[78.3583,26.8694],[78.2222,26.8323]]]}},{"type":"Feature","properties":{"key":"madhya-pradesh/narsinghpur","slug":"narsinghpur","name":"Narsinghpur","state":"madhya-pradesh"},"geometry":{"type":"Polygon","coordinates":[[[79.6291,22.95],[79.6077,23.0985],[79.3722,23.1658],[79.1902,23.2236],[78.8095,23.2359],[78.7315,23.0448],[78.447,22.983],[78.6902,22.7053],[78.918,22.6723],[79.2407,22.8029],[79.3278,22.6159],[79.4884,22.73],[79.6291,22.95]]]}},{"type":"Feature","properties":{"key":"madhya-pradesh/neemuch","slug":"neemuch","name":"Neemuch","state":"madhya-pradesh"},"geometry":{"type":"Polygon","coordinates":[[[75.1914,25.0369],[75.1165,24.8774],[74.959,24.8581],[74.9926,24.6932],[74.6975,24.4828],[74.855,24.4237],[74.754,24.2423],[74.9085,24.212],[75.0247,24.3701],[75.3657,24.3151],[75.5905,24.52],[75.5492,24.7028],[75.1838,24.7482],[75.352,25.019],[75.1914,25.0369]]]}},{"type":"Feature","properties":{"key":"madhya-pradesh/niwari","slug":"niwari","name":"Niwari","state":"madhya-pradesh"},"geometry":{"type":"Polygon","coordinates":[[[78.5587,25.2128],[78.6397,25.0712],[78.8798,25.1578],[78.9608,25.3448],[78.7315,25.4575],[78.5128,25.2761],[78.5587,25.2128]]]}},{"type":"Feature","properties":{"key":"madhya-pradesh/panna","slug":"panna","name":"Panna","state":"madhya-pradesh"},"geometry":{"type":"Polygon","coordinates":[[[80.2637,25.0245],[80.0787,24.799],[79.8936,24.6973],[79.886,24.3742],[79.7958,24.3742],[79.8585,24.2986],[79.7667,24.0415],[79.8646,23.8284],[80.0527,23.992],[80.3065,23.9096],[80.3585,23.9687],[80.6322,24.1749],[80.461,24.4375],[80.4702,24.6134],[80.3769,24.6808],[80.6032,24.8306],[80.4778,24.9764],[80.2637,25.0245]]]}},{"type":"Feature","properties":{"key":"madhya-pradesh/raisen","slug":"raisen","name":"Raisen","state":"madhya-pradesh"},"geometry":{"type":"Polygon","coordinates":[[[78.2926,23.6759],[78.2222,23.5274],[78.0846,23.4504],[77.8109,23.4559],[77.7069,23.5645],[77.5173,23.5068],[77.6259,23.3157],[77.5616,23.1369],[77.3797,23.0723],[77.4362,22.9307],[77.6396,22.8386],[77.9608,22.9692],[78.028,22.8029],[78.447,22.983],[78.7315,23.0448],[78.8095,23.2359],[78.499,23.5851],[78.4287,23.7198],[78.2926,23.6759]]]}},{"type":"Feature","properties":{"key":"madhya-pradesh/rajgarh","slug":"rajgarh","name":"Rajgarh","state":"madhya-pradesh"},"geometry":{"type":"Polygon","coordinates":[[[76.8811,24.1309],[76.3215,24.245],[76.2129,24.2093],[76.1915,24.0869],[76.3031,23.9604],[76.4346,23.6332],[76.6931,23.4861],[76.9163,23.5136],[77.0494,23.4669],[77.1671,23.6731],[77.2267,23.8903],[77.1824,24.0787],[76.8811,24.1309]]]}},{"type":"Feature","properties":{"key":"madhya-pradesh/ratlam","slug":"ratlam","name":"Ratlam","state":"madhya-pradesh"},"geometry":{"type":"Polygon","coordinates":[[[75.4621,23.9178],[75.2556,23.823],[74.9406,23.7652],[74.7724,23.5425],[74.5721,23.4201],[74.5293,23.3212],[74.7342,23.2208],[75.0064,23.1095],[75.2419,23.1356],[75.2602,23.2676],[75.1639,23.3995],[75.199,23.5356],[75.6899,23.7473],[75.4621,23.9178]]]}},{"type":"Feature","properties":{"key":"madhya-pradesh/rewa","slug":"rewa","name":"Rewa","state":"madhya-pradesh"},"geometry":{"type":"Polygon","coordinates":[[[81.5406,25.1881],[81.2638,25.0534],[81.1201,24.9035],[81.1568,24.498],[81.3051,24.322],[81.7914,24.5296],[82.3036,24.5942],[82.2975,24.6066],[82.2165,24.7935],[82.0941,24.8169],[81.9428,24.8458],[81.8923,24.9887],[81.6675,25.0616],[81.5406,25.1881]]]}},{"type":"Feature","properties":{"key":"madhya-pradesh/sagar","slug":"sagar","name":"Sagar","state":"madhya-pradesh"},"geometry":{"type":"Polygon","coordinates":[[[78.2681,24.4498],[78.0831,24.2587],[78.184,24.0099],[78.2941,23.9096],[78.2926,23.6759],[78.4287,23.7198],[78.499,23.5851],[78.8095,23.2359],[79.1902,23.2236],[79.181,23.4256],[79.2881,23.4793],[79.3019,23.6772],[79.2361,23.8188],[79.0939,23.9192],[79.1443,24.102],[79.0541,24.1708],[79.233,24.3344],[79.181,24.4333],[78.9914,24.4168],[78.8064,24.179],[78.5862,24.3536],[78.369,24.3742],[78.2681,24.4498]]]}},{"type":"Feature","properties":{"key":"madhya-pradesh/satna","slug":"satna","name":"Satna","state":"madhya-pradesh"},"geometry":{"type":"Polygon","coordinates":[[[80.4778,24.9764],[80.6032,24.8306],[80.3769,24.6808],[80.4702,24.6134],[80.461,24.4375],[80.6322,24.1749],[80.3585,23.9687],[80.7378,24.1309],[80.958,24.0649],[81.0023,24.0814],[81.1858,24.1103],[81.3892,24.2656],[81.3051,24.322],[81.1568,24.498],[81.1201,24.9035],[80.9457,24.9667],[80.8448,25.1867],[80.7148,25.0657],[80.5925,25.0905],[80.4778,24.9764]]]}},{"type":"Feature","properties":{"key":"madhya-pradesh/sehore","slug":"sehore","name":"Sehore","state":"madhya-pradesh"},"geometry":{"type":"Polygon","coordinates":[[[77.2206,22.5692],[77.3323,22.5637],[77.7421,22.7603],[77.8476,22.873],[78.028,22.8029],[77.9608,22.9692],[77.6396,22.8386],[77.4362,22.9307],[77.3797,23.0723],[77.2711,23.0943],[77.2145,23.2854],[77.2879,23.4256],[77.2772,23.6002],[77.1671,23.6731],[77.0494,23.4669],[76.8552,23.1081],[76.7741,23.1713],[76.5417,23.1301],[76.4545,22.9225],[76.5753,22.7713],[77.0035,22.8785],[77.1304,22.5554],[77.2206,22.5692]]]}},{"type":"Feature","properties":{"key":"madhya-pradesh/seoni","slug":"seoni","name":"Seoni","state":"madhya-pradesh"},"geometry":{"type":"Polygon","coordinates":[[[79.964,22.8524],[79.7851,22.8469],[79.6291,22.95],[79.4884,22.73],[79.3278,22.6159],[79.2881,22.3272],[79.3997,21.9973],[79.2346,21.7182],[79.4961,21.6742],[79.5098,21.5958],[79.6734,21.6962],[80.0328,22.1815],[80.1001,22.3355],[80.0359,22.6077],[80.0649,22.7616],[79.964,22.8524]]]}},{"type":"Feature","properties":{"key":"madhya-pradesh/shahdol","slug":"shahdol","name":"Shahdol","state":"madhya-pradesh"},"geometry":{"type":"Polygon","coordinates":[[[81.0023,24.0814],[81.2225,23.8546],[81.2485,23.581],[81.3525,23.3542],[81.2516,23.2126],[81.3189,23.104],[81.5176,23.082],[81.6125,23.1988],[81.9137,23.3005],[81.9856,23.4146],[81.9168,23.5343],[81.6109,23.5123],[81.6966,23.7212],[81.6033,23.8848],[81.536,24.0663],[81.3892,24.2656],[81.1858,24.1103],[81.0023,24.0814]]]}},{"type":"Feature","properties":{"key":"madhya-pradesh/shajapur","slug":"shajapur","name":"Shajapur","state":"madhya-pradesh"},"geometry":{"type":"Polygon","coordinates":[[[77.0494,23.4669],[76.9163,23.5136],[76.6931,23.4861],[76.4346,23.6332],[76.1548,23.57],[76.2129,23.4889],[76.1211,23.2442],[76.3643,23.2332],[76.5417,23.1301],[76.7741,23.1713],[76.8552,23.1081],[77.0494,23.4669]]]}},{"type":"Feature","properties":{"key":"madhya-pradesh/sheopur","slug":"sheopur","name":"Sheopur","state":"madhya-pradesh"},"geometry":{"type":"Polygon","coordinates":[[[76.8521,26.0322],[76.7879,25.9442],[76.5463,25.8383],[76.5157,25.5276],[76.5937,25.408],[76.9454,25.2843],[77.083,25.3366],[77.1793,25.5111],[77.3001,25.5345],[77.2772,25.7201],[77.6427,25.8988],[77.4255,26.1229],[77.2527,26.0872],[77.1197,26.2136],[76.8521,26.0322]]]}},{"type":"Feature","properties":{"key":"madhya-pradesh/shivpuri","slug":"shivpuri","name":"Shivpuri","state":"madhya-pradesh"},"geometry":{"type":"Polygon","coordinates":[[[77.6427,25.8988],[77.2772,25.7201],[77.3001,25.5345],[77.1793,25.5111],[77.083,25.3366],[77.3674,25.4108],[77.4118,25.2238],[77.3124,25.0809],[77.3705,24.9255],[77.5647,24.8719],[77.739,24.8568],[77.8308,25.0011],[77.9715,24.8843],[78.1901,24.8416],[78.3736,25.0987],[78.3905,25.206],[78.3446,25.3283],[78.4516,25.5716],[78.2482,25.7215],[78.2956,25.7861],[78.054,25.7091],[77.6962,25.9016],[77.6427,25.8988]]]}},{"type":"Feature","properties":{"key":"madhya-pradesh/sidhi","slug":"sidhi","name":"Sidhi","state":"madhya-pradesh"},"geometry":{"type":"Polygon","coordinates":[[[81.3051,24.322],[81.3892,24.2656],[81.536,24.0663],[81.6033,23.8848],[81.8097,23.8078],[81.9214,23.8711],[82.2088,23.8532],[82.2012,23.9494],[81.9688,24.0127],[81.8785,24.1268],[82.166,24.3577],[82.3036,24.5942],[81.7914,24.5296],[81.3051,24.322]]]}},{"type":"Feature","properties":{"key":"madhya-pradesh/singrauli","slug":"singrauli","name":"Singrauli","state":"madhya-pradesh"},"geometry":{"type":"Polygon","coordinates":[[[82.2975,24.6066],[82.3036,24.5942],[82.166,24.3577],[81.8785,24.1268],[81.9688,24.0127],[82.2012,23.9494],[82.2088,23.8532],[82.4979,23.7845],[82.6936,23.9192],[82.8129,23.9618],[82.7441,24.1653],[82.7976,24.5763],[82.6707,24.6973],[82.5239,24.6767],[82.2975,24.6066]]]}},{"type":"Feature","properties":{"key":"madhya-pradesh/tikamgarh","slug":"tikamgarh","name":"Tikamgarh","state":"madhya-pradesh"},"geometry":{"type":"Polygon","coordinates":[[[78.8798,25.1578],[78.6397,25.0712],[78.6321,24.9571],[78.7697,24.8595],[78.7804,24.7055],[78.8829,24.6409],[78.9853,24.4416],[79.0908,24.6327],[79.3034,24.6877],[79.3447,24.9035],[79.3233,25.1496],[79.1306,25.1097],[79.0633,25.2225],[78.8798,25.1578]]]}},{"type":"Feature","properties":{"key":"madhya-pradesh/ujjain","slug":"ujjain","name":"Ujjain","state":"madhya-pradesh"},"geometry":{"type":"Polygon","coordinates":[[[76.1548,23.57],[75.8811,23.5576],[75.6899,23.7473],[75.199,23.5356],[75.1639,23.3995],[75.2602,23.2676],[75.2419,23.1356],[75.3061,22.9321],[75.4407,22.8675],[75.566,23.0861],[75.6716,23.0146],[75.8979,23.0036],[76.0829,23.0476],[76.1211,23.2442],[76.2129,23.4889],[76.1548,23.57]]]}},{"type":"Feature","properties":{"key":"madhya-pradesh/umaria","slug":"umaria","name":"Umaria","state":"madhya-pradesh"},"geometry":{"type":"Polygon","coordinates":[[[80.958,24.0649],[80.8463,23.9659],[80.906,23.6772],[80.6904,23.7322],[80.5619,23.5672],[80.5436,23.394],[80.5757,23.3514],[80.7255,23.2607],[80.9213,23.284],[81.1262,23.2098],[81.2516,23.2126],[81.3525,23.3542],[81.2485,23.581],[81.2225,23.8546],[81.0023,24.0814],[80.958,24.0649]]]}},{"type":"Feature","properties":{"key":"madhya-pradesh/vidisha","slug":"vidisha","name":"Vidisha","state":"madhya-pradesh"},"geometry":{"type":"Polygon","coordinates":[[[77.3185,23.8903],[77.4745,23.757],[77.6473,23.713],[77.5173,23.5068],[77.7069,23.5645],[77.8109,23.4559],[78.0846,23.4504],[78.2222,23.5274],[78.2926,23.6759],[78.2941,23.9096],[78.184,24.0099],[78.0831,24.2587],[77.6519,24.3137],[77.346,24.1818],[77.2604,24.0677],[77.3185,23.8903]]]}}]}