{"type":"FeatureCollection","features":[{"type":"Feature","properties":{"key":"maharashtra/ahmednagar","slug":"ahmednagar","name":"Ahmednagar","state":"maharashtra"},"geometry":{"type":"Polygon","coordinates":[[[73.6163,19.586],[73.78,19.3866],[74.0307,19.2505],[74.2188,19.2024],[74.1745,19.0319],[74.5782,18.5494],[74.832,18.3349],[75.3122,18.5205],[75.4147,18.5315],[75.5844,18.6965],[75.381,18.7694],[75.2082,18.7391],[75.1562,18.6415],[74.8244,18.9329],[74.9421,19.1337],[75.0706,19.0553],[75.2847,19.0347],[75.5202,19.278],[75.4758,19.4265],[75.1532,19.5887],[74.884,19.6561],[74.7173,19.7798],[74.6699,19.9461],[74.3182,19.9846],[74.3733,19.8018],[74.1668,19.7303],[74.1194,19.6409],[73.9252,19.6726],[73.6163,19.586]]]}},{"type":"Feature","properties":{"key":"maharashtra/akola","slug":"akola","name":"Akola","state":"maharashtra"},"geometry":{"type":"Polygon","coordinates":[[[76.82,20.2802],[77.0142,20.4122],[77.1824,20.3984],[77.3399,20.5758],[77.6106,20.7188],[77.5295,20.8494],[77.1289,20.8631],[77.1671,21.2425],[76.7833,21.193],[76.7741,20.7751],[76.7084,20.5002],[76.82,20.2802]]]}},{"type":"Feature","properties":{"key":"maharashtra/amravati","slug":"amravati","name":"Amravati","state":"maharashtra"},"geometry":{"type":"Polygon","coordinates":[[[76.6625,21.281],[76.7833,21.193],[77.1671,21.2425],[77.1289,20.8631],[77.5295,20.8494],[77.6106,20.7188],[77.6503,20.5648],[77.7788,20.54],[78.2742,20.6926],[78.2574,20.8865],[78.1427,20.9538],[78.1443,21.1394],[78.0785,21.3553],[78.2513,21.3305],[78.447,21.4034],[78.4333,21.4969],[78.3431,21.589],[78.0296,21.4213],[77.4882,21.3745],[77.5754,21.5271],[77.4791,21.7704],[77.0616,21.7127],[76.7818,21.5587],[76.6625,21.281]]]}},{"type":"Feature","properties":{"key":"maharashtra/aurangabad","slug":"aurangabad","name":"Aurangabad","state":"maharashtra"},"geometry":{"type":"Polygon","coordinates":[[[74.9345,20.2706],[74.7143,20.1345],[74.6699,19.9461],[74.7173,19.7798],[74.884,19.6561],[75.1532,19.5887],[75.4758,19.4265],[75.6058,19.3852],[75.6547,19.5695],[75.6547,19.9077],[75.592,20.0066],[75.7648,20.4521],[75.9759,20.5318],[76.0065,20.6473],[75.8245,20.5552],[75.7541,20.6129],[75.5278,20.5552],[75.2572,20.5758],[75.2266,20.4947],[74.9345,20.2706]]]}},{"type":"Feature","properties":{"key":"maharashtra/beed","slug":"beed","name":"Beed","state":"maharashtra"},"geometry":{"type":"Polygon","coordinates":[[[75.6058,19.3852],[75.4758,19.4265],[75.5202,19.278],[75.2847,19.0347],[75.0706,19.0553],[74.9421,19.1337],[74.8244,18.9329],[75.1562,18.6415],[75.2082,18.7391],[75.381,18.7694],[75.5844,18.6965],[75.9392,18.6415],[76.0569,18.5714],[76.2741,18.559],[76.4958,18.6126],[76.7221,18.7501],[76.4774,18.9536],[76.3612,19.157],[76.2083,19.2739],[75.9438,19.2918],[75.9116,19.3921],[75.6058,19.3852]]]}},{"type":"Feature","properties":{"key":"maharashtra/bhandara","slug":"bhandara","name":"Bhandara","state":"maharashtra"},"geometry":{"type":"Polygon","coordinates":[[[79.9181,21.5244],[79.7392,21.6027],[79.5389,21.5409],[79.4762,21.4281],[79.5756,21.2769],[79.5511,21.171],[79.6551,20.9648],[79.519,20.7146],[79.6612,20.6665],[79.9334,20.6734],[79.9823,20.6775],[79.8631,20.782],[79.9395,20.9566],[80.071,20.9566],[80.0634,21.2013],[79.8248,21.2728],[79.7958,21.3759],[79.9181,21.5244]]]}},{"type":"Feature","properties":{"key":"maharashtra/buldhana","slug":"buldhana","name":"Buldhana","state":"maharashtra"},"geometry":{"type":"Polygon","coordinates":[[[76.3826,21.0762],[76.3459,20.9511],[76.164,21.0363],[75.985,20.7614],[76.0065,20.6473],[75.9759,20.5318],[75.9667,20.3696],[76.141,20.3008],[76.0951,20.096],[75.9636,19.9984],[76.0982,19.8568],[76.4943,19.92],[76.5371,19.8485],[76.6395,19.8664],[76.6686,20.1262],[76.82,20.2802],[76.7084,20.5002],[76.7741,20.7751],[76.7833,21.193],[76.6625,21.281],[76.3826,21.0762]]]}},{"type":"Feature","properties":{"key":"maharashtra/chandrapur","slug":"chandrapur","name":"Chandrapur","state":"maharashtra"},"geometry":{"type":"Polygon","coordinates":[[[79.519,20.7146],[79.2208,20.5827],[79.1321,20.4576],[78.8171,20.3971],[78.7988,20.2995],[78.9211,20.2541],[79.1076,20.0094],[79.0725,19.8183],[78.8416,19.7619],[78.9364,19.5502],[79.2529,19.5928],[79.4716,19.5007],[79.7438,19.6093],[79.8065,19.5791],[79.7377,19.8155],[79.99,20.0451],[79.9334,20.6734],[79.6612,20.6665],[79.519,20.7146]]]}},{"type":"Feature","properties":{"key":"maharashtra/dhule","slug":"dhule","name":"Dhule","state":"maharashtra"},"geometry":{"type":"Polygon","coordinates":[[[75.2113,21.4116],[75.0522,21.567],[74.7755,21.6151],[74.6883,21.4103],[74.5017,21.4158],[74.3381,21.2288],[74.1194,21.2137],[73.8488,20.9992],[73.8488,20.9978],[73.8885,20.9332],[73.942,20.8397],[74.1577,20.8617],[74.5384,20.837],[74.6501,20.694],[74.8122,20.6321],[74.9865,20.738],[74.9131,20.9277],[74.8947,21.1491],[75.0369,21.1917],[75.2113,21.4116]]]}},{"type":"Feature","properties":{"key":"maharashtra/gadchiroli","slug":"gadchiroli","name":"Gadchiroli","state":"maharashtra"},"geometry":{"type":"Polygon","coordinates":[[[79.9823,20.6775],[79.9334,20.6734],[79.99,20.0451],[79.7377,19.8155],[79.8065,19.5791],[79.9778,19.399],[79.9288,19.1584],[79.9609,18.8656],[79.9135,18.8257],[80.1184,18.68],[80.2759,18.7199],[80.3493,18.8477],[80.2714,18.9426],[80.4824,19.3371],[80.7515,19.2876],[80.8524,19.3646],[80.8953,19.52],[80.672,19.7028],[80.4686,19.8265],[80.5451,20.1001],[80.3952,20.2445],[80.6261,20.3324],[80.5619,20.8232],[80.3325,20.8205],[80.2423,20.6555],[79.9823,20.6775]]]}},{"type":"Feature","properties":{"key":"maharashtra/gondia","slug":"gondia","name":"Gondia","state":"maharashtra"},"geometry":{"type":"Polygon","coordinates":[[[80.6613,21.3333],[80.4227,21.4405],[80.2683,21.6178],[79.9181,21.5244],[79.7958,21.3759],[79.8248,21.2728],[80.0634,21.2013],[80.071,20.9566],[79.9395,20.9566],[79.8631,20.782],[79.9823,20.6775],[80.2423,20.6555],[80.3325,20.8205],[80.5619,20.8232],[80.464,20.9291],[80.464,21.1752],[80.6613,21.3333]]]}},{"type":"Feature","properties":{"key":"maharashtra/hingoli","slug":"hingoli","name":"Hingoli","state":"maharashtra"},"geometry":{"type":"Polygon","coordinates":[[[76.5371,19.8485],[76.5126,19.8252],[76.9117,19.6423],[76.849,19.509],[77.0845,19.1089],[77.4699,19.4925],[77.4577,19.6822],[77.2849,19.909],[77.0356,20.008],[76.6395,19.8664],[76.5371,19.8485]]]}},{"type":"Feature","properties":{"key":"maharashtra/jalgaon","slug":"jalgaon","name":"Jalgaon","state":"maharashtra"},"geometry":{"type":"Polygon","coordinates":[[[75.9866,21.369],[75.6089,21.3896],[75.2113,21.4116],[75.0369,21.1917],[74.8947,21.1491],[74.9131,20.9277],[74.9865,20.738],[74.8122,20.6321],[74.8015,20.4452],[74.9345,20.2706],[75.2266,20.4947],[75.2572,20.5758],[75.5278,20.5552],[75.7541,20.6129],[75.8245,20.5552],[76.0065,20.6473],[75.985,20.7614],[76.164,21.0363],[76.3459,20.9511],[76.3826,21.0762],[76.167,21.0789],[76.1594,21.2549],[75.9866,21.369]]]}},{"type":"Feature","properties":{"key":"maharashtra/jalna","slug":"jalna","name":"Jalna","state":"maharashtra"},"geometry":{"type":"Polygon","coordinates":[[[75.9759,20.5318],[75.7648,20.4521],[75.592,20.0066],[75.6547,19.9077],[75.6547,19.5695],[75.6058,19.3852],[75.9116,19.3921],[75.9438,19.2918],[76.2083,19.2739],[76.2878,19.4334],[76.4423,19.5406],[76.5126,19.8252],[76.5371,19.8485],[76.4943,19.92],[76.0982,19.8568],[75.9636,19.9984],[76.0951,20.096],[76.141,20.3008],[75.9667,20.3696],[75.9759,20.5318]]]}},{"type":"Feature","properties":{"key":"maharashtra/kolhapur","slug":"kolhapur","name":"Kolhapur","state":"maharashtra"},"geometry":{"type":"Polygon","coordinates":[[[73.8518,16.6481],[73.887,16.4488],[73.8319,16.3443],[73.9084,16.1367],[74.2097,15.7806],[74.3458,15.7641],[74.4635,16.0391],[74.4803,16.2494],[74.3167,16.3264],[74.3152,16.5546],[74.6959,16.7155],[74.4742,16.8681],[74.0659,16.9024],[73.8488,17.1513],[73.7066,17.1705],[73.8319,17.0248],[73.7096,16.8296],[73.8518,16.6481]]]}},{"type":"Feature","properties":{"key":"maharashtra/latur","slug":"latur","name":"Latur","state":"maharashtra"},"geometry":{"type":"Polygon","coordinates":[[[76.9897,18.8285],[76.7221,18.7501],[76.4958,18.6126],[76.2741,18.559],[76.3169,18.3294],[76.2786,18.1095],[76.4255,18.0339],[76.5982,18.0311],[76.7405,17.8991],[76.9194,17.9156],[76.9515,18.1878],[77.0647,18.1507],[77.265,18.4229],[77.268,18.6126],[77.0463,18.6827],[76.9897,18.8285]]]}},{"type":"Feature","properties":{"key":"maharashtra/mumbai","slug":"mumbai","name":"Mumbai","state":"maharashtra"},"geometry":{"type":"Polygon","coordinates":[[[72.8364,18.8642],[72.9557,18.9879],[72.9802,19.1543],[72.7845,19.2643],[72.8364,18.8642]]]}},{"type":"Feature","properties":{"key":"maharashtra/nagpur","slug":"nagpur","name":"Nagpur","state":"maharashtra"},"geometry":{"type":"Polygon","coordinates":[[[79.5389,21.5409],[79.5098,21.5958],[79.4961,21.6742],[79.2346,21.7182],[79.2239,21.6481],[78.9165,21.5903],[78.8997,21.501],[78.4333,21.4969],[78.447,21.4034],[78.2513,21.3305],[78.4455,21.237],[78.9425,20.7682],[79.2208,20.5827],[79.519,20.7146],[79.6551,20.9648],[79.5511,21.171],[79.5756,21.2769],[79.4762,21.4281],[79.5389,21.5409]]]}},{"type":"Feature","properties":{"key":"maharashtra/nanded","slug":"nanded","name":"Nanded","state":"maharashtra"},"geometry":{"type":"Polygon","coordinates":[[[77.4577,19.6822],[77.4699,19.4925],[77.0845,19.1089],[76.9897,18.8285],[77.0463,18.6827],[77.268,18.6126],[77.265,18.4229],[77.5509,18.2923],[77.5968,18.5494],[77.739,18.5563],[77.8399,18.8051],[77.9485,18.8436],[77.843,18.9082],[77.7971,19.0732],[77.8629,19.3041],[78.1932,19.3165],[78.3094,19.4815],[78.2758,19.6918],[78.3645,19.7812],[78.3064,19.9118],[77.9531,19.909],[77.8629,19.7454],[78.0311,19.6918],[78.1886,19.5585],[78.0678,19.4581],[77.9072,19.5337],[77.7987,19.4499],[77.606,19.6478],[77.4577,19.6822]]]}},{"type":"Feature","properties":{"key":"maharashtra/nandurbar","slug":"nandurbar","name":"Nandurbar","state":"maharashtra"},"geometry":{"type":"Polygon","coordinates":[[[73.8488,20.9992],[74.1194,21.2137],[74.3381,21.2288],[74.5017,21.4158],[74.6883,21.4103],[74.7755,21.6151],[74.5048,21.7265],[74.5247,21.912],[74.4329,22.0303],[74.2815,21.934],[74.147,21.9505],[73.939,21.8735],[73.835,21.5202],[73.9818,21.5216],[74.046,21.446],[73.8151,21.1738],[73.8075,21.0088],[73.8488,20.9992]]]}},{"type":"Feature","properties":{"key":"maharashtra/nashik","slug":"nashik","name":"Nashik","state":"maharashtra"},"geometry":{"type":"Polygon","coordinates":[[[74.8122,20.6321],[74.6501,20.694],[74.5384,20.837],[74.1577,20.8617],[73.942,20.8397],[73.8381,20.6211],[73.7448,20.5648],[73.4741,20.7201],[73.4068,20.6239],[73.468,20.496],[73.4038,20.3861],[73.416,20.2046],[73.2493,20.1221],[73.4068,20.019],[73.4848,19.7248],[73.6163,19.586],[73.9252,19.6726],[74.1194,19.6409],[74.1668,19.7303],[74.3733,19.8018],[74.3182,19.9846],[74.6699,19.9461],[74.7143,20.1345],[74.9345,20.2706],[74.8015,20.4452],[74.8122,20.6321]]]}},{"type":"Feature","properties":{"key":"maharashtra/osmanabad","slug":"osmanabad","name":"Osmanabad","state":"maharashtra"},"geometry":{"type":"Polygon","coordinates":[[[75.3122,18.5205],[75.303,18.4353],[75.4376,18.2043],[75.5691,18.2359],[75.7052,18.3954],[75.8964,18.3583],[76.0187,17.8276],[76.1655,17.6998],[76.4285,17.6434],[76.5233,17.7603],[76.6854,17.6819],[76.7405,17.8991],[76.5982,18.0311],[76.4255,18.0339],[76.2786,18.1095],[76.3169,18.3294],[76.2741,18.559],[76.0569,18.5714],[75.9392,18.6415],[75.5844,18.6965],[75.4147,18.5315],[75.3122,18.5205]]]}},{"type":"Feature","properties":{"key":"maharashtra/palghar","slug":"palghar","name":"Palghar","state":"maharashtra"},"geometry":{"type":"Polygon","coordinates":[[[73.2111,20.1207],[72.9649,20.1276],[72.9618,20.2087],[72.7753,20.1317],[72.6545,19.8362],[72.7982,19.3041],[73.2111,19.5612],[73.286,19.6932],[73.4848,19.7248],[73.4068,20.019],[73.2493,20.1221],[73.2111,20.1207]]]}},{"type":"Feature","properties":{"key":"maharashtra/parbhani","slug":"parbhani","name":"Parbhani","state":"maharashtra"},"geometry":{"type":"Polygon","coordinates":[[[76.2083,19.2739],[76.3612,19.157],[76.4774,18.9536],[76.7221,18.7501],[76.9897,18.8285],[77.0845,19.1089],[76.849,19.509],[76.9117,19.6423],[76.5126,19.8252],[76.4423,19.5406],[76.2878,19.4334],[76.2083,19.2739]]]}},{"type":"Feature","properties":{"key":"maharashtra/pune","slug":"pune","name":"Pune","state":"maharashtra"},"geometry":{"type":"Polygon","coordinates":[[[73.78,19.3866],[73.5261,19.1295],[73.5322,19.0306],[73.3686,18.7955],[73.4206,18.3033],[73.653,18.1727],[73.6576,18.0297],[73.8579,18.0311],[73.9053,18.159],[74.4604,18.0462],[74.7097,18.0297],[75.0522,17.9046],[75.0217,18.1892],[74.832,18.3349],[74.5782,18.5494],[74.1745,19.0319],[74.2188,19.2024],[74.0307,19.2505],[73.78,19.3866]]]}},{"type":"Feature","properties":{"key":"maharashtra/raigad","slug":"raigad","name":"Raigad","state":"maharashtra"},"geometry":{"type":"Polygon","coordinates":[[[73.5261,19.1295],[73.2509,19.0608],[73.0475,19.0979],[72.9557,18.9879],[72.8364,18.8642],[72.9343,18.5411],[72.8946,18.4628],[73.0444,17.9816],[73.2876,18.071],[73.3732,17.9253],[73.572,17.8758],[73.6576,18.0297],[73.653,18.1727],[73.4206,18.3033],[73.3686,18.7955],[73.5322,19.0306],[73.5261,19.1295]]]}},{"type":"Feature","properties":{"key":"maharashtra/ratnagiri","slug":"ratnagiri","name":"Ratnagiri","state":"maharashtra"},"geometry":{"type":"Polygon","coordinates":[[[73.572,17.8758],[73.3732,17.9253],[73.2876,18.071],[73.0444,17.9816],[73.1775,17.5829],[73.1836,17.385],[73.2891,17.1155],[73.2769,16.8914],[73.3472,16.5299],[73.468,16.4941],[73.8518,16.6481],[73.7096,16.8296],[73.8319,17.0248],[73.7066,17.1705],[73.6943,17.2612],[73.6668,17.3918],[73.7448,17.5554],[73.5689,17.7245],[73.572,17.8758]]]}},{"type":"Feature","properties":{"key":"maharashtra/sangli","slug":"sangli","name":"Sangli","state":"maharashtra"},"geometry":{"type":"Polygon","coordinates":[[[74.907,17.6269],[74.806,17.4537],[74.6852,17.3946],[74.2846,17.4207],[74.2464,17.1416],[74.0307,17.0908],[73.6943,17.2612],[73.7066,17.1705],[73.8488,17.1513],[74.0659,16.9024],[74.4742,16.8681],[74.6959,16.7155],[75.0889,16.9519],[75.1822,16.8433],[75.3413,16.9561],[75.6654,16.9794],[75.6043,17.3052],[75.2388,17.2159],[74.8856,17.2214],[75.0354,17.4193],[74.907,17.6269]]]}},{"type":"Feature","properties":{"key":"maharashtra/satara","slug":"satara","name":"Satara","state":"maharashtra"},"geometry":{"type":"Polygon","coordinates":[[[73.6576,18.0297],[73.572,17.8758],[73.5689,17.7245],[73.7448,17.5554],[73.6668,17.3918],[73.6943,17.2612],[74.0307,17.0908],[74.2464,17.1416],[74.2846,17.4207],[74.6852,17.3946],[74.806,17.4537],[74.907,17.6269],[74.8687,17.7259],[74.6363,17.873],[74.7097,18.0297],[74.4604,18.0462],[73.9053,18.159],[73.8579,18.0311],[73.6576,18.0297]]]}},{"type":"Feature","properties":{"key":"maharashtra/sindhudurg","slug":"sindhudurg","name":"Sindhudurg","state":"maharashtra"},"geometry":{"type":"Polygon","coordinates":[[[73.3472,16.5299],[73.5108,15.9374],[73.6851,15.7284],[73.939,15.7421],[74.1179,15.6514],[74.2097,15.7806],[73.9084,16.1367],[73.8319,16.3443],[73.887,16.4488],[73.8518,16.6481],[73.468,16.4941],[73.3472,16.5299]]]}},{"type":"Feature","properties":{"key":"maharashtra/solapur","slug":"solapur","name":"Solapur","state":"maharashtra"},"geometry":{"type":"Polygon","coordinates":[[[74.832,18.3349],[75.0217,18.1892],[75.0522,17.9046],[74.7097,18.0297],[74.6363,17.873],[74.8687,17.7259],[74.907,17.6269],[75.0354,17.4193],[74.8856,17.2214],[75.2388,17.2159],[75.6043,17.3052],[75.6333,17.4771],[75.9315,17.3231],[76.0753,17.3369],[76.3826,17.3149],[76.3322,17.5967],[76.4285,17.6434],[76.1655,17.6998],[76.0187,17.8276],[75.8964,18.3583],[75.7052,18.3954],[75.5691,18.2359],[75.4376,18.2043],[75.303,18.4353],[75.3122,18.5205],[74.832,18.3349]]]}},{"type":"Feature","properties":{"key":"maharashtra/thane","slug":"thane","name":"Thane","state":"maharashtra"},"geometry":{"type":"Polygon","coordinates":[[[73.4848,19.7248],[73.286,19.6932],[73.2111,19.5612],[72.7982,19.3041],[72.7845,19.2643],[72.9802,19.1543],[72.9557,18.9879],[73.0475,19.0979],[73.2509,19.0608],[73.5261,19.1295],[73.78,19.3866],[73.6163,19.586],[73.4848,19.7248]]]}},{"type":"Feature","properties":{"key":"maharashtra/wardha","slug":"wardha","name":"Wardha","state":"maharashtra"},"geometry":{"type":"Polygon","coordinates":[[[78.2513,21.3305],[78.0785,21.3553],[78.1443,21.1394],[78.1427,20.9538],[78.2574,20.8865],[78.2742,20.6926],[78.262,20.5785],[78.5082,20.5249],[78.7988,20.2995],[78.8171,20.3971],[79.1321,20.4576],[79.2208,20.5827],[78.9425,20.7682],[78.4455,21.237],[78.2513,21.3305]]]}},{"type":"Feature","properties":{"key":"maharashtra/washim","slug":"washim","name":"Washim","state":"maharashtra"},"geometry":{"type":"Polygon","coordinates":[[[76.6395,19.8664],[77.0356,20.008],[77.2849,19.909],[77.372,20.0465],[77.6702,20.1015],[77.5739,20.3998],[77.6503,20.5648],[77.6106,20.7188],[77.3399,20.5758],[77.1824,20.3984],[77.0142,20.4122],[76.82,20.2802],[76.6686,20.1262],[76.6395,19.8664]]]}},{"type":"Feature","properties":{"key":"maharashtra/yavatmal","slug":"yavatmal","name":"Yavatmal","state":"maharashtra"},"geometry":{"type":"Polygon","coordinates":[[[78.2742,20.6926],[77.7788,20.54],[77.6503,20.5648],[77.5739,20.3998],[77.6702,20.1015],[77.372,20.0465],[77.2849,19.909],[77.4577,19.6822],[77.606,19.6478],[77.7987,19.4499],[77.9072,19.5337],[78.0678,19.4581],[78.1886,19.5585],[78.0311,19.6918],[77.8629,19.7454],[77.9531,19.909],[78.3064,19.9118],[78.4317,19.8142],[78.8416,19.7619],[79.0725,19.8183],[79.1076,20.0094],[78.9211,20.2541],[78.7988,20.2995],[78.5082,20.5249],[78.262,20.5785],[78.2742,20.6926]]]}}]}