{"type":"FeatureCollection","features":[{"type":"Feature","properties":{"key":"manipur/bishnupur","slug":"bishnupur","name":"Bishnupur","state":"manipur"},"geometry":{"type":"Polygon","coordinates":[[[93.7695,24.7344],[93.7374,24.6244],[93.7343,24.6176],[93.6976,24.4251],[93.8658,24.2931],[93.8689,24.5268],[93.7695,24.7344]]]}},{"type":"Feature","properties":{"key":"manipur/chandel","slug":"chandel","name":"Chandel","state":"manipur"},"geometry":{"type":"Polygon","coordinates":[[[93.8628,24.2079],[93.7404,24.0058],[93.8077,23.9261],[94.0172,23.9274],[94.1564,23.8477],[94.2527,24.1144],[94.1472,24.3825],[94.0386,24.4485],[93.8918,24.3509],[93.8628,24.2079]]]}},{"type":"Feature","properties":{"key":"manipur/churachandpur","slug":"churachandpur","name":"Churachandpur","state":"manipur"},"geometry":{"type":"Polygon","coordinates":[[[93.8658,24.2931],[93.6976,24.4251],[93.7343,24.6176],[93.3887,24.5681],[93.3658,24.3839],[93.479,24.2491],[93.378,24.0883],[93.5049,23.9426],[93.7404,24.0058],[93.8628,24.2079],[93.8658,24.2931]]]}},{"type":"Feature","properties":{"key":"manipur/imphal-east","slug":"imphal-east","name":"Imphal East","state":"manipur"},"geometry":{"type":"Polygon","coordinates":[[[93.9423,24.7193],[94.0799,24.689],[94.1197,24.92],[93.9148,24.9104],[93.9423,24.7193]]]}},{"type":"Feature","properties":{"key":"manipur/imphal-west","slug":"imphal-west","name":"Imphal West","state":"manipur"},"geometry":{"type":"Polygon","coordinates":[[[93.9148,24.9104],[93.7695,24.7344],[93.8689,24.5268],[93.9132,24.5543],[93.9423,24.7193],[93.9148,24.9104]]]}},{"type":"Feature","properties":{"key":"manipur/jiribam","slug":"jiribam","name":"Jiribam","state":"manipur"},"geometry":{"type":"Polygon","coordinates":[[[93.1746,24.7977],[93.0875,24.5722],[93.1777,24.5364],[93.2144,24.6973],[93.1746,24.7977]]]}},{"type":"Feature","properties":{"key":"manipur/kakching","slug":"kakching","name":"Kakching","state":"manipur"},"geometry":{"type":"Polygon","coordinates":[[[93.8689,24.5268],[93.8658,24.2931],[93.8628,24.2079],[93.8918,24.3509],[94.0386,24.4485],[94.0233,24.52],[93.9132,24.5543],[93.8689,24.5268]]]}},{"type":"Feature","properties":{"key":"manipur/kamjong","slug":"kamjong","name":"Kamjong","state":"manipur"},"geometry":{"type":"Polygon","coordinates":[[[94.1732,24.6313],[94.3751,24.4938],[94.6289,24.7564],[94.7436,25.0369],[94.6534,25.1152],[94.531,25.0341],[94.1671,24.9269],[94.1732,24.6313]]]}},{"type":"Feature","properties":{"key":"manipur/kangpokpi","slug":"kangpokpi","name":"Kangpokpi","state":"manipur"},"geometry":{"type":"Polygon","coordinates":[[[94.1671,24.9269],[94.1319,25.118],[94.2145,25.1757],[93.9973,25.1922],[93.9209,25.3957],[93.9025,25.2719],[93.7726,25.1537],[93.8169,25.0231],[93.7573,24.7922],[93.7374,24.6244],[93.7695,24.7344],[93.9148,24.9104],[94.1197,24.92],[94.0799,24.689],[94.1197,24.6258],[94.1732,24.6313],[94.1671,24.9269]]]}},{"type":"Feature","properties":{"key":"manipur/noney","slug":"noney","name":"Noney","state":"manipur"},"geometry":{"type":"Polygon","coordinates":[[[93.2144,24.6973],[93.1777,24.5364],[93.3887,24.5681],[93.7343,24.6176],[93.7374,24.6244],[93.7573,24.7922],[93.4071,24.8251],[93.2144,24.6973]]]}},{"type":"Feature","properties":{"key":"manipur/pherzawl","slug":"pherzawl","name":"Pherzawl","state":"manipur"},"geometry":{"type":"Polygon","coordinates":[[[93.2068,24.047],[93.2526,24.0209],[93.378,24.0883],[93.479,24.2491],[93.3658,24.3839],[93.3887,24.5681],[93.1777,24.5364],[93.0875,24.5722],[93.0095,24.4127],[92.9759,24.1158],[93.2068,24.047]]]}},{"type":"Feature","properties":{"key":"manipur/senapati","slug":"senapati","name":"Senapati","state":"manipur"},"geometry":{"type":"Polygon","coordinates":[[[93.8047,25.463],[93.9209,25.3957],[93.9973,25.1922],[94.2145,25.1757],[94.3781,25.3572],[94.4882,25.6046],[94.4163,25.5359],[94.19,25.5483],[93.9362,25.5593],[93.8047,25.463]]]}},{"type":"Feature","properties":{"key":"manipur/tamenglong","slug":"tamenglong","name":"Tamenglong","state":"manipur"},"geometry":{"type":"Polygon","coordinates":[[[93.2465,24.9722],[93.1746,24.7977],[93.2144,24.6973],[93.4071,24.8251],[93.7573,24.7922],[93.8169,25.0231],[93.7726,25.1537],[93.9025,25.2719],[93.9209,25.3957],[93.8047,25.463],[93.6059,25.1991],[93.4698,25.3063],[93.3811,25.2403],[93.2465,24.9722]]]}},{"type":"Feature","properties":{"key":"manipur/tengnoupal","slug":"tengnoupal","name":"Tengnoupal","state":"manipur"},"geometry":{"type":"Polygon","coordinates":[[[94.1732,24.6313],[94.1197,24.6258],[94.0233,24.52],[94.0386,24.4485],[94.1472,24.3825],[94.2527,24.1144],[94.4072,24.4375],[94.3751,24.4938],[94.1732,24.6313]]]}},{"type":"Feature","properties":{"key":"manipur/thoubal","slug":"thoubal","name":"Thoubal","state":"manipur"},"geometry":{"type":"Polygon","coordinates":[[[93.9132,24.5543],[94.0233,24.52],[94.1197,24.6258],[94.0799,24.689],[93.9423,24.7193],[93.9132,24.5543]]]}},{"type":"Feature","properties":{"key":"manipur/ukhrul","slug":"ukhrul","name":"Ukhrul","state":"manipur"},"geometry":{"type":"Polygon","coordinates":[[[94.6534,25.1152],[94.5754,25.2142],[94.6748,25.4452],[94.4882,25.6046],[94.3781,25.3572],[94.2145,25.1757],[94.1319,25.118],[94.1671,24.9269],[94.531,25.0341],[94.6534,25.1152]]]}}]}