{"type":"FeatureCollection","features":[{"type":"Feature","properties":{"key":"meghalaya/east-garo-hills","slug":"east-garo-hills","name":"East Garo Hills","state":"meghalaya"},"geometry":{"type":"Polygon","coordinates":[[[90.942,25.7545],[90.8319,25.8191],[90.5001,25.7187],[90.4007,25.7586],[90.39,25.5469],[90.3197,25.4644],[90.6438,25.4163],[90.7616,25.5524],[90.942,25.7545]]]}},{"type":"Feature","properties":{"key":"meghalaya/east-jaintia-hills","slug":"east-jaintia-hills","name":"East Jaintia Hills","state":"meghalaya"},"geometry":{"type":"Polygon","coordinates":[[[92.5691,25.4658],[92.1746,25.3544],[92.199,25.1248],[92.4253,25.03],[92.54,25.0987],[92.7923,25.2829],[92.5691,25.4658]]]}},{"type":"Feature","properties":{"key":"meghalaya/east-khasi-hills","slug":"east-khasi-hills","name":"East Khasi Hills","state":"meghalaya"},"geometry":{"type":"Polygon","coordinates":[[[91.829,25.6734],[91.5461,25.4823],[91.5476,25.2871],[91.3549,25.2334],[91.4925,25.1345],[91.6026,25.1743],[92.017,25.1895],[92.1119,25.3063],[92.1317,25.6404],[91.829,25.6734]]]}},{"type":"Feature","properties":{"key":"meghalaya/north-garo-hills","slug":"north-garo-hills","name":"North Garo Hills","state":"meghalaya"},"geometry":{"type":"Polygon","coordinates":[[[91.0261,25.8865],[90.9481,25.9483],[90.6316,25.9195],[90.4343,25.9909],[90.4007,25.7586],[90.5001,25.7187],[90.8319,25.8191],[90.942,25.7545],[91.0078,25.8246],[91.0261,25.8865]]]}},{"type":"Feature","properties":{"key":"meghalaya/ribhoi","slug":"ribhoi","name":"Ribhoi","state":"meghalaya"},"geometry":{"type":"Polygon","coordinates":[[[92.173,26.0762],[91.7234,26.0349],[91.5797,26.0336],[91.4451,25.8397],[91.335,25.8411],[91.4589,25.7888],[91.7877,25.7902],[91.829,25.6734],[92.1317,25.6404],[92.1516,25.672],[92.1639,25.9703],[92.274,26.0652],[92.173,26.0762]]]}},{"type":"Feature","properties":{"key":"meghalaya/south-garo-hills","slug":"south-garo-hills","name":"South Garo Hills","state":"meghalaya"},"geometry":{"type":"Polygon","coordinates":[[[90.7616,25.5524],[90.6438,25.4163],[90.3197,25.4644],[90.234,25.2032],[90.5108,25.1688],[90.9696,25.173],[90.8396,25.3077],[90.7478,25.3792],[90.7616,25.5524]]]}},{"type":"Feature","properties":{"key":"meghalaya/south-west-garo-hills","slug":"south-west-garo-hills","name":"South West Garo Hills","state":"meghalaya"},"geometry":{"type":"Polygon","coordinates":[[[90.0199,25.6074],[89.8716,25.4768],[89.8349,25.2967],[89.9741,25.2994],[90.1514,25.375],[90.1713,25.5441],[90.0199,25.6074]]]}},{"type":"Feature","properties":{"key":"meghalaya/south-west-khasi-hills","slug":"south-west-khasi-hills","name":"South West Khasi Hills","state":"meghalaya"},"geometry":{"type":"Polygon","coordinates":[[[90.8396,25.3077],[90.9696,25.173],[91.3549,25.2334],[91.5476,25.2871],[91.5461,25.4823],[91.1684,25.4658],[91.0246,25.3379],[90.8396,25.3077]]]}},{"type":"Feature","properties":{"key":"meghalaya/west-garo-hills","slug":"west-garo-hills","name":"West Garo Hills","state":"meghalaya"},"geometry":{"type":"Polygon","coordinates":[[[90.1224,25.9593],[89.8991,25.727],[90.0199,25.6074],[90.1713,25.5441],[90.1514,25.375],[89.9741,25.2994],[90.234,25.2032],[90.3197,25.4644],[90.39,25.5469],[90.4007,25.7586],[90.4343,25.9909],[90.1224,25.9593]]]}},{"type":"Feature","properties":{"key":"meghalaya/west-jaintia-hills","slug":"west-jaintia-hills","name":"West Jaintia Hills","state":"meghalaya"},"geometry":{"type":"Polygon","coordinates":[[[92.1317,25.6404],[92.1119,25.3063],[92.017,25.1895],[92.199,25.1248],[92.1746,25.3544],[92.5691,25.4658],[92.6608,25.5716],[92.4437,25.7201],[92.1516,25.672],[92.1317,25.6404]]]}},{"type":"Feature","properties":{"key":"meghalaya/west-khasi-hills","slug":"west-khasi-hills","name":"West Khasi Hills","state":"meghalaya"},"geometry":{"type":"Polygon","coordinates":[[[91.0078,25.8246],[90.942,25.7545],[90.7616,25.5524],[90.7478,25.3792],[90.8396,25.3077],[91.0246,25.3379],[91.1684,25.4658],[91.5461,25.4823],[91.829,25.6734],[91.7877,25.7902],[91.4589,25.7888],[91.335,25.8411],[91.0078,25.8246]]]}}]}