{"type":"FeatureCollection","features":[{"type":"Feature","properties":{"key":"mizoram/aizawl","slug":"aizawl","name":"Aizawl","state":"mizoram"},"geometry":{"type":"Polygon","coordinates":[[[93.0447,23.4105],[93.0462,23.6662],[93.1502,23.8106],[93.2068,24.047],[92.9759,24.1158],[93.0095,24.4127],[92.8963,24.3907],[92.8474,24.0264],[92.6272,23.9536],[92.6731,23.383],[92.6899,23.328],[92.7816,23.2992],[92.881,23.5191],[93.0447,23.4105]]]}},{"type":"Feature","properties":{"key":"mizoram/champhai","slug":"champhai","name":"Champhai","state":"mizoram"},"geometry":{"type":"MultiPolygon","coordinates":[[[[93.0462,23.6662],[93.2786,23.658],[93.3903,23.4971],[93.427,23.6497],[93.3964,23.9261],[93.2526,24.0209],[93.2068,24.047],[93.1502,23.8106],[93.0462,23.6662]]],[[[93.1961,23.0558],[93.3,23.005],[93.3918,23.2208],[93.3581,23.3308],[93.2664,23.3885],[93.0416,23.3074],[93.1961,23.0558]]]]}},{"type":"Feature","properties":{"key":"mizoram/hnahthial","slug":"hnahthial","name":"Hnahthial","state":"mizoram"},"geometry":{"type":"Polygon","coordinates":[[[92.9208,22.7809],[93.0967,22.7864],[93.1227,23.0063],[92.8642,23.1754],[92.9208,22.7809]]]}},{"type":"Feature","properties":{"key":"mizoram/khawzawl","slug":"khawzawl","name":"Khawzawl","state":"mizoram"},"geometry":{"type":"Polygon","coordinates":[[[93.0447,23.4105],[93.0416,23.3074],[93.2664,23.3885],[93.3581,23.3308],[93.3903,23.4971],[93.2786,23.658],[93.0462,23.6662],[93.0447,23.4105]]]}},{"type":"Feature","properties":{"key":"mizoram/kolasib","slug":"kolasib","name":"Kolasib","state":"mizoram"},"geometry":{"type":"Polygon","coordinates":[[[92.8963,24.3907],[92.7618,24.5131],[92.5324,24.1776],[92.6272,23.9536],[92.8474,24.0264],[92.8963,24.3907]]]}},{"type":"Feature","properties":{"key":"mizoram/lawngtlai","slug":"lawngtlai","name":"Lawngtlai","state":"mizoram"},"geometry":{"type":"Polygon","coordinates":[[[92.9346,22.5541],[92.7556,22.5417],[92.5094,22.741],[92.6058,22.1238],[92.855,22.0633],[92.826,22.33],[92.9315,22.3946],[92.9346,22.5541]]]}},{"type":"Feature","properties":{"key":"mizoram/lunglei","slug":"lunglei","name":"Lunglei","state":"mizoram"},"geometry":{"type":"Polygon","coordinates":[[[92.6731,23.383],[92.4773,23.3899],[92.4024,23.2662],[92.3718,22.9362],[92.5094,22.741],[92.7556,22.5417],[92.9346,22.5541],[92.9208,22.7809],[92.8642,23.1754],[92.6899,23.328],[92.6731,23.383]]]}},{"type":"Feature","properties":{"key":"mizoram/mamit","slug":"mamit","name":"Mamit","state":"mizoram"},"geometry":{"type":"Polygon","coordinates":[[[92.6272,23.9536],[92.5324,24.1776],[92.4223,24.2505],[92.2954,24.245],[92.3244,23.9137],[92.2648,23.7267],[92.4024,23.2662],[92.4773,23.3899],[92.6731,23.383],[92.6272,23.9536]]]}},{"type":"Feature","properties":{"key":"mizoram/saiha","slug":"saiha","name":"Saiha","state":"mizoram"},"geometry":{"type":"Polygon","coordinates":[[[92.855,22.0633],[92.9988,22.0536],[93.1609,22.1801],[93.1884,22.4248],[93.0967,22.7864],[92.9208,22.7809],[92.9346,22.5541],[92.9315,22.3946],[92.826,22.33],[92.855,22.0633]]]}},{"type":"Feature","properties":{"key":"mizoram/serchhip","slug":"serchhip","name":"Serchhip","state":"mizoram"},"geometry":{"type":"Polygon","coordinates":[[[92.6899,23.328],[92.8642,23.1754],[93.1227,23.0063],[93.1961,23.0558],[93.0416,23.3074],[93.0447,23.4105],[92.881,23.5191],[92.7816,23.2992],[92.6899,23.328]]]}}]}