{"type":"FeatureCollection","features":[{"type":"Feature","properties":{"key":"nagaland/dimapur","slug":"dimapur","name":"Dimapur","state":"nagaland"},"geometry":{"type":"Polygon","coordinates":[[[93.7756,25.9689],[93.5126,25.6747],[93.9285,25.6706],[94.0172,25.8452],[94.0019,25.9909],[93.9545,25.9689],[93.7756,25.9689]]]}},{"type":"Feature","properties":{"key":"nagaland/kiphire","slug":"kiphire","name":"Kiphire","state":"nagaland"},"geometry":{"type":"Polygon","coordinates":[[[94.6687,26.0198],[94.5693,25.8892],[94.713,25.7586],[94.8185,25.7641],[94.8827,25.5868],[95.0403,25.7421],[95.0143,25.8906],[94.846,26.0418],[94.6687,26.0198]]]}},{"type":"Feature","properties":{"key":"nagaland/kohima","slug":"kohima","name":"Kohima","state":"nagaland"},"geometry":{"type":"Polygon","coordinates":[[[93.9362,25.5593],[94.19,25.5483],[94.2726,25.7943],[94.2757,26.0047],[94.0019,25.9909],[94.0172,25.8452],[93.9285,25.6706],[93.9362,25.5593]]]}},{"type":"Feature","properties":{"key":"nagaland/longleng","slug":"longleng","name":"Longleng","state":"nagaland"},"geometry":{"type":"Polygon","coordinates":[[[94.7359,26.7498],[94.7099,26.446],[94.9133,26.38],[94.791,26.7965],[94.7359,26.7498]]]}},{"type":"Feature","properties":{"key":"nagaland/mokokchung","slug":"mokokchung","name":"Mokokchung","state":"nagaland"},"geometry":{"type":"Polygon","coordinates":[[[94.5861,26.7251],[94.4026,26.611],[94.3139,26.4611],[94.372,26.1958],[94.583,26.2191],[94.7099,26.446],[94.7359,26.7498],[94.5861,26.7251]]]}},{"type":"Feature","properties":{"key":"nagaland/mon","slug":"mon","name":"Mon","state":"nagaland"},"geometry":{"type":"Polygon","coordinates":[[[94.791,26.7965],[94.9133,26.38],[95.1228,26.3484],[95.0617,26.4501],[95.2345,26.6824],[95.1962,27.0344],[94.924,26.9491],[94.791,26.7965]]]}},{"type":"Feature","properties":{"key":"nagaland/peren","slug":"peren","name":"Peren","state":"nagaland"},"geometry":{"type":"Polygon","coordinates":[[[93.4698,25.3063],[93.6059,25.1991],[93.8047,25.463],[93.9362,25.5593],[93.9285,25.6706],[93.5126,25.6747],[93.3291,25.5428],[93.456,25.4342],[93.4698,25.3063]]]}},{"type":"Feature","properties":{"key":"nagaland/phek","slug":"phek","name":"Phek","state":"nagaland"},"geometry":{"type":"Polygon","coordinates":[[[94.713,25.7586],[94.4561,25.8535],[94.2726,25.7943],[94.19,25.5483],[94.4163,25.5359],[94.4882,25.6046],[94.6748,25.4452],[94.8827,25.5868],[94.8185,25.7641],[94.713,25.7586]]]}},{"type":"Feature","properties":{"key":"nagaland/tuensang","slug":"tuensang","name":"Tuensang","state":"nagaland"},"geometry":{"type":"Polygon","coordinates":[[[94.9133,26.38],[94.7099,26.446],[94.583,26.2191],[94.7054,26.1724],[94.6687,26.0198],[94.846,26.0418],[95.0143,25.8906],[95.1167,26.1078],[95.1228,26.3484],[94.9133,26.38]]]}},{"type":"Feature","properties":{"key":"nagaland/wokha","slug":"wokha","name":"Wokha","state":"nagaland"},"geometry":{"type":"Polygon","coordinates":[[[94.164,26.3511],[94.0004,26.1724],[93.9545,25.9689],[94.0019,25.9909],[94.2757,26.0047],[94.372,26.1958],[94.3139,26.4611],[94.164,26.3511]]]}},{"type":"Feature","properties":{"key":"nagaland/zunheboto","slug":"zunheboto","name":"Zunheboto","state":"nagaland"},"geometry":{"type":"Polygon","coordinates":[[[94.372,26.1958],[94.2757,26.0047],[94.2726,25.7943],[94.4561,25.8535],[94.713,25.7586],[94.5693,25.8892],[94.6687,26.0198],[94.7054,26.1724],[94.583,26.2191],[94.372,26.1958]]]}}]}