{"type":"FeatureCollection","features":[{"type":"Feature","properties":{"key":"odisha/angul","slug":"angul","name":"Angul","state":"odisha"},"geometry":{"type":"Polygon","coordinates":[[[85.3941,21.1834],[85.284,21.2989],[85.3345,21.4817],[85.1908,21.6605],[85.1449,21.5945],[85.1541,21.4625],[84.992,21.4116],[85.0118,21.2975],[84.8773,21.1642],[84.7442,21.1697],[84.5852,21.0611],[84.4812,21.0803],[84.2794,20.9222],[84.2671,20.881],[84.3604,20.7655],[84.7672,20.6033],[84.8482,20.5277],[85.1265,20.6156],[85.255,20.7957],[85.2305,21.0721],[85.3941,21.1834]]]}},{"type":"Feature","properties":{"key":"odisha/balangir","slug":"balangir","name":"Balangir","state":"odisha"},"geometry":{"type":"Polygon","coordinates":[[[83.4567,21.0583],[83.4047,20.8892],[82.9811,20.8452],[82.8893,20.9071],[82.7012,20.7284],[82.6844,20.4603],[82.8618,20.2293],[82.8205,20.1661],[83.1447,20.1689],[83.4215,20.4026],[83.6509,20.3888],[83.6662,20.4218],[83.6019,20.5304],[83.6646,20.705],[83.4567,21.0583]]]}},{"type":"Feature","properties":{"key":"odisha/balasore","slug":"balasore","name":"Balasore","state":"odisha"},"geometry":{"type":"Polygon","coordinates":[[[86.8591,21.2137],[86.9493,21.358],[87.1481,21.5092],[87.4081,21.545],[87.4845,21.6151],[87.4417,21.7677],[87.2827,21.8034],[87.2429,21.9643],[87.1007,21.8639],[87.0059,21.6013],[86.6481,21.5807],[86.3606,21.303],[86.3667,21.237],[86.515,21.1353],[86.8591,21.2137]]]}},{"type":"Feature","properties":{"key":"odisha/bargarh","slug":"bargarh","name":"Bargarh","state":"odisha"},"geometry":{"type":"Polygon","coordinates":[[[82.6385,21.0886],[82.6936,21.0198],[82.7012,20.7284],[82.8893,20.9071],[82.9811,20.8452],[83.4047,20.8892],[83.4567,21.0583],[83.605,21.1284],[83.894,21.1752],[83.8864,21.4378],[83.7992,21.5629],[83.6967,21.699],[83.4872,21.644],[83.3833,21.6206],[83.2686,21.3773],[83.1921,21.1394],[82.9658,21.1752],[82.6401,21.1546],[82.6385,21.0886]]]}},{"type":"Feature","properties":{"key":"odisha/bhadrak","slug":"bhadrak","name":"Bhadrak","state":"odisha"},"geometry":{"type":"Polygon","coordinates":[[[86.6221,20.7957],[86.8056,20.7353],[86.9768,20.8604],[86.853,21.0941],[86.8591,21.2137],[86.515,21.1353],[86.3667,21.237],[86.2857,21.0157],[86.3606,20.848],[86.6221,20.7957]]]}},{"type":"Feature","properties":{"key":"odisha/boudh","slug":"boudh","name":"Boudh","state":"odisha"},"geometry":{"type":"Polygon","coordinates":[[[83.6019,20.5304],[83.6662,20.4218],[83.8145,20.4356],[83.8741,20.5827],[84.2258,20.5813],[84.3879,20.5304],[84.5103,20.3957],[84.6815,20.4328],[84.7672,20.6033],[84.3604,20.7655],[84.2671,20.881],[83.7625,20.7806],[83.6845,20.5593],[83.6019,20.5304]]]}},{"type":"Feature","properties":{"key":"odisha/cuttack","slug":"cuttack","name":"Cuttack","state":"odisha"},"geometry":{"type":"Polygon","coordinates":[[[85.1265,20.6156],[84.8482,20.5277],[85.3299,20.2788],[85.6235,20.2926],[85.7856,20.4342],[86.0807,20.1042],[86.1817,20.0534],[86.1511,20.2142],[86.249,20.3654],[86.2795,20.5813],[86.041,20.5923],[85.9156,20.7009],[85.7871,20.672],[85.5853,20.5139],[85.2519,20.518],[85.1265,20.6156]]]}},{"type":"Feature","properties":{"key":"odisha/deogarh","slug":"deogarh","name":"Deogarh","state":"odisha"},"geometry":{"type":"Polygon","coordinates":[[[85.1449,21.5945],[85.0256,21.6728],[84.7901,21.6687],[84.6617,21.7608],[84.5026,21.6825],[84.5363,21.567],[84.4093,21.4762],[84.7106,21.3181],[84.7442,21.1697],[84.8773,21.1642],[85.0118,21.2975],[84.992,21.4116],[85.1541,21.4625],[85.1449,21.5945]]]}},{"type":"Feature","properties":{"key":"odisha/dhenkanal","slug":"dhenkanal","name":"Dhenkanal","state":"odisha"},"geometry":{"type":"Polygon","coordinates":[[[85.7122,21.1381],[85.3941,21.1834],[85.2305,21.0721],[85.255,20.7957],[85.1265,20.6156],[85.2519,20.518],[85.5853,20.5139],[85.7871,20.672],[85.9156,20.7009],[85.8988,20.8466],[85.7504,20.9923],[85.7122,21.1381]]]}},{"type":"Feature","properties":{"key":"odisha/gajapati","slug":"gajapati","name":"Gajapati","state":"odisha"},"geometry":{"type":"Polygon","coordinates":[[[83.9399,19.6354],[84.0148,19.377],[84.0332,19.1323],[83.9506,18.9976],[83.7931,19.0182],[83.8909,18.8161],[84.0897,18.7584],[84.3191,18.7886],[84.4231,18.9494],[84.3543,19.0086],[84.4017,19.575],[84.2335,19.5736],[83.9399,19.6354]]]}},{"type":"Feature","properties":{"key":"odisha/ganjam","slug":"ganjam","name":"Ganjam","state":"odisha"},"geometry":{"type":"Polygon","coordinates":[[[84.2335,19.5736],[84.4017,19.575],[84.3543,19.0086],[84.4231,18.9494],[84.7014,19.1185],[84.8115,19.157],[85.1724,19.4677],[85.1831,19.6726],[84.94,19.898],[84.7978,20.0905],[84.8314,20.217],[84.7045,20.2788],[84.5867,20.1744],[84.4537,20.1675],[84.3635,20.0259],[84.4613,19.8568],[84.1845,19.8609],[84.1601,19.7386],[84.2335,19.5736]]]}},{"type":"Feature","properties":{"key":"odisha/jagatsinghpur","slug":"jagatsinghpur","name":"Jagatsinghpur","state":"odisha"},"geometry":{"type":"Polygon","coordinates":[[[86.1817,20.0534],[86.3698,19.9819],[86.5334,20.1812],[86.7765,20.3352],[86.4523,20.3297],[86.249,20.3654],[86.1511,20.2142],[86.1817,20.0534]]]}},{"type":"Feature","properties":{"key":"odisha/jajpur","slug":"jajpur","name":"Jajpur","state":"odisha"},"geometry":{"type":"Polygon","coordinates":[[[86.2857,21.0157],[86.0272,21.1381],[85.8223,21.0913],[85.7122,21.1381],[85.7504,20.9923],[85.8988,20.8466],[85.9156,20.7009],[86.041,20.5923],[86.2795,20.5813],[86.3774,20.5937],[86.6221,20.7957],[86.3606,20.848],[86.2857,21.0157]]]}},{"type":"Feature","properties":{"key":"odisha/jharsuguda","slug":"jharsuguda","name":"Jharsuguda","state":"odisha"},"geometry":{"type":"Polygon","coordinates":[[[83.5912,21.8254],[83.4872,21.644],[83.6967,21.699],[83.7992,21.5629],[83.9674,21.5807],[83.9812,21.7801],[84.2381,21.8062],[84.3742,21.956],[84.2702,22.0151],[83.8971,21.945],[83.7197,21.7856],[83.5912,21.8254]]]}},{"type":"Feature","properties":{"key":"odisha/kalahandi","slug":"kalahandi","name":"Kalahandi","state":"odisha"},"geometry":{"type":"Polygon","coordinates":[[[82.7181,19.9888],[82.6966,19.8307],[82.5942,19.7757],[82.5667,19.5447],[82.8557,19.2052],[82.871,19.1955],[83.0698,19.5612],[83.186,19.4567],[83.4536,19.7372],[83.4047,19.9214],[83.4964,19.9599],[83.5882,20.0987],[83.7105,20.1015],[83.6509,20.3888],[83.4215,20.4026],[83.1447,20.1689],[82.8205,20.1661],[82.7181,19.9888]]]}},{"type":"Feature","properties":{"key":"odisha/kandhamal","slug":"kandhamal","name":"Kandhamal","state":"odisha"},"geometry":{"type":"Polygon","coordinates":[[[83.6509,20.3888],[83.7105,20.1015],[83.5882,20.0987],[83.4964,19.9599],[83.6187,19.8142],[83.9399,19.6354],[84.2335,19.5736],[84.1601,19.7386],[84.1845,19.8609],[84.4613,19.8568],[84.3635,20.0259],[84.4537,20.1675],[84.5867,20.1744],[84.5103,20.3957],[84.3879,20.5304],[84.2258,20.5813],[83.8741,20.5827],[83.8145,20.4356],[83.6662,20.4218],[83.6509,20.3888]]]}},{"type":"Feature","properties":{"key":"odisha/kendrapara","slug":"kendrapara","name":"Kendrapara","state":"odisha"},"geometry":{"type":"Polygon","coordinates":[[[86.6221,20.7957],[86.3774,20.5937],[86.2795,20.5813],[86.249,20.3654],[86.4523,20.3297],[86.7765,20.3352],[86.7888,20.5345],[87.0564,20.7146],[86.8056,20.7353],[86.6221,20.7957]]]}},{"type":"Feature","properties":{"key":"odisha/kendujhar","slug":"kendujhar","name":"Kendujhar","state":"odisha"},"geometry":{"type":"Polygon","coordinates":[[[86.3667,21.237],[86.3606,21.303],[86.0089,21.534],[86.0257,21.6948],[85.8116,21.8103],[85.7963,21.9505],[85.6832,22.0578],[85.3972,22.1636],[85.2382,22.0096],[85.3773,21.9354],[85.1999,21.7622],[85.1908,21.6605],[85.3345,21.4817],[85.284,21.2989],[85.3941,21.1834],[85.7122,21.1381],[85.8223,21.0913],[86.0272,21.1381],[86.2857,21.0157],[86.3667,21.237]]]}},{"type":"Feature","properties":{"key":"odisha/khordha","slug":"khordha","name":"Khordha","state":"odisha"},"geometry":{"type":"Polygon","coordinates":[[[85.3299,20.2788],[85.4186,19.9241],[84.94,19.898],[85.1831,19.6726],[85.2519,19.7674],[85.6786,20.0671],[85.703,20.1427],[86.0807,20.1042],[85.7856,20.4342],[85.6235,20.2926],[85.3299,20.2788]]]}},{"type":"Feature","properties":{"key":"odisha/koraput","slug":"koraput","name":"Koraput","state":"odisha"},"geometry":{"type":"Polygon","coordinates":[[[82.8557,19.2052],[82.6156,19.1584],[82.5177,19.2024],[82.2058,19.1213],[82.2455,18.9192],[82.0911,18.7377],[82.1706,18.6388],[82.4153,18.5631],[82.4275,18.4862],[82.6064,18.3666],[82.7731,18.3418],[83.0774,18.4037],[82.9994,18.6085],[83.4123,18.8738],[83.3481,19.0182],[83.1355,19.1364],[82.871,19.1955],[82.8557,19.2052]]]}},{"type":"Feature","properties":{"key":"odisha/malkangiri","slug":"malkangiri","name":"Malkangiri","state":"odisha"},"geometry":{"type":"Polygon","coordinates":[[[82.0911,18.7377],[81.8999,18.6607],[81.9106,18.57],[81.5299,18.2401],[81.4825,17.9775],[81.3968,17.818],[81.617,17.8235],[81.9795,18.0132],[82.0315,18.0696],[82.3189,18.0449],[82.3144,18.1851],[82.4275,18.4862],[82.4153,18.5631],[82.1706,18.6388],[82.0911,18.7377]]]}},{"type":"Feature","properties":{"key":"odisha/mayurbhanj","slug":"mayurbhanj","name":"Mayurbhanj","state":"odisha"},"geometry":{"type":"Polygon","coordinates":[[[86.7276,22.2159],[86.067,22.5568],[85.963,22.4853],[86.0287,22.3341],[86.0089,22.1155],[85.8972,21.9835],[85.6832,22.0578],[85.7963,21.9505],[85.8116,21.8103],[86.0257,21.6948],[86.0089,21.534],[86.3606,21.303],[86.6481,21.5807],[87.0059,21.6013],[87.1007,21.8639],[87.0288,22.0385],[86.8377,22.0976],[86.7276,22.2159]]]}},{"type":"Feature","properties":{"key":"odisha/nabarangapur","slug":"nabarangapur","name":"Nabarangapur","state":"odisha"},"geometry":{"type":"Polygon","coordinates":[[[82.5942,19.7757],[82.4459,19.9104],[82.0177,20.0493],[81.8755,20.052],[81.8694,19.9022],[82.0651,19.7908],[82.0284,19.5076],[82.189,19.4279],[82.2058,19.1213],[82.5177,19.2024],[82.6156,19.1584],[82.8557,19.2052],[82.5667,19.5447],[82.5942,19.7757]]]}},{"type":"Feature","properties":{"key":"odisha/nayagarh","slug":"nayagarh","name":"Nayagarh","state":"odisha"},"geometry":{"type":"Polygon","coordinates":[[[84.5103,20.3957],[84.5867,20.1744],[84.7045,20.2788],[84.8314,20.217],[84.7978,20.0905],[84.94,19.898],[85.4186,19.9241],[85.3299,20.2788],[84.8482,20.5277],[84.7672,20.6033],[84.6815,20.4328],[84.5103,20.3957]]]}},{"type":"Feature","properties":{"key":"odisha/nuapada","slug":"nuapada","name":"Nuapada","state":"odisha"},"geometry":{"type":"Polygon","coordinates":[[[82.3388,20.8741],[82.4382,20.4342],[82.3985,20.0561],[82.7181,19.9888],[82.8205,20.1661],[82.8618,20.2293],[82.6844,20.4603],[82.7012,20.7284],[82.6936,21.0198],[82.6385,21.0886],[82.4596,20.826],[82.3388,20.8741]]]}},{"type":"Feature","properties":{"key":"odisha/puri","slug":"puri","name":"Puri","state":"odisha"},"geometry":{"type":"Polygon","coordinates":[[[86.0807,20.1042],[85.703,20.1427],[85.6786,20.0671],[85.2519,19.7674],[85.1831,19.6726],[85.1724,19.4677],[85.6786,19.7454],[86.2275,19.9008],[86.3698,19.9819],[86.1817,20.0534],[86.0807,20.1042]]]}},{"type":"Feature","properties":{"key":"odisha/rayagada","slug":"rayagada","name":"Rayagada","state":"odisha"},"geometry":{"type":"Polygon","coordinates":[[[83.4964,19.9599],[83.4047,19.9214],[83.4536,19.7372],[83.186,19.4567],[83.0698,19.5612],[82.871,19.1955],[83.1355,19.1364],[83.3481,19.0182],[83.6631,19.0993],[83.7564,18.911],[83.7931,19.0182],[83.9506,18.9976],[84.0332,19.1323],[84.0148,19.377],[83.9399,19.6354],[83.6187,19.8142],[83.4964,19.9599]]]}},{"type":"Feature","properties":{"key":"odisha/sambalpur","slug":"sambalpur","name":"Sambalpur","state":"odisha"},"geometry":{"type":"Polygon","coordinates":[[[84.2794,20.9222],[84.4812,21.0803],[84.5852,21.0611],[84.7442,21.1697],[84.7106,21.3181],[84.4093,21.4762],[84.5363,21.567],[84.5026,21.6825],[84.6617,21.7608],[84.5256,21.8144],[84.4766,22.1897],[84.2671,22.1045],[84.2702,22.0151],[84.3742,21.956],[84.2381,21.8062],[83.9812,21.7801],[83.9674,21.5807],[83.7992,21.5629],[83.8864,21.4378],[83.894,21.1752],[84.0179,21.0514],[84.2794,20.9222]]]}},{"type":"Feature","properties":{"key":"odisha/subarnapur","slug":"subarnapur","name":"Subarnapur","state":"odisha"},"geometry":{"type":"Polygon","coordinates":[[[84.2794,20.9222],[84.0179,21.0514],[83.894,21.1752],[83.605,21.1284],[83.4567,21.0583],[83.6646,20.705],[83.6019,20.5304],[83.6845,20.5593],[83.7625,20.7806],[84.2671,20.881],[84.2794,20.9222]]]}},{"type":"Feature","properties":{"key":"odisha/sundargarh","slug":"sundargarh","name":"Sundargarh","state":"odisha"},"geometry":{"type":"Polygon","coordinates":[[[85.1908,21.6605],[85.1999,21.7622],[85.3773,21.9354],[85.2382,22.0096],[85.0287,22.1224],[85.0699,22.4908],[84.7503,22.4193],[84.5347,22.4276],[84.4292,22.352],[84.1968,22.3781],[84.0118,22.5279],[84.0102,22.3712],[83.8023,22.2942],[83.6279,22.2035],[83.5377,22.0454],[83.5912,21.8254],[83.7197,21.7856],[83.8971,21.945],[84.2702,22.0151],[84.2671,22.1045],[84.4766,22.1897],[84.5256,21.8144],[84.6617,21.7608],[84.7901,21.6687],[85.0256,21.6728],[85.1449,21.5945],[85.1908,21.6605]]]}}]}