{"type":"FeatureCollection","features":[{"type":"Feature","properties":{"key":"puducherry/karaikal","slug":"karaikal","name":"Karaikal","state":"puducherry"},"geometry":{"type":"Polygon","coordinates":[[[79.7239,10.9291],[79.8493,10.8274],[79.8508,10.9855],[79.7484,10.9965],[79.7239,10.9291]]]}},{"type":"Feature","properties":{"key":"puducherry/mahe","slug":"mahe","name":"Mahe","state":"puducherry"},"geometry":{"type":"Polygon","coordinates":[[[75.5553,11.7224],[75.5416,11.7389],[75.537,11.7196],[75.5553,11.7224]]]}},{"type":"Feature","properties":{"key":"puducherry/puducherry","slug":"puducherry","name":"Puducherry","state":"puducherry"},"geometry":{"type":"Polygon","coordinates":[[[79.6857,11.8805],[79.808,11.8447],[79.8401,11.9561],[79.6857,11.8805]]]}},{"type":"Feature","properties":{"key":"puducherry/yanam","slug":"yanam","name":"Yanam","state":"puducherry"},"geometry":{"type":"Polygon","coordinates":[[[82.1859,16.7375],[82.1997,16.721],[82.2394,16.7168],[82.2669,16.6948],[82.27,16.7223],[82.1859,16.7375]]]}}]}