{"type":"FeatureCollection","features":[{"type":"Feature","properties":{"key":"punjab/amritsar","slug":"amritsar","name":"Amritsar","state":"punjab"},"geometry":{"type":"Polygon","coordinates":[[[74.9131,32.044],[74.6669,31.923],[74.5033,31.7402],[74.6118,31.4996],[74.8443,31.5312],[75.2908,31.4913],[75.404,31.5931],[74.9697,31.8309],[74.9131,32.044]]]}},{"type":"Feature","properties":{"key":"punjab/barnala","slug":"barnala","name":"Barnala","state":"punjab"},"geometry":{"type":"Polygon","coordinates":[[[75.2969,30.5166],[75.2541,30.4644],[75.3688,30.2004],[75.5768,30.1441],[75.7281,30.2733],[75.6838,30.5909],[75.4085,30.584],[75.2969,30.5166]]]}},{"type":"Feature","properties":{"key":"punjab/bathinda","slug":"bathinda","name":"Bathinda","state":"punjab"},"geometry":{"type":"Polygon","coordinates":[[[75.0201,30.4905],[74.8213,30.3929],[74.7235,30.309],[74.7051,29.975],[74.8122,29.9928],[74.9972,29.8677],[75.1914,29.8444],[75.2526,30.1056],[75.3688,30.2004],[75.2541,30.4644],[75.2969,30.5166],[75.0201,30.4905]]]}},{"type":"Feature","properties":{"key":"punjab/faridkot","slug":"faridkot","name":"Faridkot","state":"punjab"},"geometry":{"type":"Polygon","coordinates":[[[74.9054,30.7366],[74.6241,30.8369],[74.5002,30.6665],[74.7097,30.5592],[74.8213,30.3929],[75.0201,30.4905],[74.9054,30.7366]]]}},{"type":"Feature","properties":{"key":"punjab/fatehgarh-sahib","slug":"fatehgarh-sahib","name":"Fatehgarh Sahib","state":"punjab"},"geometry":{"type":"Polygon","coordinates":[[[76.3199,30.8782],[76.3031,30.6789],[76.086,30.562],[76.086,30.5373],[76.2297,30.5702],[76.4346,30.4438],[76.6349,30.6197],[76.531,30.7682],[76.3199,30.8782]]]}},{"type":"Feature","properties":{"key":"punjab/fazilka","slug":"fazilka","name":"Fazilka","state":"punjab"},"geometry":{"type":"Polygon","coordinates":[[[74.4482,29.9475],[74.358,30.2403],[74.3672,30.5867],[74.4161,30.6142],[74.2158,30.6912],[73.9635,30.485],[73.8794,30.3599],[73.968,30.1936],[73.8946,29.9736],[74.2984,29.9544],[74.4482,29.9475]]]}},{"type":"Feature","properties":{"key":"punjab/ferozepur","slug":"ferozepur","name":"Ferozepur","state":"punjab"},"geometry":{"type":"Polygon","coordinates":[[[75.0782,31.1476],[74.9651,31.1531],[74.7082,31.072],[74.3656,30.8933],[74.2158,30.6912],[74.4161,30.6142],[74.5002,30.6665],[74.6241,30.8369],[74.9054,30.7366],[74.9513,30.8919],[75.147,31.0913],[75.0782,31.1476]]]}},{"type":"Feature","properties":{"key":"punjab/gurdaspur","slug":"gurdaspur","name":"Gurdaspur","state":"punjab"},"geometry":{"type":"Polygon","coordinates":[[[75.3795,32.1828],[75.1746,32.0674],[74.9131,32.044],[74.9697,31.8309],[75.404,31.5931],[75.4758,31.6494],[75.5676,31.8007],[75.5309,31.9409],[75.5982,32.0825],[75.6012,32.0935],[75.3795,32.1828]]]}},{"type":"Feature","properties":{"key":"punjab/hoshiarpur","slug":"hoshiarpur","name":"Hoshiarpur","state":"punjab"},"geometry":{"type":"Polygon","coordinates":[[[75.4758,31.6494],[75.5982,31.6054],[75.8,31.4542],[75.7878,31.3649],[75.8902,31.2755],[76.138,31.1463],[76.3306,31.2233],[76.2894,31.3071],[76.2007,31.303],[76.0172,31.6316],[75.9606,31.857],[75.9101,31.9505],[75.5982,32.0825],[75.5309,31.9409],[75.5676,31.8007],[75.4758,31.6494]]]}},{"type":"Feature","properties":{"key":"punjab/jalandhar","slug":"jalandhar","name":"Jalandhar","state":"punjab"},"geometry":{"type":"Polygon","coordinates":[[[75.5982,31.6054],[75.4177,31.2494],[75.0782,31.1476],[75.147,31.0913],[75.3596,30.9937],[75.5936,30.9689],[75.9529,31.0102],[75.7985,31.2164],[75.7878,31.3649],[75.8,31.4542],[75.5982,31.6054]]]}},{"type":"Feature","properties":{"key":"punjab/kapurthala","slug":"kapurthala","name":"Kapurthala","state":"punjab"},"geometry":{"type":"MultiPolygon","coordinates":[[[[75.7878,31.3649],[75.7985,31.2164],[75.8902,31.2755],[75.7878,31.3649]]],[[[75.404,31.5931],[75.2908,31.4913],[74.9651,31.1531],[75.0782,31.1476],[75.4177,31.2494],[75.5982,31.6054],[75.4758,31.6494],[75.404,31.5931]]]]}},{"type":"Feature","properties":{"key":"punjab/ludhiana","slug":"ludhiana","name":"Ludhiana","state":"punjab"},"geometry":{"type":"Polygon","coordinates":[[[75.3596,30.9937],[75.4085,30.584],[75.6838,30.5909],[75.8795,30.6761],[76.086,30.562],[76.3031,30.6789],[76.3199,30.8782],[76.3062,30.9909],[75.9529,31.0102],[75.5936,30.9689],[75.3596,30.9937]]]}},{"type":"Feature","properties":{"key":"punjab/mansa","slug":"mansa","name":"Mansa","state":"punjab"},"geometry":{"type":"Polygon","coordinates":[[[75.5768,30.1441],[75.3688,30.2004],[75.2526,30.1056],[75.1914,29.8444],[75.1685,29.667],[75.303,29.5598],[75.4605,29.8073],[75.5798,29.7399],[75.7205,29.8141],[75.6884,30.0121],[75.5768,30.1441]]]}},{"type":"Feature","properties":{"key":"punjab/moga","slug":"moga","name":"Moga","state":"punjab"},"geometry":{"type":"Polygon","coordinates":[[[75.147,31.0913],[74.9513,30.8919],[74.9054,30.7366],[75.0201,30.4905],[75.2969,30.5166],[75.4085,30.584],[75.3596,30.9937],[75.147,31.0913]]]}},{"type":"Feature","properties":{"key":"punjab/pathankot","slug":"pathankot","name":"Pathankot","state":"punjab"},"geometry":{"type":"Polygon","coordinates":[[[75.8367,32.5114],[75.5125,32.3079],[75.3413,32.3464],[75.3795,32.1828],[75.6012,32.0935],[75.6379,32.2516],[75.9315,32.3945],[75.8367,32.5114]]]}},{"type":"Feature","properties":{"key":"punjab/patiala","slug":"patiala","name":"Patiala","state":"punjab"},"geometry":{"type":"Polygon","coordinates":[[[76.6349,30.6197],[76.4346,30.4438],[76.2297,30.5702],[76.086,30.5373],[75.9881,30.3407],[76.1655,30.2403],[75.9835,29.9062],[76.0982,29.81],[76.2144,29.8403],[76.2542,30.0891],[76.4667,30.0987],[76.6426,30.1496],[76.5615,30.2417],[76.7481,30.4286],[76.6349,30.6197]]]}},{"type":"Feature","properties":{"key":"punjab/rupnagar","slug":"rupnagar","name":"Rupnagar","state":"punjab"},"geometry":{"type":"Polygon","coordinates":[[[76.3306,31.2233],[76.4943,30.9758],[76.3062,30.9909],[76.3199,30.8782],[76.531,30.7682],[76.7328,30.9373],[76.6242,30.9992],[76.6457,31.2095],[76.4973,31.27],[76.3918,31.413],[76.2894,31.3071],[76.3306,31.2233]]]}},{"type":"Feature","properties":{"key":"punjab/s-a-s-nagar","slug":"s-a-s-nagar","name":"S.A.S. Nagar","state":"punjab"},"geometry":{"type":"Polygon","coordinates":[[[76.531,30.7682],[76.6349,30.6197],[76.7481,30.4286],[76.9071,30.4589],[76.9255,30.6101],[76.8276,30.6816],[76.7389,30.6926],[76.7099,30.7613],[76.8383,30.7545],[76.7772,30.9043],[76.7328,30.9373],[76.531,30.7682]]]}},{"type":"Feature","properties":{"key":"punjab/sangrur","slug":"sangrur","name":"Sangrur","state":"punjab"},"geometry":{"type":"Polygon","coordinates":[[[75.6838,30.5909],[75.7281,30.2733],[75.5768,30.1441],[75.6884,30.0121],[75.7205,29.8141],[75.9468,29.7289],[76.0982,29.81],[75.9835,29.9062],[76.1655,30.2403],[75.9881,30.3407],[76.086,30.5373],[76.086,30.562],[75.8795,30.6761],[75.6838,30.5909]]]}},{"type":"Feature","properties":{"key":"punjab/shahid-bhagat-singh-nagar","slug":"shahid-bhagat-singh-nagar","name":"Shahid Bhagat Singh Nagar","state":"punjab"},"geometry":{"type":"Polygon","coordinates":[[[75.8902,31.2755],[75.7985,31.2164],[75.9529,31.0102],[76.3062,30.9909],[76.4943,30.9758],[76.3306,31.2233],[76.138,31.1463],[75.8902,31.2755]]]}},{"type":"Feature","properties":{"key":"punjab/sri-muktsar-sahib","slug":"sri-muktsar-sahib","name":"Sri Muktsar Sahib","state":"punjab"},"geometry":{"type":"Polygon","coordinates":[[[74.4482,29.9475],[74.5262,29.9406],[74.7051,29.975],[74.7235,30.309],[74.8213,30.3929],[74.7097,30.5592],[74.5002,30.6665],[74.4161,30.6142],[74.3672,30.5867],[74.358,30.2403],[74.4482,29.9475]]]}},{"type":"Feature","properties":{"key":"punjab/tarn-taran","slug":"tarn-taran","name":"Tarn Taran","state":"punjab"},"geometry":{"type":"Polygon","coordinates":[[[74.6118,31.4996],[74.5109,31.1325],[74.7082,31.072],[74.9651,31.1531],[75.2908,31.4913],[74.8443,31.5312],[74.6118,31.4996]]]}}]}