{"type":"FeatureCollection","features":[{"type":"Feature","properties":{"key":"rajasthan/ajmer","slug":"ajmer","name":"Ajmer","state":"rajasthan"},"geometry":{"type":"Polygon","coordinates":[[[74.9743,26.8914],[74.8519,26.9794],[74.6699,26.5958],[74.2907,26.4487],[74.3672,26.1917],[74.1806,26.0322],[74.1072,25.8562],[74.1821,25.848],[74.2846,25.8837],[74.3886,25.9634],[74.6164,25.9043],[75.0171,25.859],[75.1073,25.6967],[75.3168,25.7669],[75.1119,26.2879],[75.1669,26.4639],[74.9635,26.6838],[74.9743,26.8914]]]}},{"type":"Feature","properties":{"key":"rajasthan/alwar","slug":"alwar","name":"Alwar","state":"rajasthan"},"geometry":{"type":"Polygon","coordinates":[[[76.2251,27.8331],[76.2374,27.4743],[76.1166,27.2337],[76.2649,27.1842],[76.2802,27.0646],[76.9561,27.143],[77.1457,27.3203],[76.9775,27.6544],[76.9423,27.8427],[76.9698,28.1383],[76.8536,28.2208],[76.5432,28.0338],[76.3123,28.1782],[76.1594,27.9981],[76.2251,27.8331]]]}},{"type":"Feature","properties":{"key":"rajasthan/banswara","slug":"banswara","name":"Banswara","state":"rajasthan"},"geometry":{"type":"Polygon","coordinates":[[[73.9589,23.3803],[73.9818,23.3377],[74.2479,23.1837],[74.3198,23.06],[74.5063,23.0847],[74.7342,23.2208],[74.5293,23.3212],[74.5721,23.4201],[74.7724,23.5425],[74.5186,23.636],[74.5614,23.8051],[74.3763,23.9041],[74.147,23.7831],[73.9589,23.3803]]]}},{"type":"Feature","properties":{"key":"rajasthan/baran","slug":"baran","name":"Baran","state":"rajasthan"},"geometry":{"type":"Polygon","coordinates":[[[76.5937,25.408],[76.323,25.3819],[76.1961,25.1248],[76.4407,24.8306],[76.5356,24.5103],[76.6074,24.4237],[76.8444,24.4361],[77.0692,24.5571],[76.8766,25.041],[77.3124,25.0809],[77.4118,25.2238],[77.3674,25.4108],[77.083,25.3366],[76.9454,25.2843],[76.5937,25.408]]]}},{"type":"Feature","properties":{"key":"rajasthan/barmer","slug":"barmer","name":"Barmer","state":"rajasthan"},"geometry":{"type":"Polygon","coordinates":[[[70.1405,26.1559],[70.0992,25.9387],[70.2689,25.7132],[70.6742,25.6761],[70.665,25.397],[70.8883,25.1482],[70.9372,24.9393],[71.1115,24.6753],[71.188,24.6506],[71.3394,24.9393],[71.7905,25.0781],[71.9159,25.3462],[72.0321,25.474],[72.3211,25.3888],[72.6759,25.6129],[72.7783,25.804],[72.8349,25.8645],[72.6208,25.9744],[72.6896,26.1862],[72.4587,26.3003],[72.2676,26.1972],[72.0642,26.3511],[71.8929,26.2975],[71.6345,26.4047],[71.5733,26.5065],[71.3271,26.4212],[71.2124,26.4432],[71.0504,26.1394],[70.9403,26.0789],[70.6543,26.1958],[70.3622,26.1422],[70.1405,26.1559]]]}},{"type":"Feature","properties":{"key":"rajasthan/bharatpur","slug":"bharatpur","name":"Bharatpur","state":"rajasthan"},"geometry":{"type":"Polygon","coordinates":[[[76.9775,27.6544],[77.1457,27.3203],[76.9561,27.143],[77.0968,26.8625],[77.3476,26.7113],[77.4546,26.7429],[77.398,26.8309],[77.661,26.9711],[77.5509,27.1114],[77.6457,27.242],[77.3399,27.5265],[77.2833,27.7987],[77.0448,27.8207],[76.9775,27.6544]]]}},{"type":"Feature","properties":{"key":"rajasthan/bhilwara","slug":"bhilwara","name":"Bhilwara","state":"rajasthan"},"geometry":{"type":"Polygon","coordinates":[[[75.3168,25.7669],[75.1073,25.6967],[75.0171,25.859],[74.6164,25.9043],[74.3886,25.9634],[74.2846,25.8837],[74.1821,25.848],[74.0216,25.3476],[74.0476,25.2376],[74.2632,25.0657],[74.387,25.1812],[74.7953,25.1523],[75.2036,25.0905],[75.1914,25.0369],[75.352,25.019],[75.4514,25.0492],[75.4452,25.2637],[75.2847,25.4025],[75.459,25.7229],[75.3168,25.7669]]]}},{"type":"Feature","properties":{"key":"rajasthan/bikaner","slug":"bikaner","name":"Bikaner","state":"rajasthan"},"geometry":{"type":"Polygon","coordinates":[[[74.1607,28.7762],[74.0414,29.0099],[73.8778,28.9398],[73.6179,29.0346],[73.3365,29.0126],[73.2065,28.8491],[73.0092,28.7253],[72.8563,28.7253],[72.6621,28.893],[72.4037,28.7831],[72.2997,28.669],[72.2064,28.394],[71.9281,28.1218],[71.8807,27.9142],[72.1391,27.8799],[72.2431,27.4839],[72.5535,27.62],[72.656,27.5362],[73.1331,27.308],[73.3579,27.2598],[73.5445,27.4949],[73.8748,27.5375],[73.8671,27.7795],[74.2265,27.8166],[74.2938,28.1452],[74.1974,28.3308],[74.0277,28.3761],[74.0797,28.6703],[74.1607,28.7762]]]}},{"type":"Feature","properties":{"key":"rajasthan/bundi","slug":"bundi","name":"Bundi","state":"rajasthan"},"geometry":{"type":"Polygon","coordinates":[[[76.3123,25.8136],[76.138,25.7847],[75.8627,25.8755],[75.6547,25.749],[75.459,25.7229],[75.2847,25.4025],[75.4452,25.2637],[75.4514,25.0492],[75.537,25.0149],[75.6394,25.0149],[75.7236,25.1757],[76.1563,25.3599],[76.3566,25.7407],[76.3123,25.8136]]]}},{"type":"Feature","properties":{"key":"rajasthan/chittorgarh","slug":"chittorgarh","name":"Chittorgarh","state":"rajasthan"},"geometry":{"type":"MultiPolygon","coordinates":[[[[75.352,25.019],[75.1838,24.7482],[75.5492,24.7028],[75.7847,24.7619],[75.7495,24.8856],[75.537,25.0149],[75.4514,25.0492],[75.352,25.019]]],[[[74.2632,25.0657],[74.1424,24.8815],[74.1041,24.7344],[74.2708,24.5763],[74.3672,24.2835],[74.4299,24.2574],[74.5186,24.2862],[74.5935,24.509],[74.6975,24.4828],[74.9926,24.6932],[74.959,24.8581],[75.1165,24.8774],[75.1914,25.0369],[75.2036,25.0905],[74.7953,25.1523],[74.387,25.1812],[74.2632,25.0657]]]]}},{"type":"Feature","properties":{"key":"rajasthan/churu","slug":"churu","name":"Churu","state":"rajasthan"},"geometry":{"type":"Polygon","coordinates":[[[75.4743,28.926],[75.2189,28.8656],[74.803,28.9288],[74.7495,28.8532],[74.4757,28.8147],[74.4192,28.8848],[74.1607,28.7762],[74.0797,28.6703],[74.0277,28.3761],[74.1974,28.3308],[74.2938,28.1452],[74.2265,27.8166],[73.8671,27.7795],[73.8748,27.5375],[74.1959,27.499],[74.3412,27.6819],[74.7173,27.6778],[74.7357,27.8908],[74.8871,28.1892],[75.0247,28.2029],[75.248,28.4641],[75.5003,28.3363],[75.67,28.5191],[75.5615,28.6126],[75.4743,28.926]]]}},{"type":"Feature","properties":{"key":"rajasthan/dausa","slug":"dausa","name":"Dausa","state":"rajasthan"},"geometry":{"type":"Polygon","coordinates":[[[76.2802,27.0646],[76.1441,26.6948],[76.1533,26.5216],[76.1747,26.4859],[76.4117,26.4157],[76.4744,26.7168],[76.901,26.9711],[77.0968,26.8625],[76.9561,27.143],[76.2802,27.0646]]]}},{"type":"Feature","properties":{"key":"rajasthan/dholpur","slug":"dholpur","name":"Dholpur","state":"rajasthan"},"geometry":{"type":"Polygon","coordinates":[[[77.3476,26.7113],[77.2283,26.5298],[77.3751,26.3649],[77.5387,26.4116],[77.9042,26.6591],[78.0892,26.6756],[78.2222,26.8323],[78.1488,26.9491],[77.9868,26.8887],[77.7604,26.9326],[77.4546,26.7429],[77.3476,26.7113]]]}},{"type":"Feature","properties":{"key":"rajasthan/dungarpur","slug":"dungarpur","name":"Dungarpur","state":"rajasthan"},"geometry":{"type":"Polygon","coordinates":[[[73.3686,23.8147],[73.6561,23.6209],[73.627,23.449],[73.9589,23.3803],[74.147,23.7831],[74.3763,23.9041],[74.2708,23.9494],[74.1531,24.0113],[73.8381,23.9343],[73.5827,23.9632],[73.3686,23.8147]]]}},{"type":"Feature","properties":{"key":"rajasthan/ganganagar","slug":"ganganagar","name":"Ganganagar","state":"rajasthan"},"geometry":{"type":"Polygon","coordinates":[[[73.968,30.1936],[73.806,30.0671],[73.3977,29.9461],[73.283,29.5722],[72.945,29.0278],[72.6621,28.893],[72.8563,28.7253],[73.0092,28.7253],[73.2065,28.8491],[73.3365,29.0126],[73.6179,29.0346],[73.8778,28.9398],[74.0414,29.0099],[74.2158,29.2422],[74.0185,29.2862],[73.9604,29.568],[73.9788,29.7193],[74.1837,29.7495],[74.2984,29.9544],[73.8946,29.9736],[73.968,30.1936]]]}},{"type":"Feature","properties":{"key":"rajasthan/hanumangarh","slug":"hanumangarh","name":"Hanumangarh","state":"rajasthan"},"geometry":{"type":"Polygon","coordinates":[[[75.4743,28.926],[75.5278,28.9714],[75.3917,29.0621],[75.3458,29.2835],[75.2403,29.2601],[75.0813,29.2285],[74.9376,29.3618],[74.6027,29.3646],[74.5751,29.5639],[74.6164,29.7523],[74.5262,29.9406],[74.4482,29.9475],[74.2984,29.9544],[74.1837,29.7495],[73.9788,29.7193],[73.9604,29.568],[74.0185,29.2862],[74.2158,29.2422],[74.0414,29.0099],[74.1607,28.7762],[74.4192,28.8848],[74.4757,28.8147],[74.7495,28.8532],[74.803,28.9288],[75.2189,28.8656],[75.4743,28.926]]]}},{"type":"Feature","properties":{"key":"rajasthan/jaipur","slug":"jaipur","name":"Jaipur","state":"rajasthan"},"geometry":{"type":"Polygon","coordinates":[[[76.0768,27.8414],[75.9407,27.6186],[75.9178,27.4509],[75.5997,27.3011],[75.3917,27.2791],[75.3153,27.1444],[75.1608,26.9326],[74.9743,26.8914],[74.9635,26.6838],[75.1669,26.4639],[75.3657,26.4886],[75.7083,26.446],[75.8138,26.5202],[76.1533,26.5216],[76.1441,26.6948],[76.2802,27.0646],[76.2649,27.1842],[76.1166,27.2337],[76.2374,27.4743],[76.2251,27.8331],[76.0768,27.8414]]]}},{"type":"Feature","properties":{"key":"rajasthan/jaisalmer","slug":"jaisalmer","name":"Jaisalmer","state":"rajasthan"},"geometry":{"type":"Polygon","coordinates":[[[71.8807,27.9142],[71.2048,27.8359],[70.9066,27.7094],[70.7583,27.7218],[70.6772,27.9211],[70.5075,28.0366],[70.3714,28.0118],[70.1328,27.8056],[70.0258,27.5623],[69.5869,27.1842],[69.5135,27.0096],[69.5105,26.7429],[69.8866,26.5793],[70.1741,26.5518],[70.1405,26.1559],[70.3622,26.1422],[70.6543,26.1958],[70.9403,26.0789],[71.0504,26.1394],[71.2124,26.4432],[71.3271,26.4212],[71.5733,26.5065],[71.6345,26.4047],[71.8929,26.2975],[72.0642,26.3511],[72.0382,26.6811],[72.1024,26.8873],[72.0413,27.1059],[71.9618,27.1416],[71.8088,27.4413],[72.0489,27.6159],[72.2431,27.4839],[72.1391,27.8799],[71.8807,27.9142]]]}},{"type":"Feature","properties":{"key":"rajasthan/jalore","slug":"jalore","name":"Jalore","state":"rajasthan"},"geometry":{"type":"Polygon","coordinates":[[[71.188,24.6506],[71.2874,24.6162],[71.2882,24.6163],[71.3776,24.6258],[71.4785,24.6794],[71.6082,24.6767],[71.6085,24.6767],[71.6559,24.6396],[71.6573,24.6399],[71.792,24.6767],[71.7921,24.6767],[71.9189,24.6725],[72.0581,24.7124],[72.1651,24.6217],[72.1963,24.6237],[72.2847,24.6294],[72.3348,24.6327],[72.3349,24.6327],[72.3119,24.6739],[72.3731,24.766],[72.6484,25.0162],[72.8303,25.2843],[72.9358,25.2417],[73.0918,25.4672],[72.7783,25.804],[72.6759,25.6129],[72.3211,25.3888],[72.0321,25.474],[71.9159,25.3462],[71.7905,25.0781],[71.3394,24.9393],[71.188,24.6506]]]}},{"type":"Feature","properties":{"key":"rajasthan/jhalawar","slug":"jhalawar","name":"Jhalawar","state":"rajasthan"},"geometry":{"type":"Polygon","coordinates":[[[75.9208,24.5433],[75.9009,24.443],[75.7281,24.3962],[75.8367,24.0567],[75.7021,23.9659],[75.5217,24.025],[75.4621,23.9178],[75.6899,23.7473],[75.7939,23.8669],[75.9376,23.8972],[76.1181,24.1941],[76.2129,24.2093],[76.3215,24.245],[76.8811,24.1309],[76.9224,24.212],[76.8444,24.4361],[76.6074,24.4237],[76.5356,24.5103],[76.4407,24.8306],[76.3582,24.8705],[76.0646,24.7427],[76.0737,24.5722],[75.9208,24.5433]]]}},{"type":"Feature","properties":{"key":"rajasthan/jhunjhunu","slug":"jhunjhunu","name":"Jhunjhunu","state":"rajasthan"},"geometry":{"type":"Polygon","coordinates":[[[75.0247,28.2029],[75.2434,27.8469],[75.2847,27.719],[75.4284,27.642],[75.6869,27.6791],[75.7679,27.8304],[75.9331,27.928],[76.0554,28.2208],[75.8933,28.3899],[75.67,28.5191],[75.5003,28.3363],[75.248,28.4641],[75.0247,28.2029]]]}},{"type":"Feature","properties":{"key":"rajasthan/jodhpur","slug":"jodhpur","name":"Jodhpur","state":"rajasthan"},"geometry":{"type":"Polygon","coordinates":[[[72.0642,26.3511],[72.2676,26.1972],[72.4587,26.3003],[72.6896,26.1862],[72.6208,25.9744],[72.8349,25.8645],[73.1927,26.0693],[73.3074,26.0308],[73.627,26.1449],[73.8105,26.1105],[73.8105,26.3566],[73.8702,26.4295],[73.7203,26.5395],[73.5934,26.8639],[73.2035,26.868],[73.1209,26.9409],[73.1331,27.308],[72.656,27.5362],[72.5535,27.62],[72.2431,27.4839],[72.0489,27.6159],[71.8088,27.4413],[71.9618,27.1416],[72.0413,27.1059],[72.1024,26.8873],[72.0382,26.6811],[72.0642,26.3511]]]}},{"type":"Feature","properties":{"key":"rajasthan/karauli","slug":"karauli","name":"Karauli","state":"rajasthan"},"geometry":{"type":"Polygon","coordinates":[[[77.0968,26.8625],[76.901,26.9711],[76.4744,26.7168],[76.7573,26.5683],[76.9698,26.5518],[76.6013,26.336],[76.8521,26.0322],[77.1197,26.2136],[77.3751,26.3649],[77.2283,26.5298],[77.3476,26.7113],[77.0968,26.8625]]]}},{"type":"Feature","properties":{"key":"rajasthan/kota","slug":"kota","name":"Kota","state":"rajasthan"},"geometry":{"type":"Polygon","coordinates":[[[76.3566,25.7407],[76.1563,25.3599],[75.7236,25.1757],[75.6394,25.0149],[75.537,25.0149],[75.7495,24.8856],[75.7847,24.7619],[75.9208,24.5433],[76.0737,24.5722],[76.0646,24.7427],[76.3582,24.8705],[76.4407,24.8306],[76.1961,25.1248],[76.323,25.3819],[76.5937,25.408],[76.5157,25.5276],[76.5463,25.8383],[76.3566,25.7407]]]}},{"type":"Feature","properties":{"key":"rajasthan/nagaur","slug":"nagaur","name":"Nagaur","state":"rajasthan"},"geometry":{"type":"Polygon","coordinates":[[[73.8748,27.5375],[73.5445,27.4949],[73.3579,27.2598],[73.1331,27.308],[73.1209,26.9409],[73.2035,26.868],[73.5934,26.8639],[73.7203,26.5395],[73.8702,26.4295],[74.1592,26.4102],[74.2907,26.4487],[74.6699,26.5958],[74.8519,26.9794],[74.9743,26.8914],[75.1608,26.9326],[75.3153,27.1444],[75.0691,27.2158],[74.8993,27.3313],[74.7173,27.6778],[74.3412,27.6819],[74.1959,27.499],[73.8748,27.5375]]]}},{"type":"Feature","properties":{"key":"rajasthan/pali","slug":"pali","name":"Pali","state":"rajasthan"},"geometry":{"type":"Polygon","coordinates":[[[72.8349,25.8645],[72.7783,25.804],[73.0918,25.4672],[72.9358,25.2417],[73.1086,25.0396],[72.9924,24.9214],[73.1469,24.7482],[73.4879,25.1042],[73.7417,25.3929],[73.9084,25.6844],[74.0537,25.8301],[74.1072,25.8562],[74.1806,26.0322],[74.3672,26.1917],[74.2907,26.4487],[74.1592,26.4102],[73.8702,26.4295],[73.8105,26.3566],[73.8105,26.1105],[73.627,26.1449],[73.3074,26.0308],[73.1927,26.0693],[72.8349,25.8645]]]}},{"type":"Feature","properties":{"key":"rajasthan/pratapgarh","slug":"pratapgarh","name":"Pratapgarh","state":"rajasthan"},"geometry":{"type":"Polygon","coordinates":[[[74.2708,23.9494],[74.3763,23.9041],[74.5614,23.8051],[74.5186,23.636],[74.7724,23.5425],[74.9406,23.7652],[74.9024,23.8738],[74.9743,24.0402],[74.9085,24.212],[74.754,24.2423],[74.855,24.4237],[74.6975,24.4828],[74.5935,24.509],[74.5186,24.2862],[74.4299,24.2574],[74.2219,24.0993],[74.2708,23.9494]]]}},{"type":"Feature","properties":{"key":"rajasthan/rajsamand","slug":"rajsamand","name":"Rajsamand","state":"rajasthan"},"geometry":{"type":"Polygon","coordinates":[[[74.0537,25.8301],[73.9084,25.6844],[73.7417,25.3929],[73.4879,25.1042],[73.4726,25.0259],[73.6714,24.7702],[73.994,24.9214],[74.1424,24.8815],[74.2632,25.0657],[74.0476,25.2376],[74.0216,25.3476],[74.1821,25.848],[74.1072,25.8562],[74.0537,25.8301]]]}},{"type":"Feature","properties":{"key":"rajasthan/sawai-madhopur","slug":"sawai-madhopur","name":"Sawai Madhopur","state":"rajasthan"},"geometry":{"type":"Polygon","coordinates":[[[76.1747,26.4859],[76.1013,26.2411],[75.9942,26.116],[76.2098,25.8603],[76.3123,25.8136],[76.3566,25.7407],[76.5463,25.8383],[76.7879,25.9442],[76.8521,26.0322],[76.6013,26.336],[76.9698,26.5518],[76.7573,26.5683],[76.4744,26.7168],[76.4117,26.4157],[76.1747,26.4859]]]}},{"type":"Feature","properties":{"key":"rajasthan/sikar","slug":"sikar","name":"Sikar","state":"rajasthan"},"geometry":{"type":"Polygon","coordinates":[[[74.7173,27.6778],[74.8993,27.3313],[75.0691,27.2158],[75.3153,27.1444],[75.3917,27.2791],[75.5997,27.3011],[75.9178,27.4509],[75.9407,27.6186],[76.0768,27.8414],[75.9331,27.928],[75.7679,27.8304],[75.6869,27.6791],[75.4284,27.642],[75.2847,27.719],[75.2434,27.8469],[75.0247,28.2029],[74.8871,28.1892],[74.7357,27.8908],[74.7173,27.6778]]]}},{"type":"Feature","properties":{"key":"rajasthan/sirohi","slug":"sirohi","name":"Sirohi","state":"rajasthan"},"geometry":{"type":"Polygon","coordinates":[[[72.9358,25.2417],[72.8303,25.2843],[72.6484,25.0162],[72.3731,24.766],[72.3119,24.6739],[72.3349,24.6327],[72.3353,24.6332],[72.3473,24.6285],[72.3407,24.6109],[72.3532,24.5639],[72.3536,24.5636],[72.3537,24.5636],[72.3538,24.5633],[72.4999,24.417],[72.5001,24.417],[72.5199,24.5007],[72.682,24.4639],[72.6833,24.4637],[72.6833,24.4636],[72.6835,24.4636],[72.7279,24.3674],[72.8161,24.3647],[72.8536,24.3712],[72.8753,24.363],[72.9583,24.3605],[72.9589,24.3608],[73.0016,24.4801],[73.1469,24.7482],[72.9924,24.9214],[73.1086,25.0396],[72.9358,25.2417]]]}},{"type":"Feature","properties":{"key":"rajasthan/tonk","slug":"tonk","name":"Tonk","state":"rajasthan"},"geometry":{"type":"Polygon","coordinates":[[[75.1669,26.4639],[75.1119,26.2879],[75.3168,25.7669],[75.459,25.7229],[75.6547,25.749],[75.8627,25.8755],[76.138,25.7847],[76.3123,25.8136],[76.2098,25.8603],[75.9942,26.116],[76.1013,26.2411],[76.1747,26.4859],[76.1533,26.5216],[75.8138,26.5202],[75.7083,26.446],[75.3657,26.4886],[75.1669,26.4639]]]}},{"type":"Feature","properties":{"key":"rajasthan/udaipur","slug":"udaipur","name":"Udaipur","state":"rajasthan"},"geometry":{"type":"Polygon","coordinates":[[[73.1469,24.7482],[73.0016,24.4801],[73.1515,24.355],[73.0674,24.1941],[73.2142,24.0773],[73.4053,24.0415],[73.3778,23.9041],[73.3686,23.8147],[73.5827,23.9632],[73.8381,23.9343],[74.1531,24.0113],[74.2708,23.9494],[74.2219,24.0993],[74.4299,24.2574],[74.3672,24.2835],[74.2708,24.5763],[74.1041,24.7344],[74.1424,24.8815],[73.994,24.9214],[73.6714,24.7702],[73.4726,25.0259],[73.4879,25.1042],[73.1469,24.7482]]]}}]}