{"type":"FeatureCollection","features":[{"type":"Feature","properties":{"key":"sikkim/east-sikkim","slug":"east-sikkim","name":"East Sikkim","state":"sikkim"},"geometry":{"type":"Polygon","coordinates":[[[88.4831,27.3753],[88.532,27.176],[88.7216,27.1389],[88.9189,27.3203],[88.7935,27.4166],[88.4831,27.3753]]]}},{"type":"Feature","properties":{"key":"sikkim/north-sikkim","slug":"north-sikkim","name":"North Sikkim","state":"sikkim"},"geometry":{"type":"Polygon","coordinates":[[[88.4831,27.3753],[88.7935,27.4166],[88.7645,27.565],[88.8486,27.6681],[88.844,27.9926],[88.6192,28.0984],[88.2048,27.9417],[88.1146,27.6186],[88.2812,27.5128],[88.4831,27.3753]]]}},{"type":"Feature","properties":{"key":"sikkim/south-sikkim","slug":"south-sikkim","name":"South Sikkim","state":"sikkim"},"geometry":{"type":"Polygon","coordinates":[[[88.2812,27.5128],[88.2812,27.132],[88.425,27.0715],[88.532,27.176],[88.4831,27.3753],[88.2812,27.5128]]]}},{"type":"Feature","properties":{"key":"sikkim/west-sikkim","slug":"west-sikkim","name":"West Sikkim","state":"sikkim"},"geometry":{"type":"Polygon","coordinates":[[[88.1146,27.6186],[88.0442,27.4784],[88.0381,27.22],[88.1543,27.11],[88.2812,27.132],[88.2812,27.5128],[88.1146,27.6186]]]}}]}