{"type":"FeatureCollection","features":[{"type":"Feature","properties":{"key":"tamil-nadu/ariyalur","slug":"ariyalur","name":"Ariyalur","state":"tamil-nadu"},"geometry":{"type":"Polygon","coordinates":[[[79.0067,11.0584],[79.0037,10.8934],[79.2223,10.947],[79.4578,11.1505],[79.4976,11.3141],[79.3676,11.4185],[79.1688,11.3787],[79.0067,11.0584]]]}},{"type":"Feature","properties":{"key":"tamil-nadu/chengalpattu","slug":"chengalpattu","name":"Chengalpattu","state":"tamil-nadu"},"geometry":{"type":"Polygon","coordinates":[[[80.0802,13.016],[80.0527,12.8387],[79.9089,12.7988],[79.9242,12.6325],[79.7438,12.5321],[79.6398,12.3451],[80.0083,12.2544],[80.1383,12.4111],[80.2499,12.8579],[80.1276,13.0339],[80.0802,13.016]]]}},{"type":"Feature","properties":{"key":"tamil-nadu/chennai","slug":"chennai","name":"Chennai","state":"tamil-nadu"},"geometry":{"type":"Polygon","coordinates":[[[80.1276,13.0339],[80.2499,12.8579],[80.3004,13.1425],[80.1276,13.0339]]]}},{"type":"Feature","properties":{"key":"tamil-nadu/coimbatore","slug":"coimbatore","name":"Coimbatore","state":"tamil-nadu"},"geometry":{"type":"Polygon","coordinates":[[[76.9637,11.3855],[76.7068,11.2398],[76.7542,11.079],[76.6564,10.9388],[76.9071,10.782],[76.8383,10.5964],[76.8337,10.3394],[76.8919,10.2596],[77.0509,10.2624],[77.0906,10.3146],[77.0906,10.5841],[77.1824,10.9209],[77.1472,11.3361],[76.9637,11.3855]]]}},{"type":"Feature","properties":{"key":"tamil-nadu/cuddalore","slug":"cuddalore","name":"Cuddalore","state":"tamil-nadu"},"geometry":{"type":"Polygon","coordinates":[[[79.1688,11.3787],[79.3676,11.4185],[79.4976,11.3141],[79.4578,11.1505],[79.5266,11.1835],[79.8126,11.424],[79.7606,11.6234],[79.808,11.8447],[79.6857,11.8805],[79.4685,11.8722],[79.4318,11.7829],[79.3844,11.6811],[79.1841,11.5863],[79.019,11.5945],[78.8783,11.5079],[78.9624,11.4048],[79.1688,11.3787]]]}},{"type":"Feature","properties":{"key":"tamil-nadu/dharmapuri","slug":"dharmapuri","name":"Dharmapuri","state":"tamil-nadu"},"geometry":{"type":"Polygon","coordinates":[[[77.7467,12.1554],[77.6763,11.9519],[77.9715,11.8956],[78.2345,11.9794],[78.4822,11.8172],[78.6275,11.8695],[78.7177,11.9836],[78.6321,12.176],[78.4715,12.1733],[78.1748,12.3369],[78.0112,12.5032],[77.9271,12.3245],[77.7467,12.1554]]]}},{"type":"Feature","properties":{"key":"tamil-nadu/dindigul","slug":"dindigul","name":"Dindigul","state":"tamil-nadu"},"geometry":{"type":"Polygon","coordinates":[[[78.1993,10.5469],[78.1534,10.7449],[78.028,10.7807],[77.9745,10.6404],[77.8078,10.6803],[77.5861,10.683],[77.4179,10.6253],[77.3231,10.448],[77.2879,10.2321],[77.268,10.1221],[77.4653,10.1304],[77.6182,10.2143],[77.713,10.0259],[77.9134,10.074],[78.0204,10.184],[78.2804,10.129],[78.3339,10.3009],[78.1993,10.5469]]]}},{"type":"Feature","properties":{"key":"tamil-nadu/erode","slug":"erode","name":"Erode","state":"tamil-nadu"},"geometry":{"type":"Polygon","coordinates":[[[77.6763,11.9519],[77.4944,11.9437],[77.4286,11.7677],[77.2925,11.809],[76.9087,11.7952],[76.8475,11.5945],[77.0081,11.545],[76.9637,11.3855],[77.1472,11.3361],[77.476,11.3017],[77.5005,11.1078],[77.7773,11.0584],[77.9332,11.0707],[77.8629,11.2453],[77.6962,11.4639],[77.71,11.8103],[77.6763,11.9519]]]}},{"type":"Feature","properties":{"key":"tamil-nadu/kallakurichi","slug":"kallakurichi","name":"Kallakurichi","state":"tamil-nadu"},"geometry":{"type":"Polygon","coordinates":[[[78.7177,11.9836],[78.6275,11.8695],[78.6428,11.7691],[78.8431,11.523],[78.8783,11.5079],[79.019,11.5945],[79.1841,11.5863],[79.3844,11.6811],[79.4318,11.7829],[79.1719,12.0303],[78.9593,12.0688],[78.7177,11.9836]]]}},{"type":"Feature","properties":{"key":"tamil-nadu/kancheepuram","slug":"kancheepuram","name":"Kancheepuram","state":"tamil-nadu"},"geometry":{"type":"Polygon","coordinates":[[[79.7897,13.0243],[79.5603,12.8538],[79.7453,12.7438],[79.6306,12.6311],[79.7438,12.5321],[79.9242,12.6325],[79.9089,12.7988],[80.0527,12.8387],[80.0802,13.016],[79.8906,12.9445],[79.7897,13.0243]]]}},{"type":"Feature","properties":{"key":"tamil-nadu/kanyakumari","slug":"kanyakumari","name":"Kanyakumari","state":"tamil-nadu"},"geometry":{"type":"Polygon","coordinates":[[[77.5892,8.1398],[77.4393,8.5068],[77.2696,8.5783],[77.0983,8.2924],[77.2329,8.181],[77.4454,8.0944],[77.5892,8.1398]]]}},{"type":"Feature","properties":{"key":"tamil-nadu/karur","slug":"karur","name":"Karur","state":"tamil-nadu"},"geometry":{"type":"Polygon","coordinates":[[[77.7773,11.0584],[77.8323,10.8384],[77.8078,10.6803],[77.9745,10.6404],[78.028,10.7807],[78.1534,10.7449],[78.1993,10.5469],[78.2926,10.7023],[78.421,10.6707],[78.5663,10.7408],[78.5785,10.8508],[78.4027,10.9607],[78.1641,11.013],[77.9332,11.0707],[77.7773,11.0584]]]}},{"type":"Feature","properties":{"key":"tamil-nadu/krishnagiri","slug":"krishnagiri","name":"Krishnagiri","state":"tamil-nadu"},"geometry":{"type":"Polygon","coordinates":[[[78.4119,12.627],[78.2314,12.7603],[78.0571,12.8524],[77.8659,12.8703],[77.8308,12.8662],[77.739,12.6723],[77.6014,12.6682],[77.6152,12.3671],[77.4714,12.2434],[77.7467,12.1554],[77.9271,12.3245],[78.0112,12.5032],[78.1748,12.3369],[78.4715,12.1733],[78.6321,12.176],[78.6474,12.2585],[78.5678,12.3877],[78.4363,12.3946],[78.4119,12.627]]]}},{"type":"Feature","properties":{"key":"tamil-nadu/madurai","slug":"madurai","name":"Madurai","state":"tamil-nadu"},"geometry":{"type":"Polygon","coordinates":[[[78.3339,10.3009],[78.2804,10.129],[78.0204,10.184],[77.9134,10.074],[77.713,10.0259],[77.476,9.5626],[77.5372,9.6602],[78.0143,9.6396],[78.1366,9.762],[78.1519,9.8747],[78.4562,9.9682],[78.3782,10.3105],[78.3339,10.3009]]]}},{"type":"Feature","properties":{"key":"tamil-nadu/nagapattinam","slug":"nagapattinam","name":"Nagapattinam","state":"tamil-nadu"},"geometry":{"type":"MultiPolygon","coordinates":[[[[79.4716,10.316],[79.7683,10.272],[79.8722,10.36],[79.8493,10.8274],[79.7239,10.9291],[79.652,10.8246],[79.6673,10.5744],[79.6306,10.3779],[79.5006,10.3696],[79.4716,10.316]]],[[[79.5159,10.9704],[79.7484,10.9965],[79.8508,10.9855],[79.8126,11.424],[79.5266,11.1835],[79.5159,10.9704]]]]}},{"type":"Feature","properties":{"key":"tamil-nadu/namakkal","slug":"namakkal","name":"Namakkal","state":"tamil-nadu"},"geometry":{"type":"Polygon","coordinates":[[[77.6962,11.4639],[77.8629,11.2453],[77.9332,11.0707],[78.1641,11.013],[78.3232,11.0584],[78.4868,11.4075],[78.4394,11.5986],[78.0464,11.5189],[77.8522,11.4158],[77.6962,11.4639]]]}},{"type":"Feature","properties":{"key":"tamil-nadu/nilgiris","slug":"nilgiris","name":"Nilgiris","state":"tamil-nadu"},"geometry":{"type":"Polygon","coordinates":[[[76.8475,11.5945],[76.4178,11.6715],[76.2343,11.5271],[76.5478,11.3594],[76.4423,11.2013],[76.7068,11.2398],[76.9637,11.3855],[77.0081,11.545],[76.8475,11.5945]]]}},{"type":"Feature","properties":{"key":"tamil-nadu/perambalur","slug":"perambalur","name":"Perambalur","state":"tamil-nadu"},"geometry":{"type":"Polygon","coordinates":[[[78.6627,11.3732],[78.6749,11.1642],[79.0067,11.0584],[79.1688,11.3787],[78.9624,11.4048],[78.8783,11.5079],[78.8431,11.523],[78.6627,11.3732]]]}},{"type":"Feature","properties":{"key":"tamil-nadu/pudukkottai","slug":"pudukkottai","name":"Pudukkottai","state":"tamil-nadu"},"geometry":{"type":"Polygon","coordinates":[[[78.5051,10.3765],[78.7085,10.1758],[78.9134,10.1441],[78.9914,9.9434],[79.1168,9.8499],[79.2514,10.0507],[79.2269,10.1373],[79.1153,10.2349],[79.152,10.349],[79.0694,10.6721],[78.8737,10.705],[78.6275,10.7037],[78.4593,10.6116],[78.5051,10.3765]]]}},{"type":"Feature","properties":{"key":"tamil-nadu/ramanathapuram","slug":"ramanathapuram","name":"Ramanathapuram","state":"tamil-nadu"},"geometry":{"type":"Polygon","coordinates":[[[78.2804,9.2849],[78.2742,9.1488],[78.3843,9.0938],[78.5785,9.131],[78.8722,9.2574],[79.0648,9.2987],[78.8997,9.4691],[78.9807,9.6891],[79.1168,9.8499],[78.9914,9.9434],[78.7253,9.7111],[78.6565,9.5461],[78.4287,9.6094],[78.2804,9.2849]]]}},{"type":"Feature","properties":{"key":"tamil-nadu/ranipet","slug":"ranipet","name":"Ranipet","state":"tamil-nadu"},"geometry":{"type":"Polygon","coordinates":[[[79.2835,13.1232],[79.2285,13.1576],[79.2942,13.0518],[79.1887,12.9129],[79.2086,12.785],[79.4502,12.6709],[79.5603,12.8538],[79.7897,13.0243],[79.7361,13.1672],[79.2835,13.1232]]]}},{"type":"Feature","properties":{"key":"tamil-nadu/salem","slug":"salem","name":"Salem","state":"tamil-nadu"},"geometry":{"type":"Polygon","coordinates":[[[77.6763,11.9519],[77.71,11.8103],[77.6962,11.4639],[77.8522,11.4158],[78.0464,11.5189],[78.4394,11.5986],[78.4868,11.4075],[78.6627,11.3732],[78.8431,11.523],[78.6428,11.7691],[78.6275,11.8695],[78.4822,11.8172],[78.2345,11.9794],[77.9715,11.8956],[77.6763,11.9519]]]}},{"type":"Feature","properties":{"key":"tamil-nadu/sivaganga","slug":"sivaganga","name":"Sivaganga","state":"tamil-nadu"},"geometry":{"type":"Polygon","coordinates":[[[78.3782,10.3105],[78.4562,9.9682],[78.1519,9.8747],[78.1366,9.762],[78.2085,9.7812],[78.4287,9.6094],[78.6565,9.5461],[78.7253,9.7111],[78.9914,9.9434],[78.9134,10.1441],[78.7085,10.1758],[78.5051,10.3765],[78.3782,10.3105]]]}},{"type":"Feature","properties":{"key":"tamil-nadu/tenkasi","slug":"tenkasi","name":"Tenkasi","state":"tamil-nadu"},"geometry":{"type":"Polygon","coordinates":[[[77.3399,9.4196],[77.2818,9.2987],[77.2038,9.0705],[77.2558,8.8794],[77.4454,8.7419],[77.5678,8.7886],[77.6243,9.0567],[77.7023,9.0636],[77.8476,9.2451],[77.5081,9.3317],[77.3399,9.4196]]]}},{"type":"Feature","properties":{"key":"tamil-nadu/thanjavur","slug":"thanjavur","name":"Thanjavur","state":"tamil-nadu"},"geometry":{"type":"Polygon","coordinates":[[[78.8737,10.705],[79.0694,10.6721],[79.152,10.349],[79.1153,10.2349],[79.2269,10.1373],[79.2667,10.2294],[79.4716,10.316],[79.5006,10.3696],[79.4823,10.4892],[79.3462,10.5923],[79.3003,10.936],[79.4548,10.8645],[79.5159,10.9704],[79.5266,11.1835],[79.4578,11.1505],[79.2223,10.947],[79.0037,10.8934],[78.8691,10.826],[78.8737,10.705]]]}},{"type":"Feature","properties":{"key":"tamil-nadu/theni","slug":"theni","name":"Theni","state":"tamil-nadu"},"geometry":{"type":"Polygon","coordinates":[[[77.268,10.1221],[77.1671,9.6121],[77.4026,9.5255],[77.476,9.5626],[77.713,10.0259],[77.6182,10.2143],[77.4653,10.1304],[77.268,10.1221]]]}},{"type":"Feature","properties":{"key":"tamil-nadu/thiruvallur","slug":"thiruvallur","name":"Thiruvallur","state":"tamil-nadu"},"geometry":{"type":"Polygon","coordinates":[[[80.1276,13.0339],[80.3004,13.1425],[80.3448,13.2758],[80.2683,13.5645],[80.0374,13.5384],[79.9456,13.3638],[79.5343,13.2758],[79.2835,13.1232],[79.7361,13.1672],[79.7897,13.0243],[79.8906,12.9445],[80.0802,13.016],[80.1276,13.0339]]]}},{"type":"Feature","properties":{"key":"tamil-nadu/thiruvarur","slug":"thiruvarur","name":"Thiruvarur","state":"tamil-nadu"},"geometry":{"type":"Polygon","coordinates":[[[79.5006,10.3696],[79.6306,10.3779],[79.6673,10.5744],[79.652,10.8246],[79.7239,10.9291],[79.7484,10.9965],[79.5159,10.9704],[79.4548,10.8645],[79.3003,10.936],[79.3462,10.5923],[79.4823,10.4892],[79.5006,10.3696]]]}},{"type":"Feature","properties":{"key":"tamil-nadu/thoothukkudi","slug":"thoothukkudi","name":"Thoothukkudi","state":"tamil-nadu"},"geometry":{"type":"Polygon","coordinates":[[[77.8476,9.2451],[77.7023,9.0636],[77.8048,8.878],[77.8507,8.357],[77.9699,8.335],[78.1427,8.5013],[78.1718,8.8835],[78.3843,9.0938],[78.2742,9.1488],[78.2804,9.2849],[78.0571,9.3633],[77.8476,9.2451]]]}},{"type":"Feature","properties":{"key":"tamil-nadu/tiruchirappalli","slug":"tiruchirappalli","name":"Tiruchirappalli","state":"tamil-nadu"},"geometry":{"type":"Polygon","coordinates":[[[78.4868,11.4075],[78.3232,11.0584],[78.1641,11.013],[78.4027,10.9607],[78.5785,10.8508],[78.5663,10.7408],[78.421,10.6707],[78.2926,10.7023],[78.1993,10.5469],[78.3339,10.3009],[78.3782,10.3105],[78.5051,10.3765],[78.4593,10.6116],[78.6275,10.7037],[78.8737,10.705],[78.8691,10.826],[79.0037,10.8934],[79.0067,11.0584],[78.6749,11.1642],[78.6627,11.3732],[78.4868,11.4075]]]}},{"type":"Feature","properties":{"key":"tamil-nadu/tirunelveli","slug":"tirunelveli","name":"Tirunelveli","state":"tamil-nadu"},"geometry":{"type":"Polygon","coordinates":[[[77.7023,9.0636],[77.6243,9.0567],[77.5678,8.7886],[77.4454,8.7419],[77.2558,8.8794],[77.1992,8.7708],[77.2696,8.5783],[77.4393,8.5068],[77.5892,8.1398],[77.7941,8.1631],[77.9699,8.335],[77.8507,8.357],[77.8048,8.878],[77.7023,9.0636]]]}},{"type":"Feature","properties":{"key":"tamil-nadu/tirupathur","slug":"tirupathur","name":"Tirupathur","state":"tamil-nadu"},"geometry":{"type":"Polygon","coordinates":[[[78.6474,12.2585],[78.7101,12.3039],[78.8584,12.6338],[78.7682,12.6806],[78.7819,12.8469],[78.603,12.8442],[78.4119,12.627],[78.4363,12.3946],[78.5678,12.3877],[78.6474,12.2585]]]}},{"type":"Feature","properties":{"key":"tamil-nadu/tiruppur","slug":"tiruppur","name":"Tiruppur","state":"tamil-nadu"},"geometry":{"type":"Polygon","coordinates":[[[77.1472,11.3361],[77.1824,10.9209],[77.0906,10.5841],[77.0906,10.3146],[77.2879,10.2321],[77.3231,10.448],[77.4179,10.6253],[77.5861,10.683],[77.8078,10.6803],[77.8323,10.8384],[77.7773,11.0584],[77.5005,11.1078],[77.476,11.3017],[77.1472,11.3361]]]}},{"type":"Feature","properties":{"key":"tamil-nadu/tiruvannamalai","slug":"tiruvannamalai","name":"Tiruvannamalai","state":"tamil-nadu"},"geometry":{"type":"Polygon","coordinates":[[[78.6321,12.176],[78.7177,11.9836],[78.9593,12.0688],[79.1719,12.0303],[79.2499,12.3231],[79.2315,12.4427],[79.6398,12.3451],[79.7438,12.5321],[79.6306,12.6311],[79.7453,12.7438],[79.5603,12.8538],[79.4502,12.6709],[79.2086,12.785],[78.8584,12.6338],[78.7101,12.3039],[78.6474,12.2585],[78.6321,12.176]]]}},{"type":"Feature","properties":{"key":"tamil-nadu/vellore","slug":"vellore","name":"Vellore","state":"tamil-nadu"},"geometry":{"type":"Polygon","coordinates":[[[79.2086,12.785],[79.1887,12.9129],[79.2942,13.0518],[79.2285,13.1576],[79.1627,13.0201],[78.892,13.0957],[78.6214,12.9913],[78.603,12.8442],[78.7819,12.8469],[78.7682,12.6806],[78.8584,12.6338],[79.2086,12.785]]]}},{"type":"Feature","properties":{"key":"tamil-nadu/viluppuram","slug":"viluppuram","name":"Viluppuram","state":"tamil-nadu"},"geometry":{"type":"Polygon","coordinates":[[[79.1719,12.0303],[79.4318,11.7829],[79.4685,11.8722],[79.6857,11.8805],[79.8401,11.9561],[80.0083,12.2544],[79.6398,12.3451],[79.2315,12.4427],[79.2499,12.3231],[79.1719,12.0303]]]}},{"type":"Feature","properties":{"key":"tamil-nadu/virudhunagar","slug":"virudhunagar","name":"Virudhunagar","state":"tamil-nadu"},"geometry":{"type":"Polygon","coordinates":[[[77.476,9.5626],[77.4026,9.5255],[77.3399,9.4196],[77.5081,9.3317],[77.8476,9.2451],[78.0571,9.3633],[78.2804,9.2849],[78.4287,9.6094],[78.2085,9.7812],[78.1366,9.762],[78.0143,9.6396],[77.5372,9.6602],[77.476,9.5626]]]}}]}