{"type":"FeatureCollection","features":[{"type":"Feature","properties":{"key":"telangana/adilabad","slug":"adilabad","name":"Adilabad","state":"telangana"},"geometry":{"type":"Polygon","coordinates":[[[78.8416,19.7619],[78.4317,19.8142],[78.3064,19.9118],[78.3645,19.7812],[78.2758,19.6918],[78.3094,19.4815],[78.1932,19.3165],[78.3889,19.1763],[78.6749,19.3165],[78.8553,19.278],[78.8538,19.4471],[78.9364,19.5502],[78.8416,19.7619]]]}},{"type":"Feature","properties":{"key":"telangana/bhadradri-kothagudem","slug":"bhadradri-kothagudem","name":"Bhadradri Kothagudem","state":"telangana"},"geometry":{"type":"Polygon","coordinates":[[[81.0849,17.7974],[81.0161,17.7947],[80.9794,18.1658],[80.7561,18.17],[80.3922,18.082],[80.2698,17.9431],[80.2025,17.5582],[80.3692,17.5678],[80.5007,17.3671],[80.6827,17.297],[80.8586,17.3644],[80.9411,17.2186],[81.1736,17.231],[81.3097,17.4097],[81.0207,17.5197],[80.9106,17.6379],[80.8861,17.7355],[81.0849,17.7974]]]}},{"type":"Feature","properties":{"key":"telangana/hyderabad","slug":"hyderabad","name":"Hyderabad","state":"telangana"},"geometry":{"type":"Polygon","coordinates":[[[78.5281,17.374],[78.4073,17.4386],[78.4516,17.3231],[78.5281,17.374]]]}},{"type":"Feature","properties":{"key":"telangana/jagtial","slug":"jagtial","name":"Jagtial","state":"telangana"},"geometry":{"type":"Polygon","coordinates":[[[79.3019,18.8161],[79.1826,18.8683],[79.022,19.0759],[78.9471,19.0732],[78.6948,19.0319],[78.5357,18.9481],[78.5418,18.8147],[78.6703,18.6236],[78.9578,18.5769],[79.1107,18.6607],[79.3019,18.8161]]]}},{"type":"Feature","properties":{"key":"telangana/jangaon","slug":"jangaon","name":"Jangaon","state":"telangana"},"geometry":{"type":"Polygon","coordinates":[[[79.5144,17.7947],[79.5037,17.8648],[79.2285,17.9912],[79.0924,17.873],[78.8676,17.8249],[79.1306,17.6723],[79.256,17.4716],[79.3707,17.4826],[79.5389,17.5238],[79.5725,17.6214],[79.5144,17.7947]]]}},{"type":"Feature","properties":{"key":"telangana/jayashankar-bhupalapally","slug":"jayashankar-bhupalapally","name":"Jayashankar Bhupalapally","state":"telangana"},"geometry":{"type":"Polygon","coordinates":[[[79.9135,18.8257],[79.8095,18.7034],[79.7912,18.5728],[79.5664,18.4243],[79.5633,18.2634],[79.5786,18.2428],[79.8401,18.1328],[79.9227,18.4064],[80.2163,18.3899],[80.2316,18.5563],[80.3723,18.6113],[80.2759,18.7199],[80.1184,18.68],[79.9135,18.8257]]]}},{"type":"Feature","properties":{"key":"telangana/jogulamba-gadwal","slug":"jogulamba-gadwal","name":"Jogulamba Gadwal","state":"telangana"},"geometry":{"type":"Polygon","coordinates":[[[77.5142,15.9277],[78.0831,15.8411],[78.2482,15.9717],[78.158,15.9511],[77.947,16.1188],[77.9317,16.1931],[77.661,16.3622],[77.5938,16.3429],[77.5005,16.2219],[77.5142,15.9277]]]}},{"type":"Feature","properties":{"key":"telangana/kamareddy","slug":"kamareddy","name":"Kamareddy","state":"telangana"},"geometry":{"type":"Polygon","coordinates":[[[77.5509,18.2923],[77.6014,18.2758],[77.869,18.1892],[77.8981,18.0916],[78.0709,18.06],[78.314,18.1796],[78.5678,18.1837],[78.5678,18.2222],[78.5296,18.4655],[78.2605,18.4532],[78.0387,18.5178],[77.7895,18.4972],[77.739,18.5563],[77.5968,18.5494],[77.5509,18.2923]]]}},{"type":"Feature","properties":{"key":"telangana/karimnagar","slug":"karimnagar","name":"Karimnagar","state":"telangana"},"geometry":{"type":"Polygon","coordinates":[[[78.9578,18.5769],[78.9226,18.4752],[79.019,18.3171],[79.1627,18.1576],[79.3019,18.1301],[79.5633,18.2634],[79.5664,18.4243],[79.3064,18.4807],[79.1107,18.6607],[78.9578,18.5769]]]}},{"type":"Feature","properties":{"key":"telangana/khammam","slug":"khammam","name":"Khammam","state":"telangana"},"geometry":{"type":"Polygon","coordinates":[[[80.8769,17.0702],[80.9411,17.2186],[80.8586,17.3644],[80.6827,17.297],[80.5007,17.3671],[80.3692,17.5678],[80.2025,17.5582],[80.1093,17.3589],[79.9915,17.3987],[79.8034,17.3231],[80.0557,16.9712],[80.1873,17.0207],[80.3218,16.8791],[80.5695,16.7677],[80.6017,16.9189],[80.5053,17.0688],[80.8769,17.0702]]]}},{"type":"Feature","properties":{"key":"telangana/komaram-bheem","slug":"komaram-bheem","name":"Komaram Bheem","state":"telangana"},"geometry":{"type":"Polygon","coordinates":[[[79.8065,19.5791],[79.7438,19.6093],[79.4716,19.5007],[79.2529,19.5928],[78.9364,19.5502],[78.8538,19.4471],[78.8553,19.278],[78.9532,19.2491],[79.2667,19.0333],[79.3508,19.2106],[79.9288,19.1584],[79.9778,19.399],[79.8065,19.5791]]]}},{"type":"Feature","properties":{"key":"telangana/mahabubabad","slug":"mahabubabad","name":"Mahabubabad","state":"telangana"},"geometry":{"type":"Polygon","coordinates":[[[79.5389,17.5238],[79.7514,17.44],[79.8034,17.3231],[79.9915,17.3987],[80.1093,17.3589],[80.2025,17.5582],[80.2698,17.9431],[80.149,18.0834],[79.9915,18.1081],[79.9946,17.8895],[79.8936,17.73],[79.5725,17.6214],[79.5389,17.5238]]]}},{"type":"Feature","properties":{"key":"telangana/mahabubnagar","slug":"mahabubnagar","name":"Mahabubnagar","state":"telangana"},"geometry":{"type":"Polygon","coordinates":[[[77.7513,16.4034],[77.9164,16.4419],[78.0066,16.6096],[78.1213,16.5931],[78.3492,16.7801],[78.2758,16.9231],[77.999,16.9794],[77.9149,16.9217],[77.7604,17.0028],[77.7268,16.8502],[77.788,16.5739],[77.7513,16.4034]]]}},{"type":"Feature","properties":{"key":"telangana/mancherial","slug":"mancherial","name":"Mancherial","state":"telangana"},"geometry":{"type":"Polygon","coordinates":[[[79.9288,19.1584],[79.3508,19.2106],[79.2667,19.0333],[78.9532,19.2491],[78.9471,19.0732],[79.022,19.0759],[79.1826,18.8683],[79.3019,18.8161],[79.4303,18.8477],[79.6796,18.6731],[79.8095,18.7034],[79.9135,18.8257],[79.9609,18.8656],[79.9288,19.1584]]]}},{"type":"Feature","properties":{"key":"telangana/medak","slug":"medak","name":"Medak","state":"telangana"},"geometry":{"type":"Polygon","coordinates":[[[77.8981,18.0916],[77.8247,17.9871],[77.9363,17.8895],[78.4486,17.7039],[78.499,17.686],[78.5678,18.1837],[78.314,18.1796],[78.0709,18.06],[77.8981,18.0916]]]}},{"type":"Feature","properties":{"key":"telangana/medchal-malkajgiri","slug":"medchal-malkajgiri","name":"Medchal Malkajgiri","state":"telangana"},"geometry":{"type":"Polygon","coordinates":[[[78.5281,17.374],[78.7376,17.3864],[78.6764,17.5761],[78.7238,17.6682],[78.499,17.686],[78.4486,17.7039],[78.3476,17.5225],[78.4073,17.4386],[78.5281,17.374]]]}},{"type":"Feature","properties":{"key":"telangana/mulugu","slug":"mulugu","name":"Mulugu","state":"telangana"},"geometry":{"type":"Polygon","coordinates":[[[80.3723,18.6113],[80.2316,18.5563],[80.2163,18.3899],[79.9227,18.4064],[79.8401,18.1328],[79.9915,18.1081],[80.149,18.0834],[80.2698,17.9431],[80.3922,18.082],[80.7561,18.17],[80.7056,18.4394],[80.4549,18.6305],[80.3723,18.6113]]]}},{"type":"Feature","properties":{"key":"telangana/nagarkurnool","slug":"nagarkurnool","name":"Nagarkurnool","state":"telangana"},"geometry":{"type":"Polygon","coordinates":[[[79.2101,16.3567],[78.8553,16.5505],[78.7238,16.5395],[78.7544,16.7498],[78.5373,16.8213],[78.3492,16.7801],[78.1213,16.5931],[78.0999,16.4873],[78.314,16.38],[78.1963,16.2082],[78.2559,16.0088],[78.6015,16.0845],[78.7406,16.0088],[78.9226,16.123],[79.0297,16.2412],[79.2147,16.2261],[79.2101,16.3567]]]}},{"type":"Feature","properties":{"key":"telangana/nalgonda","slug":"nalgonda","name":"Nalgonda","state":"telangana"},"geometry":{"type":"Polygon","coordinates":[[[79.6796,16.6935],[79.5924,17.0839],[79.4502,17.3451],[79.2514,17.3589],[79.2055,17.2626],[78.9823,17.2791],[78.9517,17.132],[78.8416,17.0715],[78.7299,16.8639],[78.7544,16.7498],[78.7238,16.5395],[78.8553,16.5505],[79.2101,16.3567],[79.2575,16.5656],[79.4181,16.5807],[79.6796,16.6935]]]}},{"type":"Feature","properties":{"key":"telangana/narayanpet","slug":"narayanpet","name":"Narayanpet","state":"telangana"},"geometry":{"type":"Polygon","coordinates":[[[77.4592,16.8846],[77.4164,16.5175],[77.2879,16.4089],[77.5938,16.3429],[77.661,16.3622],[77.7513,16.4034],[77.788,16.5739],[77.7268,16.8502],[77.7604,17.0028],[77.4668,16.9547],[77.4592,16.8846]]]}},{"type":"Feature","properties":{"key":"telangana/nirmal","slug":"nirmal","name":"Nirmal","state":"telangana"},"geometry":{"type":"Polygon","coordinates":[[[77.9485,18.8436],[78.2406,19.0168],[78.5357,18.9481],[78.6948,19.0319],[78.9471,19.0732],[78.9532,19.2491],[78.8553,19.278],[78.6749,19.3165],[78.3889,19.1763],[78.1932,19.3165],[77.8629,19.3041],[77.7971,19.0732],[77.843,18.9082],[77.9485,18.8436]]]}},{"type":"Feature","properties":{"key":"telangana/nizamabad","slug":"nizamabad","name":"Nizamabad","state":"telangana"},"geometry":{"type":"Polygon","coordinates":[[[77.739,18.5563],[77.7895,18.4972],[78.0387,18.5178],[78.2605,18.4532],[78.5296,18.4655],[78.6703,18.6236],[78.5418,18.8147],[78.5357,18.9481],[78.2406,19.0168],[77.9485,18.8436],[77.8399,18.8051],[77.739,18.5563]]]}},{"type":"Feature","properties":{"key":"telangana/peddapalli","slug":"peddapalli","name":"Peddapalli","state":"telangana"},"geometry":{"type":"Polygon","coordinates":[[[79.1107,18.6607],[79.3064,18.4807],[79.5664,18.4243],[79.7912,18.5728],[79.8095,18.7034],[79.6796,18.6731],[79.4303,18.8477],[79.3019,18.8161],[79.1107,18.6607]]]}},{"type":"Feature","properties":{"key":"telangana/rajanna-sircilla","slug":"rajanna-sircilla","name":"Rajanna Sircilla","state":"telangana"},"geometry":{"type":"Polygon","coordinates":[[[78.6703,18.6236],[78.5296,18.4655],[78.5678,18.2222],[78.9884,18.2593],[79.019,18.3171],[78.9226,18.4752],[78.9578,18.5769],[78.6703,18.6236]]]}},{"type":"Feature","properties":{"key":"telangana/ranga-reddy","slug":"ranga-reddy","name":"Ranga Reddy","state":"telangana"},"geometry":{"type":"Polygon","coordinates":[[[78.4073,17.4386],[78.3476,17.5225],[78.288,17.4317],[78.0632,17.4496],[78.0693,17.231],[77.999,16.9794],[78.2758,16.9231],[78.3492,16.7801],[78.5373,16.8213],[78.7544,16.7498],[78.7299,16.8639],[78.8416,17.0715],[78.7376,17.3864],[78.5281,17.374],[78.4516,17.3231],[78.4073,17.4386]]]}},{"type":"Feature","properties":{"key":"telangana/sangareddy","slug":"sangareddy","name":"Sangareddy","state":"telangana"},"geometry":{"type":"Polygon","coordinates":[[[77.4439,17.5843],[77.6855,17.5115],[77.8231,17.6324],[78.0632,17.4496],[78.288,17.4317],[78.3476,17.5225],[78.4486,17.7039],[77.9363,17.8895],[77.8247,17.9871],[77.8981,18.0916],[77.869,18.1892],[77.6014,18.2758],[77.5632,18.1961],[77.6564,17.9692],[77.4531,17.6943],[77.4439,17.5843]]]}},{"type":"Feature","properties":{"key":"telangana/siddipet","slug":"siddipet","name":"Siddipet","state":"telangana"},"geometry":{"type":"Polygon","coordinates":[[[79.2285,17.9912],[79.3019,18.1301],[79.1627,18.1576],[79.019,18.3171],[78.9884,18.2593],[78.5678,18.2222],[78.5678,18.1837],[78.499,17.686],[78.7238,17.6682],[78.8676,17.8249],[79.0924,17.873],[79.2285,17.9912]]]}},{"type":"Feature","properties":{"key":"telangana/suryapet","slug":"suryapet","name":"Suryapet","state":"telangana"},"geometry":{"type":"Polygon","coordinates":[[[80.0557,16.9712],[79.8034,17.3231],[79.7514,17.44],[79.5389,17.5238],[79.3707,17.4826],[79.4502,17.3451],[79.5924,17.0839],[79.6796,16.6935],[79.7927,16.7251],[79.9487,16.6357],[80.0726,16.8172],[80.0557,16.9712]]]}},{"type":"Feature","properties":{"key":"telangana/vikarabad","slug":"vikarabad","name":"Vikarabad","state":"telangana"},"geometry":{"type":"Polygon","coordinates":[[[77.4668,16.9547],[77.7604,17.0028],[77.9149,16.9217],[77.999,16.9794],[78.0693,17.231],[78.0632,17.4496],[77.8231,17.6324],[77.6855,17.5115],[77.5127,17.4303],[77.3797,17.2228],[77.4668,16.9547]]]}},{"type":"Feature","properties":{"key":"telangana/wanaparthy","slug":"wanaparthy","name":"Wanaparthy","state":"telangana"},"geometry":{"type":"Polygon","coordinates":[[[78.2559,16.0088],[78.1963,16.2082],[78.314,16.38],[78.0999,16.4873],[78.1213,16.5931],[78.0066,16.6096],[77.9164,16.4419],[77.7513,16.4034],[77.661,16.3622],[77.9317,16.1931],[77.947,16.1188],[78.158,15.9511],[78.2482,15.9717],[78.2559,16.0088]]]}},{"type":"Feature","properties":{"key":"telangana/warangal-rural","slug":"warangal-rural","name":"Warangal Rural","state":"telangana"},"geometry":{"type":"Polygon","coordinates":[[[79.5725,17.6214],[79.8936,17.73],[79.9946,17.8895],[79.9915,18.1081],[79.8401,18.1328],[79.5786,18.2428],[79.6719,18.027],[79.6215,17.829],[79.5144,17.7947],[79.5725,17.6214]]]}},{"type":"Feature","properties":{"key":"telangana/warangal-urban","slug":"warangal-urban","name":"Warangal Urban","state":"telangana"},"geometry":{"type":"Polygon","coordinates":[[[79.5144,17.7947],[79.6215,17.829],[79.6719,18.027],[79.5786,18.2428],[79.5633,18.2634],[79.3019,18.1301],[79.2285,17.9912],[79.5037,17.8648],[79.5144,17.7947]]]}},{"type":"Feature","properties":{"key":"telangana/yadadri-bhuvanagiri","slug":"yadadri-bhuvanagiri","name":"Yadadri Bhuvanagiri","state":"telangana"},"geometry":{"type":"Polygon","coordinates":[[[78.8676,17.8249],[78.7238,17.6682],[78.6764,17.5761],[78.7376,17.3864],[78.8416,17.0715],[78.9517,17.132],[78.9823,17.2791],[79.2055,17.2626],[79.2514,17.3589],[79.4502,17.3451],[79.3707,17.4826],[79.256,17.4716],[79.1306,17.6723],[78.8676,17.8249]]]}}]}