{"type":"FeatureCollection","features":[{"type":"Feature","properties":{"key":"tripura/dhalai","slug":"dhalai","name":"Dhalai","state":"tripura"},"geometry":{"type":"Polygon","coordinates":[[[92.0843,23.9893],[91.9238,24.1089],[91.7556,24.1419],[91.7678,23.6882],[91.8045,23.515],[91.9742,23.4806],[92.0599,23.6429],[92.1761,23.7075],[92.0843,23.9893]]]}},{"type":"Feature","properties":{"key":"tripura/gomati","slug":"gomati","name":"Gomati","state":"tripura"},"geometry":{"type":"Polygon","coordinates":[[[91.7678,23.6882],[91.569,23.7597],[91.3977,23.5851],[91.4207,23.3748],[91.6072,23.4037],[91.7586,23.2662],[91.8381,23.3707],[91.8045,23.515],[91.7678,23.6882]]]}},{"type":"Feature","properties":{"key":"tripura/khowai","slug":"khowai","name":"Khowai","state":"tripura"},"geometry":{"type":"Polygon","coordinates":[[[91.7556,24.1419],[91.4696,24.0622],[91.5644,23.7872],[91.569,23.7597],[91.7678,23.6882],[91.7556,24.1419]]]}},{"type":"Feature","properties":{"key":"tripura/north-tripura","slug":"north-tripura","name":"North Tripura","state":"tripura"},"geometry":{"type":"Polygon","coordinates":[[[92.2954,24.245],[92.2143,24.509],[92.0706,24.377],[92.2036,24.1818],[92.0843,23.9893],[92.1761,23.7075],[92.2648,23.7267],[92.3244,23.9137],[92.2954,24.245]]]}},{"type":"Feature","properties":{"key":"tripura/sipahijala","slug":"sipahijala","name":"Sipahijala","state":"tripura"},"geometry":{"type":"Polygon","coordinates":[[[91.4207,23.3748],[91.3977,23.5851],[91.569,23.7597],[91.5644,23.7872],[91.2265,23.7322],[91.1607,23.5947],[91.3197,23.2772],[91.4207,23.3748]]]}},{"type":"Feature","properties":{"key":"tripura/south-tripura","slug":"south-tripura","name":"South Tripura","state":"tripura"},"geometry":{"type":"Polygon","coordinates":[[[91.3197,23.2772],[91.4543,23.2607],[91.543,22.9995],[91.7204,22.9871],[91.806,23.0627],[91.7586,23.2662],[91.6072,23.4037],[91.4207,23.3748],[91.3197,23.2772]]]}},{"type":"Feature","properties":{"key":"tripura/unokoti","slug":"unokoti","name":"Unokoti","state":"tripura"},"geometry":{"type":"Polygon","coordinates":[[[92.0706,24.377],[91.9712,24.3825],[91.9238,24.1089],[92.0843,23.9893],[92.2036,24.1818],[92.0706,24.377]]]}},{"type":"Feature","properties":{"key":"tripura/west-tripura","slug":"west-tripura","name":"West Tripura","state":"tripura"},"geometry":{"type":"Polygon","coordinates":[[[91.5644,23.7872],[91.4696,24.0622],[91.2999,23.9975],[91.2265,23.7322],[91.5644,23.7872]]]}}]}