{"type":"FeatureCollection","features":[{"type":"Feature","properties":{"key":"uttar-pradesh/agra","slug":"agra","name":"Agra","state":"uttar-pradesh"},"geometry":{"type":"Polygon","coordinates":[[[77.6457,27.242],[77.5509,27.1114],[77.661,26.9711],[77.398,26.8309],[77.4546,26.7429],[77.7604,26.9326],[77.9868,26.8887],[78.1488,26.9491],[78.2222,26.8323],[78.3583,26.8694],[78.5449,26.7636],[78.7804,26.769],[78.7391,26.9203],[78.6718,26.8804],[78.1947,27.1911],[78.2895,27.3863],[78.1978,27.4069],[77.9822,27.3258],[77.6457,27.242]]]}},{"type":"Feature","properties":{"key":"uttar-pradesh/aligarh","slug":"aligarh","name":"Aligarh","state":"uttar-pradesh"},"geometry":{"type":"Polygon","coordinates":[[[77.7329,28.1287],[77.476,28.0847],[77.5295,27.9266],[77.765,27.9032],[77.8002,27.7011],[77.8996,27.5788],[78.1351,27.7726],[78.2406,27.6654],[78.4746,27.8084],[78.6076,28.0187],[78.5785,28.0627],[78.4791,28.1122],[78.34,28.1466],[78.1794,28.0764],[78.0311,28.1287],[77.7329,28.1287]]]}},{"type":"Feature","properties":{"key":"uttar-pradesh/ambedkar-nagar","slug":"ambedkar-nagar","name":"Ambedkar Nagar","state":"uttar-pradesh"},"geometry":{"type":"Polygon","coordinates":[[[82.4734,26.6522],[82.3358,26.578],[82.2226,26.4102],[82.3985,26.3003],[82.6783,26.2563],[82.822,26.1875],[82.9352,26.4102],[83.1325,26.3855],[83.0713,26.4102],[82.819,26.5683],[82.7119,26.5546],[82.4734,26.6522]]]}},{"type":"Feature","properties":{"key":"uttar-pradesh/amethi","slug":"amethi","name":"Amethi","state":"uttar-pradesh"},"geometry":{"type":"Polygon","coordinates":[[[81.3448,26.5436],[81.4075,26.3154],[81.3066,26.0184],[81.4458,25.9346],[81.5696,25.9758],[81.6002,26.1435],[81.7684,26.0679],[82.0483,26.0583],[82.0498,26.149],[81.8525,26.2838],[81.9397,26.5078],[81.6981,26.5436],[81.5589,26.6412],[81.3448,26.5436]]]}},{"type":"Feature","properties":{"key":"uttar-pradesh/amroha","slug":"amroha","name":"Amroha","state":"uttar-pradesh"},"geometry":{"type":"Polygon","coordinates":[[[78.0724,29.0828],[78.1213,28.8779],[78.21,28.6263],[78.3048,28.438],[78.4119,28.4627],[78.4073,28.7817],[78.6229,28.8064],[78.5327,29.0649],[78.3859,29.0209],[78.0724,29.0828]]]}},{"type":"Feature","properties":{"key":"uttar-pradesh/auraiya","slug":"auraiya","name":"Auraiya","state":"uttar-pradesh"},"geometry":{"type":"Polygon","coordinates":[[[79.3462,26.9299],[79.3187,26.6591],[79.2147,26.4364],[79.5068,26.3649],[79.756,26.7938],[79.6,26.8928],[79.3462,26.9299]]]}},{"type":"Feature","properties":{"key":"uttar-pradesh/ayodhya","slug":"ayodhya","name":"Ayodhya","state":"uttar-pradesh"},"geometry":{"type":"Polygon","coordinates":[[[81.7486,26.868],[81.6415,26.8227],[81.5589,26.6412],[81.6981,26.5436],[81.9397,26.5078],[82.2226,26.4102],[82.3358,26.578],[82.4734,26.6522],[82.2287,26.8117],[81.9764,26.7814],[81.7486,26.868]]]}},{"type":"Feature","properties":{"key":"uttar-pradesh/azamgarh","slug":"azamgarh","name":"Azamgarh","state":"uttar-pradesh"},"geometry":{"type":"Polygon","coordinates":[[[83.1325,26.3855],[82.9352,26.4102],[82.822,26.1875],[82.6783,26.2563],[82.6783,26.1518],[82.8251,25.7696],[83.0667,25.6527],[83.3481,25.8191],[83.319,26.0487],[83.4674,26.2755],[83.2288,26.3951],[83.1325,26.3855]]]}},{"type":"Feature","properties":{"key":"uttar-pradesh/baghpat","slug":"baghpat","name":"Baghpat","state":"uttar-pradesh"},"geometry":{"type":"Polygon","coordinates":[[[77.2222,28.8312],[77.4469,28.9274],[77.4301,29.1061],[77.5051,29.1914],[77.2772,29.2684],[77.1549,29.2972],[77.1426,29.1666],[77.216,28.8532],[77.2222,28.8312]]]}},{"type":"Feature","properties":{"key":"uttar-pradesh/bahraich","slug":"bahraich","name":"Bahraich","state":"uttar-pradesh"},"geometry":{"type":"Polygon","coordinates":[[[81.2822,27.6819],[81.2653,27.5912],[81.4121,27.3341],[81.5146,27.0839],[81.8143,27.2653],[81.981,27.4344],[81.6813,27.5719],[81.6446,27.7754],[81.7424,27.9527],[81.3204,28.1974],[81.2133,28.3583],[81.0528,28.405],[81.0405,28.2854],[81.3051,27.9073],[81.2822,27.6819]]]}},{"type":"Feature","properties":{"key":"uttar-pradesh/ballia","slug":"ballia","name":"Ballia","state":"uttar-pradesh"},"geometry":{"type":"Polygon","coordinates":[[[83.8588,26.1848],[83.7212,25.8562],[83.9536,25.749],[83.9307,25.5579],[84.0806,25.6363],[84.3191,25.6679],[84.6005,25.7325],[84.472,25.8823],[84.0561,26.0995],[83.8588,26.1848]]]}},{"type":"Feature","properties":{"key":"uttar-pradesh/balrampur","slug":"balrampur","name":"Balrampur","state":"uttar-pradesh"},"geometry":{"type":"Polygon","coordinates":[[[82.0743,27.4014],[82.4566,27.1512],[82.4933,27.3588],[82.7318,27.4867],[82.6645,27.7231],[82.4489,27.6791],[82.2073,27.8441],[82.0223,27.5802],[82.0743,27.4014]]]}},{"type":"Feature","properties":{"key":"uttar-pradesh/banda","slug":"banda","name":"Banda","state":"uttar-pradesh"},"geometry":{"type":"Polygon","coordinates":[[[80.3463,25.8988],[80.2148,25.5153],[80.1047,25.3503],[80.3111,25.2857],[80.4304,25.1743],[80.2637,25.0245],[80.4778,24.9764],[80.5925,25.0905],[80.7148,25.0657],[80.6919,25.2692],[80.8372,25.3503],[81.0191,25.5469],[80.932,25.6926],[80.5726,25.7174],[80.5527,25.8713],[80.3463,25.8988]]]}},{"type":"Feature","properties":{"key":"uttar-pradesh/barabanki","slug":"barabanki","name":"Barabanki","state":"uttar-pradesh"},"geometry":{"type":"Polygon","coordinates":[[[81.4121,27.3341],[81.1828,27.2447],[80.9687,27.2392],[80.9304,27.1581],[81.2164,26.7072],[81.1613,26.5876],[81.3448,26.5436],[81.5589,26.6412],[81.6415,26.8227],[81.7486,26.868],[81.5146,27.0839],[81.4121,27.3341]]]}},{"type":"Feature","properties":{"key":"uttar-pradesh/bareilly","slug":"bareilly","name":"Bareilly","state":"uttar-pradesh"},"geometry":{"type":"Polygon","coordinates":[[[79.6826,28.8546],[79.4227,28.8972],[79.2055,28.5714],[78.9715,28.4215],[79.1015,28.2208],[79.4242,28.174],[79.5037,28.016],[79.7025,28.2565],[79.782,28.504],[79.6215,28.6428],[79.6826,28.8546]]]}},{"type":"Feature","properties":{"key":"uttar-pradesh/basti","slug":"basti","name":"Basti","state":"uttar-pradesh"},"geometry":{"type":"Polygon","coordinates":[[[82.559,27.0825],[82.4887,26.9038],[82.3159,26.978],[82.2287,26.8117],[82.4734,26.6522],[82.7119,26.5546],[82.819,26.5683],[82.978,26.7072],[82.8863,26.7787],[82.9046,27.0041],[82.7639,27.1114],[82.559,27.0825]]]}},{"type":"Feature","properties":{"key":"uttar-pradesh/bhadohi","slug":"bhadohi","name":"Bhadohi","state":"uttar-pradesh"},"geometry":{"type":"Polygon","coordinates":[[[82.3296,25.5331],[82.2685,25.1826],[82.3036,25.2692],[82.6676,25.2554],[82.6936,25.3943],[82.3296,25.5331]]]}},{"type":"Feature","properties":{"key":"uttar-pradesh/bijnor","slug":"bijnor","name":"Bijnor","state":"uttar-pradesh"},"geometry":{"type":"Polygon","coordinates":[[[78.5327,29.0649],[78.7605,29.2642],[78.8507,29.3481],[78.9257,29.4388],[78.6168,29.5584],[78.5113,29.7248],[78.3354,29.7976],[78.0204,29.5818],[78.0265,29.3866],[78.1137,29.256],[78.0724,29.0828],[78.3859,29.0209],[78.5327,29.0649]]]}},{"type":"Feature","properties":{"key":"uttar-pradesh/budaun","slug":"budaun","name":"Budaun","state":"uttar-pradesh"},"geometry":{"type":"Polygon","coordinates":[[[78.9715,28.4215],[78.9394,28.46],[78.8722,28.4682],[78.6519,28.3184],[78.5785,28.0627],[78.6076,28.0187],[79.0969,27.8304],[79.1841,27.7135],[79.3508,27.6585],[79.5037,28.016],[79.4242,28.174],[79.1015,28.2208],[78.9715,28.4215]]]}},{"type":"Feature","properties":{"key":"uttar-pradesh/bulandshahr","slug":"bulandshahr","name":"Bulandshahr","state":"uttar-pradesh"},"geometry":{"type":"Polygon","coordinates":[[[78.21,28.6263],[77.9623,28.7157],[77.684,28.5576],[77.6335,28.427],[77.7329,28.1287],[78.0311,28.1287],[78.1794,28.0764],[78.34,28.1466],[78.4791,28.1122],[78.3125,28.2744],[78.3048,28.438],[78.21,28.6263]]]}},{"type":"Feature","properties":{"key":"uttar-pradesh/chandauli","slug":"chandauli","name":"Chandauli","state":"uttar-pradesh"},"geometry":{"type":"Polygon","coordinates":[[[83.1738,25.5263],[83.1416,25.3214],[83.03,25.2431],[83.1585,25.1895],[83.0606,24.9571],[83.0866,24.7812],[83.186,24.7193],[83.3955,24.7812],[83.3496,25.184],[83.5377,25.3091],[83.4047,25.4933],[83.1738,25.5263]]]}},{"type":"Feature","properties":{"key":"uttar-pradesh/chitrakoot","slug":"chitrakoot","name":"Chitrakoot","state":"uttar-pradesh"},"geometry":{"type":"Polygon","coordinates":[[[81.0191,25.5469],[80.8372,25.3503],[80.6919,25.2692],[80.7148,25.0657],[80.8448,25.1867],[80.9457,24.9667],[81.1201,24.9035],[81.2638,25.0534],[81.5406,25.1881],[81.5498,25.2926],[81.1935,25.4479],[81.0191,25.5469]]]}},{"type":"Feature","properties":{"key":"uttar-pradesh/deoria","slug":"deoria","name":"Deoria","state":"uttar-pradesh"},"geometry":{"type":"Polygon","coordinates":[[[83.6279,26.6618],[83.5056,26.4171],[83.6295,26.2191],[83.8588,26.1848],[84.0561,26.0995],[84.157,26.3759],[83.9078,26.4474],[84.0515,26.5518],[83.8405,26.7594],[83.6279,26.6618]]]}},{"type":"Feature","properties":{"key":"uttar-pradesh/etah","slug":"etah","name":"Etah","state":"uttar-pradesh"},"geometry":{"type":"Polygon","coordinates":[[[78.5113,27.741],[78.4149,27.5802],[78.2039,27.5018],[78.1978,27.4069],[78.2895,27.3863],[78.4914,27.3877],[78.5969,27.5087],[78.7177,27.3437],[78.9379,27.4317],[79.2544,27.3286],[79.2162,27.5788],[78.8859,27.587],[78.6,27.7712],[78.5113,27.741]]]}},{"type":"Feature","properties":{"key":"uttar-pradesh/etawah","slug":"etawah","name":"Etawah","state":"uttar-pradesh"},"geometry":{"type":"Polygon","coordinates":[[[78.7391,26.9203],[78.7804,26.769],[79.0067,26.6714],[78.9899,26.5793],[79.1352,26.4405],[79.2147,26.4364],[79.3187,26.6591],[79.3462,26.9299],[79.3248,26.9601],[79.1795,27.0055],[78.8095,26.9574],[78.7391,26.9203]]]}},{"type":"Feature","properties":{"key":"uttar-pradesh/farrukhabad","slug":"farrukhabad","name":"Farrukhabad","state":"uttar-pradesh"},"geometry":{"type":"Polygon","coordinates":[[[79.1841,27.7135],[79.2162,27.5788],[79.2544,27.3286],[79.3936,27.1966],[79.6689,27.1664],[79.7224,27.2213],[79.7361,27.4454],[79.5909,27.598],[79.3508,27.6585],[79.1841,27.7135]]]}},{"type":"Feature","properties":{"key":"uttar-pradesh/fatehpur","slug":"fatehpur","name":"Fatehpur","state":"uttar-pradesh"},"geometry":{"type":"Polygon","coordinates":[[[80.591,26.2315],[80.3249,26.1147],[80.2362,25.9263],[80.3463,25.8988],[80.5527,25.8713],[80.5726,25.7174],[80.932,25.6926],[81.0191,25.5469],[81.1935,25.4479],[81.2271,25.7146],[81.3387,25.8108],[81.0145,26.0748],[80.6735,26.1229],[80.591,26.2315]]]}},{"type":"Feature","properties":{"key":"uttar-pradesh/firozabad","slug":"firozabad","name":"Firozabad","state":"uttar-pradesh"},"geometry":{"type":"Polygon","coordinates":[[[78.2895,27.3863],[78.1947,27.1911],[78.6718,26.8804],[78.7391,26.9203],[78.8095,26.9574],[78.7177,27.3437],[78.5969,27.5087],[78.4914,27.3877],[78.2895,27.3863]]]}},{"type":"Feature","properties":{"key":"uttar-pradesh/gautam-buddha-nagar","slug":"gautam-buddha-nagar","name":"Gautam Buddha Nagar","state":"uttar-pradesh"},"geometry":{"type":"Polygon","coordinates":[[[77.5662,28.6525],[77.3414,28.6098],[77.3476,28.5205],[77.5051,28.3706],[77.5005,28.2057],[77.476,28.0847],[77.7329,28.1287],[77.6335,28.427],[77.684,28.5576],[77.5662,28.6525]]]}},{"type":"Feature","properties":{"key":"uttar-pradesh/ghaziabad","slug":"ghaziabad","name":"Ghaziabad","state":"uttar-pradesh"},"geometry":{"type":"Polygon","coordinates":[[[77.6901,28.7446],[77.684,28.8738],[77.4469,28.9274],[77.2222,28.8312],[77.3414,28.6098],[77.5662,28.6525],[77.6901,28.7446]]]}},{"type":"Feature","properties":{"key":"uttar-pradesh/ghazipur","slug":"ghazipur","name":"Ghazipur","state":"uttar-pradesh"},"geometry":{"type":"Polygon","coordinates":[[[83.0667,25.6527],[83.0713,25.5483],[83.1738,25.5263],[83.4047,25.4933],[83.5377,25.3091],[83.7793,25.3984],[83.9307,25.5579],[83.9536,25.749],[83.7212,25.8562],[83.6463,25.9002],[83.3481,25.8191],[83.0667,25.6527]]]}},{"type":"Feature","properties":{"key":"uttar-pradesh/gonda","slug":"gonda","name":"Gonda","state":"uttar-pradesh"},"geometry":{"type":"Polygon","coordinates":[[[81.5146,27.0839],[81.7486,26.868],[81.9764,26.7814],[82.2287,26.8117],[82.3159,26.978],[82.4887,26.9038],[82.559,27.0825],[82.4566,27.1512],[82.0743,27.4014],[81.981,27.4344],[81.8143,27.2653],[81.5146,27.0839]]]}},{"type":"Feature","properties":{"key":"uttar-pradesh/gorakhpur","slug":"gorakhpur","name":"Gorakhpur","state":"uttar-pradesh"},"geometry":{"type":"Polygon","coordinates":[[[83.1202,27.1004],[83.2242,26.9808],[83.0973,26.8062],[83.1554,26.5395],[83.0713,26.4102],[83.1325,26.3855],[83.2288,26.3951],[83.4674,26.2755],[83.6295,26.2191],[83.5056,26.4171],[83.6279,26.6618],[83.5453,26.8887],[83.3894,27.0825],[83.1478,27.1141],[83.1202,27.1004]]]}},{"type":"Feature","properties":{"key":"uttar-pradesh/hamirpur","slug":"hamirpur","name":"Hamirpur","state":"uttar-pradesh"},"geometry":{"type":"Polygon","coordinates":[[[79.9625,26.149],[79.9166,26.0899],[79.7851,25.8631],[79.6107,25.8975],[79.3982,25.7888],[79.3936,25.5194],[79.6398,25.485],[79.7866,25.5895],[80.0741,25.5881],[80.2148,25.5153],[80.3463,25.8988],[80.2362,25.9263],[79.9563,26.0775],[79.9625,26.149]]]}},{"type":"Feature","properties":{"key":"uttar-pradesh/hapur","slug":"hapur","name":"Hapur","state":"uttar-pradesh"},"geometry":{"type":"Polygon","coordinates":[[[78.1213,28.8779],[77.6901,28.7446],[77.5662,28.6525],[77.684,28.5576],[77.9623,28.7157],[78.21,28.6263],[78.1213,28.8779]]]}},{"type":"Feature","properties":{"key":"uttar-pradesh/hardoi","slug":"hardoi","name":"Hardoi","state":"uttar-pradesh"},"geometry":{"type":"Polygon","coordinates":[[[80.0603,27.7602],[79.8615,27.6489],[79.6857,27.6379],[79.7361,27.4454],[79.7224,27.2213],[79.9288,27.143],[80.0129,26.956],[80.0435,26.9244],[80.3081,27.0261],[80.3631,26.9216],[80.5497,27.0138],[80.8265,27.1017],[80.7974,27.1993],[80.5176,27.2681],[80.3249,27.5224],[80.3111,27.6805],[80.0603,27.7602]]]}},{"type":"Feature","properties":{"key":"uttar-pradesh/hathras","slug":"hathras","name":"Hathras","state":"uttar-pradesh"},"geometry":{"type":"Polygon","coordinates":[[[77.8996,27.5788],[77.8874,27.3382],[77.9822,27.3258],[78.1978,27.4069],[78.2039,27.5018],[78.4149,27.5802],[78.5113,27.741],[78.4746,27.8084],[78.2406,27.6654],[78.1351,27.7726],[77.8996,27.5788]]]}},{"type":"Feature","properties":{"key":"uttar-pradesh/jalaun","slug":"jalaun","name":"Jalaun","state":"uttar-pradesh"},"geometry":{"type":"Polygon","coordinates":[[[79.1352,26.4405],[79.1382,26.3388],[78.9945,26.1972],[78.9379,25.9524],[79.2116,25.7888],[79.3982,25.7888],[79.6107,25.8975],[79.7851,25.8631],[79.9166,26.0899],[79.5526,26.27],[79.5068,26.3649],[79.2147,26.4364],[79.1352,26.4405]]]}},{"type":"Feature","properties":{"key":"uttar-pradesh/jaunpur","slug":"jaunpur","name":"Jaunpur","state":"uttar-pradesh"},"geometry":{"type":"Polygon","coordinates":[[[82.4336,26.0061],[82.218,25.8397],[82.1507,25.6734],[82.3296,25.5331],[82.6936,25.3943],[82.7395,25.5469],[83.0713,25.5483],[83.0667,25.6527],[82.8251,25.7696],[82.6783,26.1518],[82.5789,26.1862],[82.4336,26.0061]]]}},{"type":"Feature","properties":{"key":"uttar-pradesh/jhansi","slug":"jhansi","name":"Jhansi","state":"uttar-pradesh"},"geometry":{"type":"Polygon","coordinates":[[[78.8859,25.9126],[78.6581,25.5593],[78.4516,25.5716],[78.3446,25.3283],[78.3905,25.206],[78.447,25.1221],[78.5587,25.2128],[78.5128,25.2761],[78.7315,25.4575],[78.9608,25.3448],[78.8798,25.1578],[79.0633,25.2225],[79.1306,25.1097],[79.3233,25.1496],[79.2804,25.3242],[79.3936,25.5194],[79.3982,25.7888],[79.2116,25.7888],[78.9379,25.9524],[78.8859,25.9126]]]}},{"type":"Feature","properties":{"key":"uttar-pradesh/kannauj","slug":"kannauj","name":"Kannauj","state":"uttar-pradesh"},"geometry":{"type":"Polygon","coordinates":[[[79.7224,27.2213],[79.6689,27.1664],[79.3936,27.1966],[79.3248,26.9601],[79.3462,26.9299],[79.6,26.8928],[79.756,26.7938],[79.8967,26.8172],[80.0129,26.956],[79.9288,27.143],[79.7224,27.2213]]]}},{"type":"Feature","properties":{"key":"uttar-pradesh/kanpur-dehat","slug":"kanpur-dehat","name":"Kanpur Dehat","state":"uttar-pradesh"},"geometry":{"type":"Polygon","coordinates":[[[79.756,26.7938],[79.5068,26.3649],[79.5526,26.27],[79.9166,26.0899],[79.9625,26.149],[80.0083,26.2604],[80.1765,26.3443],[80.1337,26.5711],[80.0221,26.6096],[79.8967,26.8172],[79.756,26.7938]]]}},{"type":"Feature","properties":{"key":"uttar-pradesh/kanpur-nagar","slug":"kanpur-nagar","name":"Kanpur Nagar","state":"uttar-pradesh"},"geometry":{"type":"Polygon","coordinates":[[[80.0129,26.956],[79.8967,26.8172],[80.0221,26.6096],[80.1337,26.5711],[80.1765,26.3443],[80.0083,26.2604],[79.9625,26.149],[79.9563,26.0775],[80.2362,25.9263],[80.3249,26.1147],[80.591,26.2315],[80.3096,26.5422],[80.2469,26.6879],[80.0435,26.9244],[80.0129,26.956]]]}},{"type":"Feature","properties":{"key":"uttar-pradesh/kasganj","slug":"kasganj","name":"Kasganj","state":"uttar-pradesh"},"geometry":{"type":"Polygon","coordinates":[[[78.6076,28.0187],[78.4746,27.8084],[78.5113,27.741],[78.6,27.7712],[78.8859,27.587],[79.2162,27.5788],[79.1841,27.7135],[79.0969,27.8304],[78.6076,28.0187]]]}},{"type":"Feature","properties":{"key":"uttar-pradesh/kaushambi","slug":"kaushambi","name":"Kaushambi","state":"uttar-pradesh"},"geometry":{"type":"Polygon","coordinates":[[[81.1935,25.4479],[81.5498,25.2926],[81.6706,25.5057],[81.6109,25.5978],[81.4687,25.6198],[81.3387,25.8108],[81.2271,25.7146],[81.1935,25.4479]]]}},{"type":"Feature","properties":{"key":"uttar-pradesh/kushinagar","slug":"kushinagar","name":"Kushinagar","state":"uttar-pradesh"},"geometry":{"type":"Polygon","coordinates":[[[83.9078,27.275],[83.8175,27.2406],[83.7243,26.9519],[83.5453,26.8887],[83.6279,26.6618],[83.8405,26.7594],[84.0515,26.5518],[84.1127,26.6302],[84.4185,26.6316],[84.2595,26.8048],[84.0607,26.8873],[84.05,27.044],[83.9078,27.275]]]}},{"type":"Feature","properties":{"key":"uttar-pradesh/lakhimpur-kheri","slug":"lakhimpur-kheri","name":"Lakhimpur Kheri","state":"uttar-pradesh"},"geometry":{"type":"Polygon","coordinates":[[[80.3585,28.3294],[80.2545,28.0902],[80.0297,27.9018],[80.0603,27.7602],[80.3111,27.6805],[80.6414,27.8386],[80.8265,27.7905],[81.1797,27.785],[81.2822,27.6819],[81.3051,27.9073],[81.0405,28.2854],[81.0528,28.405],[80.7148,28.5686],[80.5527,28.691],[80.3142,28.6291],[80.4472,28.5177],[80.3585,28.3294]]]}},{"type":"Feature","properties":{"key":"uttar-pradesh/lalitpur","slug":"lalitpur","name":"Lalitpur","state":"uttar-pradesh"},"geometry":{"type":"Polygon","coordinates":[[[78.447,25.1221],[78.3736,25.0987],[78.1901,24.8416],[78.2758,24.6629],[78.2681,24.4498],[78.369,24.3742],[78.5862,24.3536],[78.8064,24.179],[78.9914,24.4168],[78.9853,24.4416],[78.8829,24.6409],[78.7804,24.7055],[78.7697,24.8595],[78.6321,24.9571],[78.6397,25.0712],[78.5587,25.2128],[78.447,25.1221]]]}},{"type":"Feature","properties":{"key":"uttar-pradesh/lucknow","slug":"lucknow","name":"Lucknow","state":"uttar-pradesh"},"geometry":{"type":"Polygon","coordinates":[[[80.8265,27.1017],[80.5497,27.0138],[80.8417,26.6659],[80.9993,26.5326],[81.1613,26.5876],[81.2164,26.7072],[80.9304,27.1581],[80.8265,27.1017]]]}},{"type":"Feature","properties":{"key":"uttar-pradesh/maharajganj","slug":"maharajganj","name":"Maharajganj","state":"uttar-pradesh"},"geometry":{"type":"Polygon","coordinates":[[[83.8619,27.3354],[83.6142,27.4688],[83.3955,27.4798],[83.2915,27.3354],[83.1478,27.1141],[83.3894,27.0825],[83.5453,26.8887],[83.7243,26.9519],[83.8175,27.2406],[83.9078,27.275],[83.8619,27.3354]]]}},{"type":"Feature","properties":{"key":"uttar-pradesh/mahoba","slug":"mahoba","name":"Mahoba","state":"uttar-pradesh"},"geometry":{"type":"Polygon","coordinates":[[[79.2804,25.3242],[79.6734,25.1207],[80.1047,25.3503],[80.2148,25.5153],[80.0741,25.5881],[79.7866,25.5895],[79.6398,25.485],[79.3936,25.5194],[79.2804,25.3242]]]}},{"type":"Feature","properties":{"key":"uttar-pradesh/mainpuri","slug":"mainpuri","name":"Mainpuri","state":"uttar-pradesh"},"geometry":{"type":"Polygon","coordinates":[[[78.7177,27.3437],[78.8095,26.9574],[79.1795,27.0055],[79.3248,26.9601],[79.3936,27.1966],[79.2544,27.3286],[78.9379,27.4317],[78.7177,27.3437]]]}},{"type":"Feature","properties":{"key":"uttar-pradesh/mathura","slug":"mathura","name":"Mathura","state":"uttar-pradesh"},"geometry":{"type":"Polygon","coordinates":[[[77.2833,27.7987],[77.3399,27.5265],[77.6457,27.242],[77.9822,27.3258],[77.8874,27.3382],[77.8996,27.5788],[77.8002,27.7011],[77.765,27.9032],[77.5295,27.9266],[77.3445,27.8496],[77.2833,27.7987]]]}},{"type":"Feature","properties":{"key":"uttar-pradesh/mau","slug":"mau","name":"Mau","state":"uttar-pradesh"},"geometry":{"type":"Polygon","coordinates":[[[83.4674,26.2755],[83.319,26.0487],[83.3481,25.8191],[83.6463,25.9002],[83.7212,25.8562],[83.8588,26.1848],[83.6295,26.2191],[83.4674,26.2755]]]}},{"type":"Feature","properties":{"key":"uttar-pradesh/meerut","slug":"meerut","name":"Meerut","state":"uttar-pradesh"},"geometry":{"type":"Polygon","coordinates":[[[78.0724,29.0828],[78.1137,29.256],[77.7956,29.1845],[77.5861,29.2656],[77.5051,29.1914],[77.4301,29.1061],[77.4469,28.9274],[77.684,28.8738],[77.6901,28.7446],[78.1213,28.8779],[78.0724,29.0828]]]}},{"type":"Feature","properties":{"key":"uttar-pradesh/mirzapur","slug":"mirzapur","name":"Mirzapur","state":"uttar-pradesh"},"geometry":{"type":"Polygon","coordinates":[[[82.0941,24.8169],[82.2165,24.7935],[82.2975,24.6066],[82.5239,24.6767],[82.8068,24.8513],[82.9536,24.8361],[83.0606,24.9571],[83.1585,25.1895],[83.03,25.2431],[82.7838,25.2032],[82.6676,25.2554],[82.3036,25.2692],[82.2685,25.1826],[82.3251,25.0712],[82.0941,24.8169]]]}},{"type":"Feature","properties":{"key":"uttar-pradesh/moradabad","slug":"moradabad","name":"Moradabad","state":"uttar-pradesh"},"geometry":{"type":"Polygon","coordinates":[[[78.6229,28.8064],[78.8722,28.4682],[78.9394,28.46],[78.8599,28.6593],[79.0006,28.7638],[78.9027,28.9962],[78.9746,29.1309],[78.7605,29.2642],[78.5327,29.0649],[78.6229,28.8064]]]}},{"type":"Feature","properties":{"key":"uttar-pradesh/muzaffarnagar","slug":"muzaffarnagar","name":"Muzaffarnagar","state":"uttar-pradesh"},"geometry":{"type":"Polygon","coordinates":[[[77.4867,29.634],[77.4638,29.4512],[77.2772,29.2684],[77.5051,29.1914],[77.5861,29.2656],[77.7956,29.1845],[78.1137,29.256],[78.0265,29.3866],[78.0204,29.5818],[77.8201,29.6739],[77.7406,29.6093],[77.4867,29.634]]]}},{"type":"Feature","properties":{"key":"uttar-pradesh/pilibhit","slug":"pilibhit","name":"Pilibhit","state":"uttar-pradesh"},"geometry":{"type":"Polygon","coordinates":[[[79.7025,28.2565],[79.7973,28.1589],[79.9854,28.2813],[80.3585,28.3294],[80.4472,28.5177],[80.3142,28.6291],[80.0649,28.8367],[79.9548,28.7226],[79.8202,28.8875],[79.6826,28.8546],[79.6215,28.6428],[79.782,28.504],[79.7025,28.2565]]]}},{"type":"Feature","properties":{"key":"uttar-pradesh/pratapgarh","slug":"pratapgarh","name":"Pratapgarh","state":"uttar-pradesh"},"geometry":{"type":"Polygon","coordinates":[[[82.0483,26.0583],[81.7684,26.0679],[81.6002,26.1435],[81.5696,25.9758],[81.4458,25.9346],[81.3387,25.8108],[81.4687,25.6198],[81.6109,25.5978],[82.0223,25.7435],[82.1507,25.6734],[82.218,25.8397],[82.4336,26.0061],[82.0483,26.0583]]]}},{"type":"Feature","properties":{"key":"uttar-pradesh/prayagraj","slug":"prayagraj","name":"Prayagraj","state":"uttar-pradesh"},"geometry":{"type":"Polygon","coordinates":[[[82.1507,25.6734],[82.0223,25.7435],[81.6109,25.5978],[81.6706,25.5057],[81.5498,25.2926],[81.5406,25.1881],[81.6675,25.0616],[81.8923,24.9887],[81.9428,24.8458],[82.0941,24.8169],[82.3251,25.0712],[82.2685,25.1826],[82.3296,25.5331],[82.1507,25.6734]]]}},{"type":"Feature","properties":{"key":"uttar-pradesh/rae-bareli","slug":"rae-bareli","name":"Rae Bareli","state":"uttar-pradesh"},"geometry":{"type":"Polygon","coordinates":[[[81.1613,26.5876],[80.9993,26.5326],[81.0497,26.3759],[80.6735,26.1229],[81.0145,26.0748],[81.3387,25.8108],[81.4458,25.9346],[81.3066,26.0184],[81.4075,26.3154],[81.3448,26.5436],[81.1613,26.5876]]]}},{"type":"Feature","properties":{"key":"uttar-pradesh/rampur","slug":"rampur","name":"Rampur","state":"uttar-pradesh"},"geometry":{"type":"Polygon","coordinates":[[[79.4227,28.8972],[79.0358,29.1694],[78.9746,29.1309],[78.9027,28.9962],[79.0006,28.7638],[78.8599,28.6593],[78.9394,28.46],[78.9715,28.4215],[79.2055,28.5714],[79.4227,28.8972]]]}},{"type":"Feature","properties":{"key":"uttar-pradesh/saharanpur","slug":"saharanpur","name":"Saharanpur","state":"uttar-pradesh"},"geometry":{"type":"Polygon","coordinates":[[[77.5754,30.4012],[77.58,30.3792],[77.583,30.3077],[77.2267,29.9392],[77.1518,29.6877],[77.4867,29.634],[77.7406,29.6093],[77.8201,29.6739],[77.7161,29.8856],[77.8017,30.096],[77.9592,30.2417],[77.5754,30.4012]]]}},{"type":"Feature","properties":{"key":"uttar-pradesh/sambhal","slug":"sambhal","name":"Sambhal","state":"uttar-pradesh"},"geometry":{"type":"Polygon","coordinates":[[[78.3048,28.438],[78.3125,28.2744],[78.4791,28.1122],[78.5785,28.0627],[78.6519,28.3184],[78.8722,28.4682],[78.6229,28.8064],[78.4073,28.7817],[78.4119,28.4627],[78.3048,28.438]]]}},{"type":"Feature","properties":{"key":"uttar-pradesh/sant-kabir-nagar","slug":"sant-kabir-nagar","name":"Sant Kabir Nagar","state":"uttar-pradesh"},"geometry":{"type":"Polygon","coordinates":[[[82.9046,27.0041],[82.8863,26.7787],[82.978,26.7072],[82.819,26.5683],[83.0713,26.4102],[83.1554,26.5395],[83.0973,26.8062],[83.2242,26.9808],[83.1202,27.1004],[82.9046,27.0041]]]}},{"type":"Feature","properties":{"key":"uttar-pradesh/shahjahanpur","slug":"shahjahanpur","name":"Shahjahanpur","state":"uttar-pradesh"},"geometry":{"type":"Polygon","coordinates":[[[79.5037,28.016],[79.3508,27.6585],[79.5909,27.598],[79.7361,27.4454],[79.6857,27.6379],[79.8615,27.6489],[80.0603,27.7602],[80.0297,27.9018],[80.2545,28.0902],[80.3585,28.3294],[79.9854,28.2813],[79.7973,28.1589],[79.7025,28.2565],[79.5037,28.016]]]}},{"type":"Feature","properties":{"key":"uttar-pradesh/shamli","slug":"shamli","name":"Shamli","state":"uttar-pradesh"},"geometry":{"type":"Polygon","coordinates":[[[77.1518,29.6877],[77.1319,29.4842],[77.1549,29.2972],[77.2772,29.2684],[77.4638,29.4512],[77.4867,29.634],[77.1518,29.6877]]]}},{"type":"Feature","properties":{"key":"uttar-pradesh/shrawasti","slug":"shrawasti","name":"Shrawasti","state":"uttar-pradesh"},"geometry":{"type":"Polygon","coordinates":[[[81.981,27.4344],[82.0743,27.4014],[82.0223,27.5802],[82.2073,27.8441],[82.0697,27.9238],[81.8847,27.8565],[81.7424,27.9527],[81.6446,27.7754],[81.6813,27.5719],[81.981,27.4344]]]}},{"type":"Feature","properties":{"key":"uttar-pradesh/siddharthnagar","slug":"siddharthnagar","name":"Siddharthnagar","state":"uttar-pradesh"},"geometry":{"type":"Polygon","coordinates":[[[83.1478,27.1141],[83.2915,27.3354],[83.189,27.4537],[82.7318,27.4867],[82.4933,27.3588],[82.4566,27.1512],[82.559,27.0825],[82.7639,27.1114],[82.9046,27.0041],[83.1202,27.1004],[83.1478,27.1141]]]}},{"type":"Feature","properties":{"key":"uttar-pradesh/sitapur","slug":"sitapur","name":"Sitapur","state":"uttar-pradesh"},"geometry":{"type":"Polygon","coordinates":[[[80.3111,27.6805],[80.3249,27.5224],[80.5176,27.2681],[80.7974,27.1993],[80.8265,27.1017],[80.9304,27.1581],[80.9687,27.2392],[81.1828,27.2447],[81.4121,27.3341],[81.2653,27.5912],[81.2822,27.6819],[81.1797,27.785],[80.8265,27.7905],[80.6414,27.8386],[80.3111,27.6805]]]}},{"type":"Feature","properties":{"key":"uttar-pradesh/sonbhadra","slug":"sonbhadra","name":"Sonbhadra","state":"uttar-pradesh"},"geometry":{"type":"Polygon","coordinates":[[[83.0606,24.9571],[82.9536,24.8361],[82.8068,24.8513],[82.5239,24.6767],[82.6707,24.6973],[82.7976,24.5763],[82.7441,24.1653],[82.8129,23.9618],[82.9474,23.8711],[83.2074,23.9219],[83.3297,24.102],[83.4093,24.267],[83.4001,24.498],[83.5025,24.5255],[83.5239,24.5502],[83.4888,24.7358],[83.3955,24.7812],[83.186,24.7193],[83.0866,24.7812],[83.0606,24.9571]]]}},{"type":"Feature","properties":{"key":"uttar-pradesh/sultanpur","slug":"sultanpur","name":"Sultanpur","state":"uttar-pradesh"},"geometry":{"type":"Polygon","coordinates":[[[81.9397,26.5078],[81.8525,26.2838],[82.0498,26.149],[82.0483,26.0583],[82.4336,26.0061],[82.5789,26.1862],[82.6783,26.1518],[82.6783,26.2563],[82.3985,26.3003],[82.2226,26.4102],[81.9397,26.5078]]]}},{"type":"Feature","properties":{"key":"uttar-pradesh/unnao","slug":"unnao","name":"Unnao","state":"uttar-pradesh"},"geometry":{"type":"Polygon","coordinates":[[[80.0435,26.9244],[80.2469,26.6879],[80.3096,26.5422],[80.591,26.2315],[80.6735,26.1229],[81.0497,26.3759],[80.9993,26.5326],[80.8417,26.6659],[80.5497,27.0138],[80.3631,26.9216],[80.3081,27.0261],[80.0435,26.9244]]]}},{"type":"Feature","properties":{"key":"uttar-pradesh/varanasi","slug":"varanasi","name":"Varanasi","state":"uttar-pradesh"},"geometry":{"type":"Polygon","coordinates":[[[82.6936,25.3943],[82.6676,25.2554],[82.7838,25.2032],[83.03,25.2431],[83.1416,25.3214],[83.1738,25.5263],[83.0713,25.5483],[82.7395,25.5469],[82.6936,25.3943]]]}}]}