{"type":"FeatureCollection","features":[{"type":"Feature","properties":{"key":"uttarakhand/almora","slug":"almora","name":"Almora","state":"uttarakhand"},"geometry":{"type":"Polygon","coordinates":[[[79.23,29.975],[79.0847,29.8884],[79.1214,29.7179],[79.0602,29.5887],[79.2193,29.5227],[79.3355,29.612],[79.4823,29.4966],[79.6215,29.5557],[79.8493,29.4319],[80.0756,29.5213],[79.8906,29.7124],[79.7086,29.8265],[79.5083,29.8732],[79.4716,29.9791],[79.23,29.975]]]}},{"type":"Feature","properties":{"key":"uttarakhand/bageshwar","slug":"bageshwar","name":"Bageshwar","state":"uttarakhand"},"geometry":{"type":"Polygon","coordinates":[[[79.4716,29.9791],[79.5083,29.8732],[79.7086,29.8265],[79.8906,29.7124],[80.0542,29.9021],[80.1154,30.2266],[79.9869,30.3187],[79.7637,30.1331],[79.8126,30.0231],[79.4716,29.9791]]]}},{"type":"Feature","properties":{"key":"uttarakhand/chamoli","slug":"chamoli","name":"Chamoli","state":"uttarakhand"},"geometry":{"type":"Polygon","coordinates":[[[79.2743,30.7242],[79.3477,30.65],[79.1673,30.4465],[79.0771,30.2211],[79.23,29.975],[79.4716,29.9791],[79.8126,30.0231],[79.7637,30.1331],[79.9869,30.3187],[80.1016,30.7888],[79.7316,30.9785],[79.6016,30.9332],[79.4074,31.0734],[79.2254,30.8108],[79.2743,30.7242]]]}},{"type":"Feature","properties":{"key":"uttarakhand/champawat","slug":"champawat","name":"Champawat","state":"uttarakhand"},"geometry":{"type":"Polygon","coordinates":[[[80.0756,29.5213],[79.8493,29.4319],[79.8554,29.2766],[79.9716,29.0553],[80.0741,28.9412],[80.1444,29.102],[80.3188,29.3013],[80.2423,29.4443],[80.0756,29.5213]]]}},{"type":"Feature","properties":{"key":"uttarakhand/dehradun","slug":"dehradun","name":"Dehradun","state":"uttarakhand"},"geometry":{"type":"Polygon","coordinates":[[[77.7039,30.7641],[77.8155,30.5056],[77.5754,30.4012],[77.9592,30.2417],[78.0693,30.0423],[78.2024,29.9667],[78.3018,30.1125],[78.2773,30.2719],[78.1336,30.3434],[78.0127,30.617],[78.0785,30.7407],[77.8292,31.0294],[77.8063,30.8534],[77.7039,30.7641]]]}},{"type":"Feature","properties":{"key":"uttarakhand/haridwar","slug":"haridwar","name":"Haridwar","state":"uttarakhand"},"geometry":{"type":"Polygon","coordinates":[[[77.9592,30.2417],[77.8017,30.096],[77.7161,29.8856],[77.8201,29.6739],[78.0204,29.5818],[78.3354,29.7976],[78.2024,29.9667],[78.0693,30.0423],[77.9592,30.2417]]]}},{"type":"Feature","properties":{"key":"uttarakhand/nainital","slug":"nainital","name":"Nainital","state":"uttarakhand"},"geometry":{"type":"Polygon","coordinates":[[[78.9257,29.4388],[78.8507,29.3481],[79.2774,29.2395],[79.4349,29.0841],[79.8967,28.9934],[79.9716,29.0553],[79.8554,29.2766],[79.8493,29.4319],[79.6215,29.5557],[79.4823,29.4966],[79.3355,29.612],[79.2193,29.5227],[79.0602,29.5887],[78.9257,29.4388]]]}},{"type":"Feature","properties":{"key":"uttarakhand/pauri-garhwal","slug":"pauri-garhwal","name":"Pauri Garhwal","state":"uttarakhand"},"geometry":{"type":"Polygon","coordinates":[[[79.0771,30.2211],[78.8997,30.2444],[78.6474,30.2073],[78.5113,30.0547],[78.3018,30.1125],[78.2024,29.9667],[78.3354,29.7976],[78.5113,29.7248],[78.6168,29.5584],[78.9257,29.4388],[79.0602,29.5887],[79.1214,29.7179],[79.0847,29.8884],[79.23,29.975],[79.0771,30.2211]]]}},{"type":"Feature","properties":{"key":"uttarakhand/pithoragarh","slug":"pithoragarh","name":"Pithoragarh","state":"uttarakhand"},"geometry":{"type":"Polygon","coordinates":[[[79.9869,30.3187],[80.1154,30.2266],[80.0542,29.9021],[79.8906,29.7124],[80.0756,29.5213],[80.2423,29.4443],[80.409,29.5955],[80.3662,29.7399],[80.5543,29.8499],[80.9289,30.1743],[80.6078,30.4713],[80.2132,30.584],[80.2499,30.7448],[80.1016,30.7888],[79.9869,30.3187]]]}},{"type":"Feature","properties":{"key":"uttarakhand/rudraprayag","slug":"rudraprayag","name":"Rudraprayag","state":"uttarakhand"},"geometry":{"type":"Polygon","coordinates":[[[79.0327,30.8095],[78.9104,30.6912],[78.8355,30.3572],[78.8997,30.2444],[79.0771,30.2211],[79.1673,30.4465],[79.3477,30.65],[79.2743,30.7242],[79.0327,30.8095]]]}},{"type":"Feature","properties":{"key":"uttarakhand/tehri-garhwal","slug":"tehri-garhwal","name":"Tehri Garhwal","state":"uttarakhand"},"geometry":{"type":"Polygon","coordinates":[[[78.0127,30.617],[78.1336,30.3434],[78.2773,30.2719],[78.3018,30.1125],[78.5113,30.0547],[78.6474,30.2073],[78.8997,30.2444],[78.8355,30.3572],[78.9104,30.6912],[79.0327,30.8095],[78.6,30.672],[78.5464,30.5331],[78.3935,30.5056],[78.2773,30.6115],[78.0127,30.617]]]}},{"type":"Feature","properties":{"key":"uttarakhand/udham-singh-nagar","slug":"udham-singh-nagar","name":"Udham Singh Nagar","state":"uttarakhand"},"geometry":{"type":"Polygon","coordinates":[[[79.6826,28.8546],[79.8202,28.8875],[79.9548,28.7226],[80.0649,28.8367],[80.0741,28.9412],[79.9716,29.0553],[79.8967,28.9934],[79.4349,29.0841],[79.2774,29.2395],[78.8507,29.3481],[78.7605,29.2642],[78.9746,29.1309],[79.0358,29.1694],[79.4227,28.8972],[79.6826,28.8546]]]}},{"type":"Feature","properties":{"key":"uttarakhand/uttarkashi","slug":"uttarkashi","name":"Uttarkashi","state":"uttarakhand"},"geometry":{"type":"Polygon","coordinates":[[[78.3109,31.2837],[77.9669,31.1738],[77.8292,31.0294],[78.0785,30.7407],[78.0127,30.617],[78.2773,30.6115],[78.3935,30.5056],[78.5464,30.5331],[78.6,30.672],[79.0327,30.8095],[79.2743,30.7242],[79.2254,30.8108],[79.4074,31.0734],[79.233,31.3332],[79.0725,31.4556],[78.8813,31.2837],[78.8095,31.1985],[78.4837,31.1985],[78.3109,31.2837]]]}}]}