{"type":"FeatureCollection","features":[{"type":"Feature","properties":{"key":"west-bengal/alipurduar","slug":"alipurduar","name":"Alipurduar","state":"west-bengal"},"geometry":{"type":"Polygon","coordinates":[[[89.8517,26.6976],[89.3746,26.8543],[89.0902,26.8405],[89.0428,26.6316],[89.1192,26.5243],[89.3914,26.4625],[89.8349,26.4144],[89.8517,26.6976]]]}},{"type":"Feature","properties":{"key":"west-bengal/bankura","slug":"bankura","name":"Bankura","state":"west-bengal"},"geometry":{"type":"Polygon","coordinates":[[[87.5228,22.928],[87.7124,23.0105],[87.7644,23.0751],[87.4494,23.4023],[87.2093,23.5576],[86.9019,23.6387],[86.7521,23.0888],[86.6098,22.7988],[86.8943,22.6517],[87.0762,22.7259],[87.064,22.851],[87.3576,22.9541],[87.5228,22.928]]]}},{"type":"Feature","properties":{"key":"west-bengal/birbhum","slug":"birbhum","name":"Birbhum","state":"west-bengal"},"geometry":{"type":"Polygon","coordinates":[[[87.8898,24.5653],[87.8011,24.3825],[87.639,24.2546],[87.6313,24.1639],[87.4402,23.9824],[87.2337,24.025],[87.2949,23.9013],[87.0854,23.812],[87.5335,23.6085],[87.7078,23.6195],[87.8454,23.5507],[87.9586,23.6305],[87.9662,23.8092],[87.8439,23.9096],[87.8989,24.1625],[88.0167,24.311],[87.8898,24.5653]]]}},{"type":"Feature","properties":{"key":"west-bengal/cooch-behar","slug":"cooch-behar","name":"Cooch Behar","state":"west-bengal"},"geometry":{"type":"Polygon","coordinates":[[[89.8349,26.4144],[89.3914,26.4625],[89.1192,26.5243],[88.9617,26.5381],[88.7599,26.3291],[88.9266,26.2838],[89.0963,26.391],[89.1544,26.1394],[89.3486,26.0102],[89.5413,26.0061],[89.7294,26.171],[89.8425,26.3827],[89.8349,26.4144]]]}},{"type":"Feature","properties":{"key":"west-bengal/dakshin-dinajpur","slug":"dakshin-dinajpur","name":"Dakshin Dinajpur","state":"west-bengal"},"geometry":{"type":"Polygon","coordinates":[[[88.4464,25.595],[88.1666,25.4259],[88.269,25.3036],[88.4357,25.2005],[88.9097,25.1798],[88.8119,25.5235],[88.6467,25.4782],[88.4464,25.595]]]}},{"type":"Feature","properties":{"key":"west-bengal/darjeeling","slug":"darjeeling","name":"Darjeeling","state":"west-bengal"},"geometry":{"type":"Polygon","coordinates":[[[88.0381,27.22],[87.9922,27.1086],[88.1864,26.7718],[88.11,26.5477],[88.24,26.4584],[88.3332,26.4968],[88.4005,26.6439],[88.4785,26.8804],[88.425,27.0715],[88.2812,27.132],[88.1543,27.11],[88.0381,27.22]]]}},{"type":"Feature","properties":{"key":"west-bengal/hooghly","slug":"hooghly","name":"Hooghly","state":"west-bengal"},"geometry":{"type":"Polygon","coordinates":[[[87.8531,22.5953],[87.9922,22.7039],[88.3501,22.6544],[88.4066,22.9431],[88.5014,23.1053],[88.4143,23.2098],[88.3608,23.1177],[88.1696,23.1562],[88.0503,22.9898],[87.8393,22.9362],[87.7124,23.0105],[87.5228,22.928],[87.7414,22.7768],[87.8531,22.5953]]]}},{"type":"Feature","properties":{"key":"west-bengal/howrah","slug":"howrah","name":"Howrah","state":"west-bengal"},"geometry":{"type":"Polygon","coordinates":[[[88.2384,22.5444],[88.3577,22.6324],[88.3501,22.6544],[87.9922,22.7039],[87.8531,22.5953],[87.8928,22.5197],[87.9983,22.2447],[88.0824,22.2612],[88.0901,22.363],[88.2384,22.5444]]]}},{"type":"Feature","properties":{"key":"west-bengal/jalpaiguri","slug":"jalpaiguri","name":"Jalpaiguri","state":"west-bengal"},"geometry":{"type":"Polygon","coordinates":[[[88.4005,26.6439],[88.4204,26.5628],[88.7599,26.3291],[88.9617,26.5381],[89.1192,26.5243],[89.0428,26.6316],[89.0902,26.8405],[88.8685,26.9656],[88.4785,26.8804],[88.4005,26.6439]]]}},{"type":"Feature","properties":{"key":"west-bengal/jhargram","slug":"jhargram","name":"Jhargram","state":"west-bengal"},"geometry":{"type":"Polygon","coordinates":[[[87.0762,22.7259],[86.8943,22.6517],[86.6098,22.7988],[86.5594,22.7135],[86.7658,22.576],[86.8453,22.4001],[86.7276,22.2159],[86.8377,22.0976],[87.0288,22.0385],[87.1007,21.8639],[87.2429,21.9643],[87.1374,22.1265],[87.2047,22.3038],[87.0824,22.4716],[87.0762,22.7259]]]}},{"type":"Feature","properties":{"key":"west-bengal/kalimpong","slug":"kalimpong","name":"Kalimpong","state":"west-bengal"},"geometry":{"type":"Polygon","coordinates":[[[88.425,27.0715],[88.4785,26.8804],[88.8685,26.9656],[88.8654,27.1086],[88.7216,27.1389],[88.532,27.176],[88.425,27.0715]]]}},{"type":"Feature","properties":{"key":"west-bengal/kolkata","slug":"kolkata","name":"Kolkata","state":"west-bengal"},"geometry":{"type":"Polygon","coordinates":[[[88.4143,22.5568],[88.3577,22.6324],[88.2384,22.5444],[88.4143,22.5568]]]}},{"type":"Feature","properties":{"key":"west-bengal/malda","slug":"malda","name":"Malda","state":"west-bengal"},"geometry":{"type":"Polygon","coordinates":[[[87.7109,25.2582],[87.795,25.0877],[87.954,24.9736],[87.8913,24.8554],[88.0274,24.6904],[88.1742,24.8609],[88.3944,24.9695],[88.4357,25.2005],[88.269,25.3036],[88.1497,25.2719],[88.0672,25.4837],[87.9601,25.5386],[87.7674,25.4163],[87.7109,25.2582]]]}},{"type":"Feature","properties":{"key":"west-bengal/murshidabad","slug":"murshidabad","name":"Murshidabad","state":"west-bengal"},"geometry":{"type":"Polygon","coordinates":[[[87.8913,24.8554],[87.8393,24.7454],[87.8898,24.5653],[88.0167,24.311],[87.8989,24.1625],[87.8439,23.9096],[87.9662,23.8092],[88.1773,23.7611],[88.4082,23.8202],[88.5122,23.992],[88.7002,24.0965],[88.7415,24.2546],[88.5596,24.3082],[88.1329,24.5103],[88.0274,24.6904],[87.8913,24.8554]]]}},{"type":"Feature","properties":{"key":"west-bengal/nadia","slug":"nadia","name":"Nadia","state":"west-bengal"},"geometry":{"type":"Polygon","coordinates":[[[88.1773,23.7611],[88.3868,23.4971],[88.3256,23.3157],[88.4143,23.2098],[88.5014,23.1053],[88.4066,22.9431],[88.6115,22.9074],[88.688,23.0256],[88.7094,23.2318],[88.7629,23.4463],[88.5932,23.6167],[88.607,23.8614],[88.7324,23.9109],[88.7002,24.0965],[88.5122,23.992],[88.4082,23.8202],[88.1773,23.7611]]]}},{"type":"Feature","properties":{"key":"west-bengal/north-24-parganas","slug":"north-24-parganas","name":"North 24 Parganas","state":"west-bengal"},"geometry":{"type":"Polygon","coordinates":[[[89.055,22.1279],[88.8577,22.9679],[88.9419,23.2057],[88.7094,23.2318],[88.688,23.0256],[88.6115,22.9074],[88.4066,22.9431],[88.3501,22.6544],[88.3577,22.6324],[88.4143,22.5568],[88.6238,22.5802],[88.8042,22.3286],[89.055,22.1279]]]}},{"type":"Feature","properties":{"key":"west-bengal/paschim-bardhaman","slug":"paschim-bardhaman","name":"Paschim Bardhaman","state":"west-bengal"},"geometry":{"type":"Polygon","coordinates":[[[87.0854,23.812],[86.9157,23.8821],[86.801,23.8339],[86.801,23.6992],[86.9019,23.6387],[87.2093,23.5576],[87.4494,23.4023],[87.5335,23.6085],[87.0854,23.812]]]}},{"type":"Feature","properties":{"key":"west-bengal/paschim-medinipur","slug":"paschim-medinipur","name":"Paschim Medinipur","state":"west-bengal"},"geometry":{"type":"Polygon","coordinates":[[[87.5228,22.928],[87.3576,22.9541],[87.064,22.851],[87.0762,22.7259],[87.0824,22.4716],[87.2047,22.3038],[87.1374,22.1265],[87.2429,21.9643],[87.2827,21.8034],[87.4417,21.7677],[87.4601,22.0083],[87.7017,22.1265],[87.7231,22.319],[87.6466,22.4358],[87.8928,22.5197],[87.8531,22.5953],[87.7414,22.7768],[87.5228,22.928]]]}},{"type":"Feature","properties":{"key":"west-bengal/purba-bardhaman","slug":"purba-bardhaman","name":"Purba Bardhaman","state":"west-bengal"},"geometry":{"type":"Polygon","coordinates":[[[87.9662,23.8092],[87.9586,23.6305],[87.8454,23.5507],[87.7078,23.6195],[87.5335,23.6085],[87.4494,23.4023],[87.7644,23.0751],[87.7124,23.0105],[87.8393,22.9362],[88.0503,22.9898],[88.1696,23.1562],[88.3608,23.1177],[88.4143,23.2098],[88.3256,23.3157],[88.3868,23.4971],[88.1773,23.7611],[87.9662,23.8092]]]}},{"type":"Feature","properties":{"key":"west-bengal/purba-medinipur","slug":"purba-medinipur","name":"Purba Medinipur","state":"west-bengal"},"geometry":{"type":"Polygon","coordinates":[[[87.4417,21.7677],[87.4845,21.6151],[87.7888,21.699],[87.9555,21.8309],[88.0641,22.0179],[88.1864,22.1045],[87.9983,22.2447],[87.8928,22.5197],[87.6466,22.4358],[87.7231,22.319],[87.7017,22.1265],[87.4601,22.0083],[87.4417,21.7677]]]}},{"type":"Feature","properties":{"key":"west-bengal/purulia","slug":"purulia","name":"Purulia","state":"west-bengal"},"geometry":{"type":"Polygon","coordinates":[[[86.6098,22.7988],[86.7521,23.0888],[86.9019,23.6387],[86.801,23.6992],[86.486,23.636],[86.3101,23.4119],[86.0395,23.4985],[85.885,23.4834],[85.859,23.4298],[85.8193,23.2689],[85.885,23.1672],[86.044,23.1452],[86.2413,22.9967],[86.4355,22.9266],[86.4187,22.7905],[86.5594,22.7135],[86.6098,22.7988]]]}},{"type":"Feature","properties":{"key":"west-bengal/south-24-parganas","slug":"south-24-parganas","name":"South 24 Parganas","state":"west-bengal"},"geometry":{"type":"Polygon","coordinates":[[[88.0824,22.2612],[88.1834,22.187],[88.2078,22.0261],[88.1451,21.9547],[88.2675,21.7278],[88.4449,21.9175],[88.633,21.9547],[89.0688,21.9492],[89.055,22.1279],[88.8042,22.3286],[88.6238,22.5802],[88.4143,22.5568],[88.2384,22.5444],[88.0901,22.363],[88.0824,22.2612]]]}},{"type":"Feature","properties":{"key":"west-bengal/uttar-dinajpur","slug":"uttar-dinajpur","name":"Uttar Dinajpur","state":"west-bengal"},"geometry":{"type":"Polygon","coordinates":[[[88.24,26.4584],[88.2797,26.3305],[87.85,26.0391],[87.8271,25.8906],[87.8928,25.8658],[88.0672,25.4837],[88.1497,25.2719],[88.269,25.3036],[88.1666,25.4259],[88.4464,25.595],[88.0932,25.9304],[88.1788,26.149],[88.3516,26.2219],[88.4846,26.4611],[88.3332,26.4968],[88.24,26.4584]]]}}]}